Golf Course Name,Address,City,State,Golf Course Website,,,,,,,,,,
South Padre Island Golf Club,"1 Golf Course Rd, Laguna Vista, TX 78578",Laguna Vista,TX,http://www.spigolf.com,,,,,,,,,,
Crab Meadow Golf Course,"220 Waterside Rd, Northport, NY 11768-3528",Northport,NY,http://www.crabmeadow.com,,,,,,,,,,
Briar Ridge Golf Course,"11099 Dodge Rd, Montrose, MI 48457-9120",Montrose,MI,http://www.briarridgegolf.com,,,,,,,,,,
Hillside Golf Course,"2616 Hillside Dr, Sidney, NE 69162-2481",Sidney,NE,http://www.hillsidegolfcourse.com/,,,,,,,,,,
Edgebrook Golf Course,"6100 N Central Ave, Chicago, IL 60646",Chicago,IL,http://edgebrook.forestpreservegolf.com/,,,,,,,,,,
Village Green Golf Course,"2501 N Midlothian Rd, Mundelein, IL 60060-1037",Mundelein,IL,http://www.villagegreengc.com,,,,,,,,,,
Santa Anita Golf Course,"405 S Santa Anita Ave, Arcadia, CA 91006",Arcadia,CA,https://www.santaanitagc.com/,,,,,,,,,,
Bulle Rock,"320 Blenhiem Ln, Havre de Grace, MD 21078-2003",Havre de Grace,MD,http://www.bullerock.com,,,,,,,,,,
Links At Tuscaloosa Golf & Country Club,"1800 Links Blvd, Tuscaloosa, AL 35405",Tuscaloosa,AL,http://www.lindseymanagement.com,,,,,,,,,,
Carmel Valley Ranch,"1 Old Ranch Rd, Carmel, CA 93923",Carmel,CA,http://www.carmelvalleyranchclub.com,,,,,,,,,,
Lincoln Hills - Orchard Course,"1005 Sun City Lane, Lincoln, CA",Lincoln,CA,https://www.lincolnhillsgolfclub.com/,,,,,,,,,,
Highland Falls Golf Course,"10201 Sun City Blvd, Las Vegas, NV 89134",Las Vegas,NV,http://www.golfsummerlin.com,,,,,,,,,,
Royal Oaks Golf Course,"3350 Oak St, Lebanon, PA 17042-9453",Lebanon,PA,http://www.royaloaksgolfpa.com,,,,,,,,,,
The Golf Club At Cypress Head,"6231 Palm Vista St, Port Orange, FL 32128-6949",Port Orange,FL,http://www.cypressheadgolf.com,,,,,,,,,,
Mountain Brook Golf Club,"5783 South Mountainbrook Drive, Gold Canyon, AZ 85118",Gold Canyon,AZ,http://www.mountainbrookgolf.com,,,,,,,,,,
Sugarcane Golf Club,"2619 W Canal St N, Belle Glade, FL 33430",Belle Glade,FL,https://www.golfnow.com/courses/1028241-belle-glades-sugarcane-golf-club-details,,,,,,,,,,
Oakview Links Golf Course,"218 Wheatley Dr Exd, Newbern, TN",Newbern,TN,http://www.tnvacation.com/vendors/oakview_links_golf_course/,,,,,,,,,,
Tustin Ranch Golf Club,"12442 Tustin Ranch Rd, Tustin, CA 92782",Tustin,CA,https://www.tustinranchgolf.com/book-tee-times/,,,,,,,,,,
Shamrock Hills Golf Course,"31071 County Road 390, Gobles, MI 49055-9261",Gobles,MI,https://www.shamrockhills.com/,,,,,,,,,,
Eaglewood Conference Resort & Spa,"1401 Nordic Rd, Itasca, IL 60143-2484",Itasca,IL,http://www.eaglewoodresort.com,,,,,,,,,,
Country Club of Newberry,"414 Country Club Rd, Newberry, SC 29108",Newberry,SC,http://www.ccofnewberry.com/,,,,,,,,,,
Inn of the Mountain Gods Resort,"Rt 4, Mescalero, NM 88340",Mescalero,NM,http://www.innofthemountaingods.com,,,,,,,,,,
Lockwood Folly Country Club,"19 Clubhouse Dr., Holden Beach, NC 28462",Holden Beach,NC,http://www.lockwoodfolly.com,,,,,,,,,,
The Blue Heron Golf Course,"1810 W Snoqualmie River Rd., Carnation, WA 98014",Carnation,WA,https://www.theblueherongolf.com/,,,,,,,,,,
Sunnyvale Municipal Golf Course,"605 Macara Ave, Sunnyvale, CA 94085",Sunnyvale,CA,https://www.sunnyvalegolfcourses.com/,,,,,,,,,,
Heritage Glen Golf Club,"29795 Heritage Ln, Paw Paw, MI 49079",Paw Paw,MI,http://www.heritageglengolf.com,,,,,,,,,,
Jay and Lionel Hebert Municipal Golf Course,"1121 Mudd Ave, Lafayette, LA 70501-4518",Lafayette,LA,http://www.hebertmunicipalgolfcourse.com,,,,,,,,,,
Longview Golf Club,"3243 Frankfort Rd, Georgetown, KY 40324-9465",Georgetown,KY,http://www.longviewgolfclub.com,,,,,,,,,,
Harmony Golf Preserve,"7251 Five Oaks Dr, Harmony, FL 34773-6046",Harmony,FL,http://www.harmonygolfpreserve.com,,,,,,,,,,
Knob Hill Golf Club,"1 Shinnecock Dr, Manalapan, NJ 07726-9500",Manalapan,NJ,http://www.knobhillgc.com,,,,,,,,,,
StoneCrest Golf Course,"918 Clubhouse Dr, Prestonsburg, KY 41653-8055",Prestonsburg,KY,http://stonecrestgolfcourse.com,,,,,,,,,,
Twin Lakes Golf Course - Lakes Course,"6201 Union Mill Rd, Clifton, VA 20124-1106",Clifton,VA,http://www.fairfaxcounty.gov/parks/golf/twinlakes/,,,,,,,,,,
Hartford Golf Club,"7072 Lee Rd, Hartford, WI 53027-9701",Hartford,WI,http://www.hartfordgolfclubwi.com,,,,,,,,,,
Foxfire Golf Club | Foxfire,"215 Foxfire Dr, Waupaca, WI 54981-9039",Waupaca,WI,http://www.playfoxfiregolf.com,,,,,,,,,,
Oak Meadows Golf Club,"900 N Wood Dale Rd, Addison, IL 60101-2985",Addison,IL,http://dupagegolf.com/course/,,,,,,,,,,
Lake Carroll,"29-11 Ironwood Dr, Lanark, IL 61046-9311",Lanark,IL,http://www.lakecarrollassociation.com,,,,,,,,,,
Armitage Golf Club,"800 Orrs Bridge Rd, Mechanicsburg, PA 17050",Mechanicsburg,PA,http://armitagegolfclub.com,,,,,,,,,,
Texarkana Golf Ranch,"7401 Scott Wright Road, Texarkana, TX 75503",Texarkana,TX,http://www.hankhaney.com/Facilities/Texarkana.aspx,,,,,,,,,,
Mystic Dunes Golf Club,"7900 Shadow Tree Lane, Celebration, FL 34747",Celebration,FL,http://www.mysticdunesgolf.com,,,,,,,,,,
Crow Creek Golf Club,"240 Hickman Rd NW, Calabash, NC 28467-2017",Calabash,NC,http://www.crowcreek.com,,,,,,,,,,
Indian Run Golf Club,"1975 Avella Road, Avella, PA 15312",Avella,PA,http://www.indianrungolfclub.com/,,,,,,,,,,
Wood Wind Golf Club,"2302 W 161st St, Westfield, IN 46074-9625",Westfield,IN,http://www.woodwindgolf.com,,,,,,,,,,
Cypresswood Golf & Country Club,"1099 Clubhouse Rd, Winter Haven, FL 33884",Winter Haven,FL,http://www.cypresswoodcc.com/,,,,,,,,,,
Country Oaks Golf Club,"5068 E US Highway 50, Montgomery, IN 47558",Montgomery,IN,http://www.countryoaksgolfclub.com/,,,,,,,,,,
Bay Valley Golf Club,"2470 Old Bridge Rd, Bay City, MI 48706-9344",Bay City,MI,http://www.bayvalley.com,,,,,,,,,,
Woodstock Country Club,"14 The Green, Woodstock, VT",Woodstock,VT,http://woodstockinn.com/Activities/Golf,,,,,,,,,,
Island Pointe Golf Club,"9610 Kodak Rd, Knoxville, TN 37764-1048",Knoxville,TN,http://www.riverislandsgolf.com,,,,,,,,,,
Stoneybrook Golf Club,"21251 Stoneybrook Golf Blvd., Estero, FL 33928",Estero,FL,http://stoneybrookgolffm.com/,,,,,,,,,,
The Brookside Club,"11 Brigadoone Rd, Buzzards Bay, MA 02532-8306",Buzzards Bay,MA,http://www.golfbrookside.com/,,,,,,,,,,
Butternut Farm Golf Club,"115 Wheeler Rd, Stow, MA 01775",Stow,MA,http://www.butternutfarm.com,,,,,,,,,,
Sligo Creek Golf Course,"9701 Sligo Creek Pkwy, Silver Spring, MD 20901-3230",Silver Spring,MD,https://www.mcggolf.com/Courses/SligoCreek.aspx,,,,,,,,,,
Delcastle Golf Club,"801 McKennans Church Rd, Wilmington, DE 19808",Wilmington,DE,http://www.delcastlegc.com/index.php,,,,,,,,,,
The Duke At Rancho El Dorado Golf Course,"42660 Rancho El Dorado Pkwy, Maricopa, AZ 85138",Maricopa,AZ,http://www.thedukegolf.com,,,,,,,,,,
St. Ives Golf Club,"9900 Saint Ives Dr, Stanwood, MI 49346-9363",Stanwood,MI,http://www.tullymoregolf.com,,,,,,,,,,
South Shore Golf Club,"200 Huguenot Ave, Staten Island, NY 10312-1153",Staten Island,NY,http://www.southshoregc.com/,,,,,,,,,,
Foothills Golf Course,"3901 S. Carr St., Denver, CO 80235",Denver,CO,http://foothillsgolf.org,,,,,,,,,,
Bear Creek Golf Club,"4125 Lakeside Blvd, Monroe, GA 30655",Monroe,GA,http://www.bearcreekmonroe.com,,,,,,,,,,
Bixby Village Golf Course,"6180 Bixby Village Dr, Long Beach, CA 90803-2001",Long Beach,CA,http://www.bixbyvillagegolfcourse.com,,,,,,,,,,
Cypress Lakes Country Club at Ormond,"10 Villere Dr., Destrehan, LA 70047",Destrehan,LA,http://cypresslakescc.com/,,,,,,,,,,
Greensboro National Golf Club,"330 Niblick Dr, Summerfield, NC 27358-9767",Summerfield,NC,https://www.greensboronational.com/,,,,,,,,,,
Los Verdes Golf Course,"7000 W. Los Verdes Drive, Rancho Palos Verdes, CA 90275",Rancho Palos Verdes,CA,https://www.losverdesgc.com/,,,,,,,,,,
Sugar Mountain Golf Course,"1054 Sugar Mountain Dr, Sugar Mountain, NC 28604",Sugar Mountain,NC,http://www.seesugar.com,,,,,,,,,,
Scotch Pines Golf Course,"10610 Scotch Pines Rd, Payette, ID 83661",Payette,ID,http://scotchpinesgolf.com/,,,,,,,,,,
Rolling Hills Country Club,"13986 Country Club Road, Versailles, MO 65084",Versailles,MO,http://www.playrollinghills.com/,,,,,,,,,,
Newport Golf Club,"112 Unity Rd, Newport, NH 03773",Newport,NH,http://www.newport-golf.com/,,,,,,,,,,
Recreation Park Golf Course 18,"5001 Deukmejian Drive, Long Beach, CA 90804",Long Beach,CA,https://www.recpark18.com/,,,,,,,,,,
Browns Mill Golf Course,"480 Cleveland Ave SE, Atlanta, GA 30354-2245",Atlanta,GA,https://www.golfnow.com/courses/1028905-browns-mill-golf-course-details,,,,,,,,,,
Hyland Golf Club,"115 Fairway Ave, Southern Pines, NC 28387-2502",Southern Pines,NC,http://www.hylandgolfclub.com,,,,,,,,,,
Detwiler Park Golf Course,"4001 North Summit St, Toledo, OH 43611-3067",Toledo,OH,http://detwilerparkgc.com,,,,,,,,,,
Crosswinds Golf Club - Crosswinds Course,"232 James B Blackburn Dr, Savannah, GA 31408-8064",Savannah,GA,http://www.crosswindsgolfclub.com,,,,,,,,,,
Prescott Golf & Country Club,"1030 N Prescott Country Club Blvd, Dewey, AZ 86327-5801",Dewey,AZ,https://www.prescottgolfclub.com/,,,,,,,,,,
The Timbers Golf Club,"7300 Bray Rd, Vassar, MI 48768-9637",Vassar,MI,http://www.timbersgolfclub.com,,,,,,,,,,
Country Club of Mount Dora,"1900 Country Club Blvd, Mount Dora, FL 32757",Mount Dora,FL,http://www.ccofmtdora.com,,,,,,,,,,
Diamond Oaks Golf Course,"349 Diamond Oaks Road, Roseville, CA 95678",Roseville,CA,http://www.golfroseville.com/,,,,,,,,,,
Manchester Country Club,"305 S Main St, Manchester, CT 06040-7004",Manchester,CT,http://www.mancc.com,,,,,,,,,,
Meadows Golf Club-Blue Island,"2802 123rd St, Blue Island, IL 60406-1574",Blue Island,IL,http://www.meadowsgc.com/,,,,,,,,,,
Chowan Golf & Country Club,"1101 W Sound Shore Dr, Edenton, NC 27932",Edenton,NC,http://www.chowangolfandcountryclub.com,,,,,,,,,,
Bay Harbor Golf Club - The Links-Quarry,"3600 Village Harbor Drive, Bay Harbor, MI 49770",Bay Harbor,MI,http://www.bayharborgolf.com/,,,,,,,,,,
Worcester Golf Club,"1600 Green Hill Rd, Collegeville, PA 19426",Collegeville,PA,http://www.worcestergolfclubpa.com/golf/proto/worcestergolfclubpa/,,,,,,,,,,
The Neuse Golf Club,"918 Birkdale Dr, Clayton, NC 27527-6600",Clayton,NC,http://www.neusegolf.com,,,,,,,,,,
Shepherd Hills Golf Club,"1160 S Krocks Rd, Wescosville, PA 18106",Wescosville,PA,http://shepherdhillsgolf.com,,,,,,,,,,
Seminole Lakes Country Club,"26200 Stillwater Cir, Punta Gorda, FL 33955",Punta Gorda,FL,https://www.seminolelakes.net/,,,,,,,,,,
Rancho Del Pueblo Golf Course,"1649 Hermocilla Way, San Jose, CA 95116-2973",San Jose,CA,http://www.ranchodelpueblo.com,,,,,,,,,,
Raleigh Golf Association - Raleigh 1 Course,"1527 Tryon Rd, Raleigh, NC 27603-3130",Raleigh,NC,http://www.rgagolf.net,,,,,,,,,,
Egwani Farms Golf Course,"3920 S Singleton Station Rd, Rockford, Tennessee 37853",Rockford,Tennessee,http://www.egwanifarmsgolf.com,,,,,,,,,,
Candlestone Golf & Resort,"8100 Storey Rd, Belding, MI 48809",Belding,MI,http://www.candlestoneresort.com/,,,,,,,,,,
Peninsula Golf Course,"9604 Pacific Hwy, Long Beach, WA 98631",Long Beach,WA,http://www.peninsulagolfcourse.com,,,,,,,,,,
Strawberry Farms,"11 Strawberry Farms Road, Irvine, CA 92612",Irvine,CA,http://www.sf-golf.com,,,,,,,,,,
Myerlee Country Club,"1380 Myerlee Country Club Blvd, Fort Myers, FL 33919-6699",Fort Myers,FL,http://www.myerleecc.com,,,,,,,,,,
The Legend at Arrowhead,"21027 N 67th Ave, Glendale, AZ 85308-6401",Glendale,AZ,http://www.legendatarrowhead.com,,,,,,,,,,
Stumpy Lake,"4797 Indian River Rd, Virginia Beach, VA 23456",Virginia Beach,VA,http://www.stumpylakegolf.com/,,,,,,,,,,
Elephant Rocks at Williams,"2200 Country Club Dr, Williams, AZ 86046-9794",Williams,AZ,http://www.elephant-rocks.com,,,,,,,,,,
Aliante Golf Club,"3100 Elkhorn Rd, North Las Vegas, NV 89084-2454",North Las Vegas,NV,http://www.aliantegolf.com,,,,,,,,,,
TPC Scottsdale - Stadium Course,"17020 N Hayden Rd, Scottsdale, AZ 85255-6000",Scottsdale,AZ,http://www.tpc.com/scottsdale/,,,,,,,,,,
Blair Park Golf Course,"1901 S Main Street, High Point, NC 27260",High Point,NC,http://www.blairparkgc.com,,,,,,,,,,
Tahoe City,"251 N Lake Boulevard, Tahoe City, CA 96145",Tahoe City,CA,http://www.playtcgc.com/,,,,,,,,,,
Scenic Hills Country Club,"8891 Burning Tree Rd, Pensacola, FL 32514-5669",Pensacola,FL,http://www.scenichills.com,,,,,,,,,,
Olde Point Golf & Country Club,"513 Country Club Drive, Hampstead, NC 28443",Hampstead,NC,http://www.oldepointgolf.com/,,,,,,,,,,
DeBell Golf Course - De Bell Course,"1500 E Walnut Ave, Burbank, CA 91501-1097",Burbank,CA,http://www.debellgolf.com,,,,,,,,,,
Smyrna Golf Course,"101 Sam Ridley Pkwy E, Smyrna, TN 37167",Smyrna,TN,https://www.smyrnagolfcourse.com/,,,,,,,,,,
The Westin Mission Hills Golf Resort - Pete Dye,"71333 Dinah Shore Dr, Rancho Mirage, CA 92270-1501",Rancho Mirage,CA,http://www.westinmissionhillsgolf.com,,,,,,,,,,
Silver Creek Golf Club,"2051 Silver Lake Blvd., White Mountain Lake, AZ 85901",White Mountain Lake,AZ,http://silvercreekgolfaz.com/,,,,,,,,,,
Clinchview,"970 Highway 11w, Bean Station, TN 37708",Bean Station,TN,http://www.clinchviewgolfclub.net/,,,,,,,,,,
Stony Ford Golf Course,"211 State Route 416, Montgomery, NY 12549",Montgomery,NY,http://www.co.orange.ny.us/,,,,,,,,,,
Glacier Club,"8000 Glacier Club Dr, Washington, MI",Washington,MI,http://www.glaciergolfclub.com/,,,,,,,,,,
Oak Country Golf Course,"8800 Scott Drive, DeSoto, KS 66018",DeSoto,KS,http://www.oakcountrygolfcourse.com,,,,,,,,,,
Mattawang Golf Club,"295 Township Line Rd, Belle Mead, NJ 08502-4106",Belle Mead,NJ,http://www.mattawang-golf.com,,,,,,,,,,
Palatka Golf Club,"1715 Moseley Ave, Palatka, FL 32177-5921",Palatka,FL,http://www.palatkagolfclub.com,,,,,,,,,,
Clearbrook Golf Course,"1 Clearbrook Dr, Monroe, NJ",Monroe,NJ,http://www.clearbrookgc.com/,,,,,,,,,,
The Summit Golf Club,"31286 Hwy 19 Blvd., Cannon Falls, MN 55009",Cannon Falls,MN,http://www.summitgolfclub.com,,,,,,,,,,
Black Creek Golf Club,"277 Canterwood Dr, Ellabell, GA 31308-5460",Ellabell,GA,http://www.blackcreekgolfclub.com,,,,,,,,,,
Norwich Golf Club,"685 New London Turnpike, Norwich, CT",Norwich,CT,http://www.norwichgolf.com/,,,,,,,,,,
Hapuna Golf Course,"62-100 Kanuna'oa Drive, Kamuela, HI 96743",Kamuela,HI,http://www.hapunabeachprincehotel.com,,,,,,,,,,
Antelope Hills Golf Course - South,"1 Perkins Drive, Prescott, AZ 86301",Prescott,AZ,http://www.antelopehillsgolf.com,,,,,,,,,,
The Chief Golf Course,"5085 Shanty Creek Rd, Bellaire, MI 49615-9105",Bellaire,MI,http://www.golfthechief.com,,,,,,,,,,
Cypress Lakes Golf Course,"5601 Meridian Rd, Vacaville, CA 95687-9459",Vacaville,CA,https://www.golfnow.com/courses/1027319-cypress-lakes-golf-course-details,,,,,,,,,,
Prairie Falls Golf Club,"3200 N Spokane St, Post Falls, ID 83854-6628",Post Falls,ID,http://www.pfgolf.com/,,,,,,,,,,
Sunday River Resort Golf Club,"18 Championship Dr, Newry, ME 04261",Newry,ME,http://www.sundayrivergolf.com/,,,,,,,,,,
The University of Montana Golf Course,"515 South Ave W, Missoula, MT 59801",Missoula,MT,http://umt.edu/golf,,,,,,,,,,
Las Vegas Paiute Golf Resort - Wolf Course,"10325 Nu Wav Kaiv Blvd, Las Vegas, NV 89124",Las Vegas,NV,http://www.lvpaiutegolf.com/,,,,,,,,,,
East Orange Golf Course,"440 Parsonage Hill Rd, Short Hills, NJ 07078-1161",Short Hills,NJ,http://eastorange-nj.org,,,,,,,,,,
Puakea Golf Course,"4150 Nuhou St, Lihue, HI 96766-8000",Lihue,HI,http://www.puakeagolf.com,,,,,,,,,,
Cherry Oaks Golf Course,"1119 N Main St, Cheney, KS",Cheney,KS,http://www.cherryoaksgc.com/,,,,,,,,,,
Camillus Country Club,"5690 Bennetts Corners Rd, Camillus, NY 13031",Camillus,NY,http://www.camilluscountryclub.com/,,,,,,,,,,
Great Eagle Golf Club,"17091 N Happy Trails Blvd., Surprise, AZ 85374",Surprise,AZ,http://www.greateaglegolfclub.com,,,,,,,,,,
Villa Olivia,"1401 W Lake Street, Bartlett, IL 60103",Bartlett,IL,http://www.villaolivia.com,,,,,,,,,,
Esplanade Golf and Country Club,"12825 Esplanade Blvd, Lakewood Ranch, FL 34211",Lakewood Ranch,FL,http://www.esplanadelwr.com,,,,,,,,,,
J. Edward Good Park Golf Course,"530 Nome Ave, Akron, OH 44320-1234",Akron,OH,http://www.golfakroncity.com/,,,,,,,,,,
Rivers Edge Golf Course,"144 Marina Drive, Needles, CA 92363",Needles,CA,http://www.golfneedlesca.com,,,,,,,,,,
Maple Meadows Golf Club - Maple Meadows West 18 Course,"272 S Addison Rd, Wood Dale, IL 60191-2314",Wood Dale,IL,http://dupagegolf.com/course3/,,,,,,,,,,
Old Hickory Golf Club,"11921 Chanceford Dr, Woodbridge, VA 22192-5526",Woodbridge,VA,http://www.golfoldhickory.com,,,,,,,,,,
St. Anne Country Club,"781 Shoemaker Lane, Feeding Hills, MA 01030",Feeding Hills,MA,http://www.stannecc.com/,,,,,,,,,,
Lake Limerick Country Club,"790 E Saint Andrews Dr, Shelton, WA 98584",Shelton,WA,http://lakelimerick.com,,,,,,,,,,
The Timbers at Troy,"6100 Marshalee Dr, Elkridge, MD 21075-5977",Elkridge,MD,http://www.timbersgolf.com,,,,,,,,,,
The Meadows Golf Club,"6937 South Simms St., Littleton, CO",Littleton,CO,https://www.foothillsgolf.org/golf_Meadows_Golf_Club.asp?sub=MGC,,,,,,,,,,
Links at Stoney Point,"709 Swing About, Greenwood, SC",Greenwood,SC,http://www.linksatstoneypoint.com/,,,,,,,,,,
Clerbrook Golf & RV Resort,"20005 US Highway 27, Clermont, FL 34715-9009",Clermont,FL,http://www.clerbrook.com,,,,,,,,,,
Oak Valley Golf Club,"37600 14th St, Beaumont, CA 92223",Beaumont,CA,http://www.oakvalleygolf.com,,,,,,,,,,
Palm Cove Golf and Yacht Club,"2363 SW Carriage Hill Ter, Palm City, FL 34990-4321",Palm City,FL,http://www.palmcovegolf.com,,,,,,,,,,
Avalon Golf & Country Club,"1299 Oak Chase Blvd, Lenoir City, TN 37772-6968",Lenoir City,TN,http://www.avalongolf.com,,,,,,,,,,
Firewheel Golf Park - Old Course,"600 W Campbell Rd, Garland, TX 75044-2506",Garland,TX,http://www.golffirewheel.com,,,,,,,,,,
Highfields Golf & CC,"42 Magill Dr, Grafton, MA 01519",Grafton,MA,http://highfieldsgolfcc.com,,,,,,,,,,
Phillips Park Golf Course,"1001 Hill Ave, Aurora, IL 60505-3880",Aurora,IL,http://www.phillipsparkaurora.com,,,,,,,,,,
Golden Horseshoe Green Course,"651 S. England Street, Williamsburg, VA 23185",Williamsburg,VA,http://www.colonialwilliamsbuâ€¦,,,,,,,,,,
Manitou Ridge Golf Course,"3200 McKnight Rd N, White Bear Lake, MN 55110",White Bear Lake,MN,http://www.manitouridge.com,,,,,,,,,,
Newcastle Country Club,"2302 W Main St, Newcastle, WY 82701-2329",Newcastle,WY,http://www.facebook.com/NewcastleCountryClub,,,,,,,,,,
Grand Canyon University Golf Course,"5902 W Indian School Rd, Phoenix, AZ 85033-2801",Phoenix,AZ,http://www.gcugolf.com/,,,,,,,,,,
Cairo Country Club,"1701 US Highway 84 W, Cairo, GA 39827-4234",Cairo,GA,http://www.cairocountryclub.net/,,,,,,,,,,
New Albany Springs Golf Course,"1702 Graybrook Ln, New Albany, IN 47150",New Albany,IN,http://www.pga.com/golf-courses/details/in/new-albany,,,,,,,,,,
Pine Meadows Golf Course,"320 Country Club Ln, Lewistown, MT 59457",Lewistown,MT,http://www.pinemeadowslewistown.com/,,,,,,,,,,
Barefoot Resort and Golf Club - Fazio Course,"4980 Barefoot Resort Bridge Rd, North Myrtle Beach, SC 29582-9361",North Myrtle Beach,SC,http://www.barefootgolf.com,,,,,,,,,,
Spring Meadow Golf Course,"4181 Atlantic Ave, Farmingdale, NJ 07727",Farmingdale,NJ,http://www.springmeadowgc.com/,,,,,,,,,,
Raven Golf Club - Phoenix,"3636 E Baseline Rd, Phoenix, AZ 85042-7214",Phoenix,AZ,http://www.ravenphx.com,,,,,,,,,,
Marshall Canyon Golf Course,"6100 Stephens Ranch Rd, La Verne, CA 91750-1135",La Verne,CA,http://marshallcanyon.com/,,,,,,,,,,
The Club at Eaglebrooke,"1300 Eaglebrooke Blvd, Lakeland, FL 33813-4663",Lakeland,FL,http://www.eaglebrooke.com,,,,,,,,,,
Clearwater Country Club,"525 N Betty Ln, Clearwater, FL 33755-4709",Clearwater,FL,http://www.clearwatercountryclub.com,,,,,,,,,,
MetroWest Golf Club,"2100 S Hiawassee Rd, Orlando, FL 32835",Orlando,FL,http://www.metrowestgolf.com,,,,,,,,,,
The Idaho Club,"216 Clubhouse Way, Sandpoint, ID 83864-9194",Sandpoint,ID,http://www.theidahoclub.com,,,,,,,,,,
"Valley View Club, Inc.","1511 George Rd NE, Lancaster, OH 43130-8710",Lancaster,OH,http://www.golfvalleyview.com,,,,,,,,,,
Jekyll Island Golf Club - Oleander Course,"322 Captain Wylyy Rd, Jekyll Island, GA 31527",Jekyll Island,GA,http://golf.jekyllisland.com/golf-courses/oleander,,,,,,,,,,
Wedgwood Country Club,"200 Hurffville Rd, Turnersville, NJ 08012-1827",Turnersville,NJ,http://www.wedgwoodcc.com,,,,,,,,,,
Indian Lakes Golf Course,"4700 Umatilla Rd, Boise, ID 83709",Boise,ID,http://www.indianlakesgolf.com,,,,,,,,,,
Callippe Preserve Golf Course,"8500 Club House Dr, Pleasanton, CA 94566-9848",Pleasanton,CA,http://www.playcallippe.com,,,,,,,,,,
Copper Mill Golf Club,"2100 Copper Mill Blvd, Zachary, LA 70791",Zachary,LA,https://www.coppermillgc.com/,,,,,,,,,,
Rogues Roost Golf & Country Club - WEST,"1092 State Route 31, Bridgeport, NY 13030",Bridgeport,NY,http://www.roguesroost.com/,,,,,,,,,,
Pelham Bay & Split Rock Golf Courses - Split Rock,"870 Shore Road, Bronx, NY 10464",Bronx,NY,https://www.pelhamsplitrock.com/,,,,,,,,,,
Plantation Palms Golf Club,"23253 Plantation Palms Blvd, Land O Lakes, FL 34639-6750",Land O Lakes,FL,http://www.plantationpalms.net,,,,,,,,,,
Deer Park,"100 Deer Park Ln, Oglesby, IL 61348-9637",Oglesby,IL,http://www.golfillinois.com/courses/oglesby/deer-park/,,,,,,,,,,
Aguila Golf Course,"8440 S. 35th Ave., Laveen, AZ 85339",Laveen,AZ,http://www.phoenix.gov/golf,,,,,,,,,,
Wolfdancer Golf Club,"575 Hyatt Lost Pines Road, Lost Pines, TX 78612",Lost Pines,TX,http://www.wolfdancergolfclub.com/,,,,,,,,,,
Allendale Country Club,"1047 Allen St, North Dartmouth, MA 02747",North Dartmouth,MA,http://www.allendalecc.net/,,,,,,,,,,
Shamrock Golf Course,"19625 Larkin Road, Corcoran, MN 55340",Corcoran,MN,http://www.shamrockgolfcourse.com,,,,,,,,,,
Timber Ridge Golf Club,"10030 Timber Ridge Rd, Minocqua, WI 54548",Minocqua,WI,http://www.timberridgegolfclub.com,,,,,,,,,,
The Golf Club of Florissant,"50 Country Club Lane, Florissant, MO 63033",Florissant,MO,http://www.golfclubofflorissant.com,,,,,,,,,,
Table Mountain Golf Course,"2700 Oro Dam Blvd W, Oroville, CA 95965-9210",Oroville,CA,http://www.tablemountaingolf.com,,,,,,,,,,
Spooky Brook Golf Course,"582 Elizabeth Ave, Somerset, NJ 08873-5204",Somerset,NJ,http://www.somersetcountyparks.org,,,,,,,,,,
Myrtle Beach National King's North,"4900 National Dr, Myrtle Beach, SC",Myrtle Beach,SC,http://www.mbn.com/courses/myrtle-beach-national-kings-north,,,,,,,,,,
Forest Park Golf Course,"101 Forest Park Drive, Woodhaven, NY 11421",Woodhaven,NY,http://www.golfnyc.com/forestpark_home/,,,,,,,,,,
Winter Pines Golf Club,"950 S Ranger Blvd, Winter Park, FL 32792-5100",Winter Park,FL,http://www.winterpinesgc.com,,,,,,,,,,
Soldiers Creek Golf Club,"12096 County Road 95, Elberta, AL 36530",Elberta,AL,http://www.soldierscreekgolfclub.com/,,,,,,,,,,
River Run Golf Links,"1801 27th St E, Bradenton, FL 34208-7402",Bradenton,FL,http://www.riverrungolflinks.com,,,,,,,,,,
Country Club At Silver Springs Shores,"633 Silver Rd, Ocala, FL 34472-2704",Ocala,FL,http://www.silverspringsgolfcc.com/,,,,,,,,,,
Falmouth Country Club - Championship,"630 Carriage Shop Rd., East Falmouth, MA 02536",East Falmouth,MA,http://www.falmouthcountryclub.com,,,,,,,,,,
Silverado Golf and Country Club,"36841 Clubhouse Dr, Zephyrhills, FL 33542",Zephyrhills,FL,http://www.golfsilverado.com,,,,,,,,,,
Willow Creek Golf Club,"15905 Darrow Road, Vermilion, OH 44089",Vermilion,OH,http://www.golfohio.com/courses/vermilion/willow-creek-gc/,,,,,,,,,,
McNary Golf Club,"155 McNary Estates Dr N, Keizer, OR 97303",Keizer,OR,http://mcnarygolfclub.com,,,,,,,,,,
Lochmere Golf & Country Club,"360 Laconia Rd, Tilton, NH 03276",Tilton,NH,http://lochmeregolf.com,,,,,,,,,,
Sharp Park Golf Course,"1 Sharp Park Rd, Pacifica, CA",Pacifica,CA,http://sharpparkgc.ghinclub.com/,,,,,,,,,,
Myrtle Beach National Golf Course - West Course,"4900 National Dr, Myrtle Beach, SC 29579",Myrtle Beach,SC,http://www.mbn.com,,,,,,,,,,
River Falls Plantation,"100 Player Blvd, Duncan, SC 29334-9464",Duncan,SC,http://www.riverfallsgolf.com,,,,,,,,,,
Pond-A-River Golf Course,"26025 River Rd, Woodburn, IN 46797",Woodburn,IN,http://www.pga.com/golf-courses/details/woodburn/pond-river-golf-club,,,,,,,,,,
Coyote Lakes Golf Club,"18800 N Coyote Lakes Pkwy, Surprise, AZ 85374-2576",Surprise,AZ,http://www.coyotelakesgolfclub.com,,,,,,,,,,
Coyote Ridge Golf Club,"1640 West Hebron Pkwy, Carrollton, TX 75010-3223",Carrollton,TX,http://www.coyoteridgegolfclub.com,,,,,,,,,,
Oregon City Golf Club,"20124 Beavercreek Rd, Oregon City, OR 97045-9554",Oregon City,OR,http://www.ocgolfclub.com,,,,,,,,,,
Tanglewood Golf Course,"245 Tanglewood Ct, Taylorsville, KY 40071-7667",Taylorsville,KY,http://www.golftanglewood.com,,,,,,,,,,
Eagle Mountain Golf Club,"14915 E Eagle Mountain Pkwy, Fountain Hills, AZ 85268-6322",Fountain Hills,AZ,http://www.eaglemtn.com,,,,,,,,,,
Greer Golf & Country Club,"2299 Gap Creek Rd, Greer, SC 29651",Greer,SC,http://www.greercountryclub.com/,,,,,,,,,,
Tara Hills Golf Course,"1410 Western Hills Dr, Papillion, NE 68046-7037",Papillion,NE,https://www.papillion.org/155/Tara-Hills,,,,,,,,,,
Grand Falls Casino and Resort | The Falls,"1415 Grand Falls Blvd, LARCHWOOD, IA 51241",LARCHWOOD,IA,http://www.grandfallsresort.com/,,,,,,,,,,
Coyote Moon Golf Course,"10685 Northwoods Blvd, Truckee, CA 96161-6056",Truckee,CA,http://www.coyotemoongolf.com,,,,,,,,,,
Golf at the Legacy,"1515 Shumway Ave, Faribault, MN 55021-3124",Faribault,MN,http://www.legacygolf.net,,,,,,,,,,
Yadkin Country Club,"2501 Country Club Rd, Yadkinville, NC 27055-5125",Yadkinville,NC,http://yadkinvalleygolf.com/,,,,,,,,,,
Carter Plantation,"23475 Carter Trace, Springfield, LA 70462-8088",Springfield,LA,http://www.carterplantation.com,,,,,,,,,,
Red Hawk Golf And Resort-Lakes - Lakes Course,"6600 N Wingfield Pkwy, Sparks, NV 89436-8605",Sparks,NV,http://www.theresortatredhawk.com,,,,,,,,,,
Hughes Creek Golf Club,"1749 Spring Valley Drive, Elburn, IL 60119",Elburn,IL,http://www.hughescreek.com,,,,,,,,,,
Oakland Golf Club,"100 N Parson Ave, Oakland, NE 68045",Oakland,NE,http://www.oaklandnegolfclub.com/,,,,,,,,,,
Sunset Golf Course,"1900 Longs Peak Ave Unit 1, Longmont, CO 80501-4791",Longmont,CO,http://www.ci.longmont.co.us/golf,,,,,,,,,,
Madisonville Community Golf Course,"105 Country Club Ln, Madisonville, KY 42431-3807",Madisonville,KY,http://www.facebook.com/MadisonvilleCountryClub/,,,,,,,,,,
Gaylord Country Club,"4893 M-32 West, Gaylord, MI 49735",Gaylord,MI,http://www.gaylordcountryclub.com,,,,,,,,,,
Winding River Golf Course,"8015 Mann Road, Indianapolis, IN 46221",Indianapolis,IN,http://www.windingrivergc.com,,,,,,,,,,
Flushing Valley Golf Club,"1124 W. Main St., Flushing, MI 48433",Flushing,MI,http://flushingvalley.com/flushing-valley-golf-club/,,,,,,,,,,
Marion Lake Club,"2030 NC Hwy 126, Nebo, NC 28761",Nebo,NC,http://www.marionlakeclub.com,,,,,,,,,,
Calhoun Elks Golf Club,"143 Craigtown Rd NE, Calhoun, GA 30701-8931",Calhoun,GA,http://www.elks.org/lodges/home.cfm?LodgeNumber=1883,,,,,,,,,,
Stoneybrook East Golf Club,"2900 Northampton Ave, Orlando, FL 32828-7946",Orlando,FL,http://www.greatorlandogolf.com,,,,,,,,,,
Herndon Centennial Golf Course,"909 Ferndale Ave, Herndon, VA 20170-3446",Herndon,VA,https://www.herndongolf.com/,,,,,,,,,,
Oakdale Golf Club,"55106 County Road 38, Buffalo Lake, MN 55314",Buffalo Lake,MN,http://www.oakdalegolfclub.com,,,,,,,,,,
Highlands Golf & Racquet Club,"1400 N Highlands Pkwy, Tacoma, WA 98406-2126",Tacoma,WA,http://www.highlandsgolf.org,,,,,,,,,,
Willow Hill Golf Course,"1350 Willow Rd., Northbrook, IL 60062",Northbrook,IL,http://www.willowhillgolfcourse.com,,,,,,,,,,
Stone Mountain Golf Club - Stone Mountain Course,"1145 Stonewall Jackson Dr, Stone Mountain, GA 30083-7115",Stone Mountain,GA,http://www.stonemountaingolf.com/,,,,,,,,,,
Colony West Country Club | Glades,"6800 NW 88th Ave, Tamarac, FL 33321",Tamarac,FL,http://www.golfcolonywest.com,,,,,,,,,,
Bent Creek Golf Club,"2200 Bent Creek Dr, Jackson, MO 63755",Jackson,MO,http://www.bentcreekgc.com,,,,,,,,,,
Raintree Golf Club,"5925 Plantation Dr, Hillsboro, MO 63050",Hillsboro,MO,http://www.raintreecountryclub.net/,,,,,,,,,,
Enosburg Falls Country Club,"53 Elm St, Enosburg Falls, Vermont 05450",Enosburg Falls,Vermont,http://www.efccvt.com,,,,,,,,,,
Hilldale Golf Club,"1625 Ardwick Dr, Hoffman Estates, IL 60169-6738",Hoffman Estates,IL,http://www.hilldalegolf.com,,,,,,,,,,
Minebrook Golf Club,"500 Schooleys Mountain Rd, Hackettstown, NJ 07840-4017",Hackettstown,NJ,http://www.minebrookgc.com,,,,,,,,,,
Trilogy Golf Club At Power Ranch,"4415 E Village Pkwy, Gilbert, AZ 85298",Gilbert,AZ,https://www.powerranchgolfclub.com/,,,,,,,,,,
Painted Mountain Golf Club - Painted Mountain Course,"6210 E McKellips Rd, Mesa, AZ 85215-2823",Mesa,AZ,http://www.paintedmountaingolf.com,,,,,,,,,,
Algonkian Regional Park Golf Course,"47001 Fairway Dr, Sterling, VA 20165-6480",Sterling,VA,http://www.nvrpa.org,,,,,,,,,,
Shalimar Pointe Country Club,"302 Country Club Rd, Shalimar, FL 32579",Shalimar,FL,http://www.shalimarpointe.com,,,,,,,,,,
Riverside Golf Club,"3000 Riverside Parkway, Grand Prairie, TX 75050",Grand Prairie,TX,https://www.playriversidetx.com/,,,,,,,,,,
Landa Park Municipal Golf Course,"180 Golf Course Dr, New Braunfels, TX 78130",New Braunfels,TX,http://www.ci.new-braunfels.tx.us/index.aspx?nid=423,,,,,,,,,,
Whitetail Run Golf Course,"Highway 71 North, Wadena, MN 56482",Wadena,MN,http://www.whitetailrungolfcourse.com,,,,,,,,,,
Fox Creek Golf & Racquet Club,"5445 Beavercrest Dr, Lorain, OH 44053-1700",Lorain,OH,http://www.foxcreeksports.com,,,,,,,,,,
Boulder Creek Golf Club,"16901 Big Basin Way, Boulder Creek, CA 95006-9218",Boulder Creek,CA,http://www.bouldercreekgolf.com,,,,,,,,,,
Highland Walk At Victoria Bryant,"1415 Bryant Park Rd, Royston, GA 30662-1916",Royston,GA,http://gastateparks.org/highland-walk,,,,,,,,,,
Coyote Hills Golf Course,"1440 E Bastanchury Rd, Fullerton, CA 92835-2822",Fullerton,CA,http://www.coyotehillsgc.com,,,,,,,,,,
Richter Park Golf Course,"100 Aunt Hack Rd, Danbury, CT 06811-2722",Danbury,CT,http://www.richterpark.com,,,,,,,,,,
Rock Spring Golf Course,"1 Rock Springs Dr, Alton, IL",Alton,IL,http://www.rockspringgolfcourse.com/,,,,,,,,,,
Pinewood Golf Club,"405 Country Club Blvd, Slidell, LA 70458-1399",Slidell,LA,https://www.golfnow.com/courses/1030972-pinewood-country-club-details,,,,,,,,,,
Rolling Fields Golf Course,"4138 Hankey Church Road, Murrysville, PA 15668",Murrysville,PA,http://www.rollingfieldsgolfclub.com,,,,,,,,,,
Rapidan Golf Club,"35448 Somerset Ridge Rd, Locust Grove, VA 22508-2159",Locust Grove,VA,http://www.rapidangolf.com,,,,,,,,,,
Desert Hills Golf Course - Par 3,"1301 w. 32nd st, Yuma, AZ 85364",Yuma,AZ,http://www.cityofyumagolf.com/,,,,,,,,,,
Chippewa Golf Course,"12147 Shank Rd, Doylestown, OH 44230-9707",Doylestown,OH,http://www.chippewagolfclub.com,,,,,,,,,,
Marion Golf & Athletic Club,"303 Club Cir, Marion, AR 72364-1602",Marion,AR,http://www.lindseymanagement.com,,,,,,,,,,
Canyon Springs Golf Club,"24405 Wilderness Oak, San Antonio, TX 78258-7874",San Antonio,TX,http://www.canyonspringsgc.com,,,,,,,,,,
Pilgrim's Oak Golf Course,"1107 Pilgrims Pathway, Peach Bottom, PA 17563-9665",Peach Bottom,PA,http://www.pilgrimsoak.com,,,,,,,,,,
Rattlewood Golf Course,"13501 Penn Shop Rd, Mount Airy, MD 21771-4555",Mount Airy,MD,http://www.montgomerycountygolf.com,,,,,,,,,,
Ridgeview Golf Course,"10360 W Main St, Kalamazoo, MI 49009-8217",Kalamazoo,MI,http://www.ridgeviewgolf.com,,,,,,,,,,
Glendale Lakes Golf Club,"1550 President St, Glendale Heights, IL 60139-3603",Glendale Heights,IL,http://www.glendalelakes.com,,,,,,,,,,
Picadome Golf Course,"469 Parkway Dr, Lexington, KY 40504-2709",Lexington,KY,https://www.golfnow.com/courses/1030691-picadome-golf-course-details,,,,,,,,,,
Meramec Lakes Golf Course,"321 Birdie Lane, St. Clair, MO 63077",St. Clair,MO,http://www.merameclakes.com/,,,,,,,,,,
Missaukee Golf Club,"5300 S Morey Rd, Lake City, MI 49651-8090",Lake City,MI,http://www.golfmichigan.net/missaukeegolf,,,,,,,,,,
Langston Course & D.R.,"2600 Benning Rd NE, Washington, DC 20002-4846",Washington,DC,http://www.golfdc.com,,,,,,,,,,
Meadowlark Golf Course,"16782 Graham St, Huntington Beach, CA 92649-3738",Huntington Beach,CA,http://www.meadowlarkgc.com,,,,,,,,,,
Paradise Valley Golf Course,"3505 East Union Hills Dr., Phoenix, AZ 85050",Phoenix,AZ,http://www.paradisevalleygc.com/,,,,,,,,,,
Orangebrook Golf & Country Club - West,"400 Entrada Drive, Hollywood, FL 33021",Hollywood,FL,http://www.orangebrook.com,,,,,,,,,,
Quail Valley Golf Club,"901 Teeter Rd, Littlestown, PA 17340",Littlestown,PA,http://quailvalleygc.com,,,,,,,,,,
Raspberry Falls Golf & Hunt Club,"41601 Raspberry Dr, Leesburg, VA 20176-6271",Leesburg,VA,http://www.raspberryfalls.com,,,,,,,,,,
Blackhawk Golf Course,"2100 Palmer Dr, Janesville, WI 53545-5254",Janesville,WI,http://www.golfjanesville.com/,,,,,,,,,,
Boughton Ridge Golf Course,"335 E Boughton Rd, Bolingbrook, IL 60440-2001",Bolingbrook,IL,http://www.boughtonridgegolf.com/,,,,,,,,,,
Old Hickory Golf Club,"7596 State Highway 33 Trunk, Beaver Dam, WI",Beaver Dam,WI,http://www.oldhickorycc.com/,,,,,,,,,,
Marengo Ridge Golf Club,"9508 Harmony Hill Rd, Marengo, IL",Marengo,IL,http://www.marengoridgegolfclub.com/,,,,,,,,,,
Lake Junaluska Golf Course,"756 Golf Course Rd, Waynesville, NC 28786-2684",Waynesville,NC,http://www.lakejunaluska.com/activities/golf_course/,,,,,,,,,,
Oak Valley Golf Club,"261 Oak Valley Blvd, Advance, NC 27006-7185",Advance,NC,http://www.oakvalleygolfclub.com,,,,,,,,,,
Lakes of Lady Lake Golf Course,"503 Canopy Ln, Lady Lake, FL 32159-2523",Lady Lake,FL,http://www.floridagolf.com/courses/lady-lake/lakes-of-lady-lake-gc/,,,,,,,,,,
Gambler Ridge Golf Club,"121 Burlington Path Rd, Cream Ridge, NJ 08514",Cream Ridge,NJ,http://www.gamblerridge.com,,,,,,,,,,
Spring Creek,"1800 Spring Creek Drive, Seneca, KS",Seneca,KS,http://www.springcreek-seneca.com/,,,,,,,,,,
Mountain Meadows Golf Course,"1875 Fairplex Dr, Pomona, CA 91768-1297",Pomona,CA,http://www.mountainmeadowsgc.com/,,,,,,,,,,
Highland Woods Golf Course,"2775 Ela Road, Hoffman Estates, IL 60192",Hoffman Estates,IL,http://highlandwoods.forestpreservegolf.com/,,,,,,,,,,
Tecolote Canyon Golf Course,"2755 Snead Ave, San Diego, CA 92111-4605",San Diego,CA,http://www.tecolotecanyon.com/?doubleclick=false,,,,,,,,,,
Highpoint Golf Club,"1215 High Point Dr, Nicholasville, KY 40356-8309",Nicholasville,KY,http://www.pga.com/golf-courses/details/ky/nicholasville/highpoint-golf-club,,,,,,,,,,
Lake Tansi Golf Course,"2476 Dunbar Road, Crossville, TN 38572",Crossville,TN,http://www.laketansigolf.com,,,,,,,,,,
Jug Mountain Ranch Golf Course,"13834 Farm To Market Rd, McCall, ID 83638-5312",McCall,ID,http://www.jugmountainranch.com,,,,,,,,,,
Cherokee Hills,"5740 Center Rd, Valley City, OH 44280-9746",Valley City,OH,http://www.cherokeehillsgolf.com,,,,,,,,,,
Big Cypress Golf Club: North Course,"10000 US Highway 98 N, Lakeland, FL","Lakeland,",FL,http://www.cypresslakesfla.com/big-cypress-golf-club.aspx,,,,,,,,,,
Broad Run Golfers Club,"1520 Tattersall Way, WEST CHESTER, PA 19380",WEST CHESTER,PA,http://www.broadrungc.com,,,,,,,,,,
Wallinwood Springs,"8152 Weatherwax Dr, Jenison, MI 49428-8300",Jenison,MI,http://www.wallinwoodspringsgolf.com,,,,,,,,,,
Shoreline Golf Course,"210 Locust St, Carter Lake, IA 51510-1548",Carter Lake,IA,http://www.golfshoreline.com,,,,,,,,,,
Twin Hills Country Club,"RR 31, Coventry, CT 06238",Coventry,CT,http://twinhillcountryclub.com,,,,,,,,,,
Powderhorn Golf Course,"3991 Bates Road, Madison, OH 44057",Madison,OH,http://www.powderhorngc.com/,,,,,,,,,,
Beaver Creek Golf Club,"1100 Plains Port Hudson Rd, Zachary, LA 70791-6103",Zachary,LA,http://golf.brec.org/courses/beaver-creek/,,,,,,,,,,
The Links at Whitmore Lake,"1111 Six Mile Rd, Whitmore Lake, MI 48189-9537",Whitmore Lake,MI,http://www.linksatwhitmorelake.com/,,,,,,,,,,
Country Club of Miami - East,"6801 NW 186th St, Hialeah, Florida 33015",Hialeah,Florida,http://www.golfccmiami.com,,,,,,,,,,
Martindale Country Club,"527 Beech Hill Rd, Auburn, ME 04211",Auburn,ME,http://www.martindalecc.com,,,,,,,,,,
Links At Bentonville Golf & Athletic Club,"2101 SE Hilton Head Dr, Bentonville, AR 72712-6352",Bentonville,AR,http://www.lindseymanagement.com,,,,,,,,,,
Kaanapali Kai,"2290 Kaanapali Pkwy, Lahaina, HI 96761-1907",Lahaina,HI,http://www.kaanapaligolfcourses.com/sites/courses/layout9.asp?id=1229&page=75152,,,,,,,,,,
St. Peters Golf Course,"200A Salt Lick Rd, Saint Peters, MO 63376-1146",Saint Peters,MO,http://www.stpetersmo.net/st-peters-golf-course.aspx,,,,,,,,,,
Greystone Golf Club,"2555 Highway 70 E, Dickson, TN 37055",Dickson,TN,http://www.greystonegc.com/sites/courses/greystone.asp?id=434&page=12884,,,,,,,,,,
Trenton Golf Club,"2060 Back Valley Rd, Trenton, GA 30752-4641",Trenton,GA,http://www.trentongolfclub.com,,,,,,,,,,
Whispering Pines Golf Course,"900 Harrelson Blvd, Myrtle Beach, SC 29577",Myrtle Beach,SC,http://www.wpinesgolf.com/,,,,,,,,,,
The Reserve Vineyards and Golf Club,"4805 SW 229th Ave, Aloha, OR",Aloha,OR,https://www.reservegolf.com/,,,,,,,,,,
River Downs Golf Club,"1900 River Downs Drive, Finksburg, MD 21048",Finksburg,MD,http://www.riverdownsgolf.com/,,,,,,,,,,
Prairie Woods Golf Club,"12601 County Highway A, East, Avalon, WI 53505",Avalon,WI,http://www.prairiewoodsgolfcourse.com,,,,,,,,,,
Claremont Golf Club,"15800 NW Country Club Dr, Portland, OR 97229-8713",Portland,OR,http://www.claremontgolfclub.com/,,,,,,,,,,
Mill Pond Golf Course,"300 Mill Rd., Medford, NY 11763",Medford,NY,http://www.golfatmillpond.com,,,,,,,,,,
Las Colinas Golf Club,"21515 E Village Loop Rd North, Queen Creek, AZ 85242-8102",Queen Creek,AZ,https://www.lascolinasgolfaz.com/,,,,,,,,,,
Santa Barbara Golf Club,"3500 McCaw Ave, Santa Barbara, CA 93105-3265",Santa Barbara,CA,https://www.playsantabarbara.com/,,,,,,,,,,
Kokopelli Golf Course,"1800 W Guadalupe Rd, Gilbert, AZ 85233-2926",Gilbert,AZ,http://www.kokopelligc.com,,,,,,,,,,
Seminole Lake Country Club,"6100 Augusta Blvd, Seminole, FL 33777-4720",Seminole,FL,http://www.seminolelake.net,,,,,,,,,,
Talking Stick Golf Club - Piipaash,"9998 E Talking Stick Way, Scottsdale, AZ 85256",Scottsdale,AZ,http://www.talkingstickgolfclub.com,,,,,,,,,,
Nickol Knoll Golf Club,"3800 N Kennicott Ave, Arlington Heights, IL 60004",Arlington Heights,IL,http://www.ahpd.org/nkgc,,,,,,,,,,
Rogers Park Golf Course,"7911 N 30th Street, Tampa, FL 33610",Tampa,FL,http://www.rogersparkgc.com,,,,,,,,,,
"Golden Hawk Golf Club, Restaurant & Banquet Center","9861 Meisner Rd, Casco, MI 48064-2914",Casco,MI,http://www.goldenhawkgc.com,,,,,,,,,,
Cimarron National Golf Club - Aqua Canyon Course,"500 Duffys Way, Guthrie, OK 73044-8771",Guthrie,OK,http://www.cimarronnational.com,,,,,,,,,,
Encanto Nine Golf Course,"2300 N 17th Ave, Phoenix, AZ 85007-1220",Phoenix,AZ,http://www.phoenix.gov/golf,,,,,,,,,,
Old Brickyard Golf Course,"605 North I-45, Ferris, TX 75125",Ferris,TX,http://www.oldbrickyardgolf.com,,,,,,,,,,
Plattsburg Country Club,"804 W. Frost St., Plattsburg, MO 64477",Plattsburg,MO,http://www.plattsburgcc.com,,,,,,,,,,
Buckingham Golf & Country Club,"2855 Eastlake Dr, Kelseyville, CA 95451-9031",Kelseyville,CA,http://www.facebook.com/pages/category/Golf-Course---Country-Club/Buckingham-Golf-Country-Club-1645361302376428/,,,,,,,,,,
Sunland Springs Golf Course,"11061 E. Medina, Mesa, AZ",Mesa,AZ,http://www.ssvgolf.com/,,,,,,,,,,
Sullivan Country Club,"11 Country Club Drive, Sullivan, MO 63080",Sullivan,MO,http://sullivan-cc.com/,,,,,,,,,,
Cranbury Golf Club,"49 Southfield Road, West Windsor, NJ 08550",West Windsor,NJ,http://www.cranburygolf.com,,,,,,,,,,
The Golf Club at Bradshaw Farm - White,"3030 Bradshaw Club Dr, Woodstock, GA 30188-2300",Woodstock,GA,http://www.bradshawfarmgc.com,,,,,,,,,,
St. Clair Shores Country Club,"22185 Masonic Blvd, Saint Clair Shores, MI 48082-2907",Saint Clair Shores,MI,http://www.scsgolf.com/,,,,,,,,,,
Firewheel Golf Park - Lake Course,"600 W Campbell Rd, Garland, TX 75044-2506",Garland,TX,http://www.golffirewheel.com,,,,,,,,,,
Lake Cora Hills Golf Course,"56640 C R 671, Paw Paw, MI 49079",Paw Paw,MI,http://www.lakecoragolf.com/,,,,,,,,,,
Mary Calder Golf Club,"2101 W Lathrop Ave, Savannah, GA 31402",Savannah,GA,http://www.marycaldergc.com/index.htm,,,,,,,,,,
PAR Country Club,"1658 Highway 2861, Comanche, TX 76442",Comanche,TX,http://www.parcountryclub.net/,,,,,,,,,,
Old South Golf Links,"50 Buckingham Plantation Dr, Bluffton, SC 29910-6542",Bluffton,SC,http://www.oldsouthgolf.com,,,,,,,,,,
Stone Ridge Golf Club,"1553 Muirfield Drive, Bowling Green, OH 43402-",Bowling Green,OH,http://www.stoneridgegolfclub.org,,,,,,,,,,
Cedar Beach Golf Course,"Cedar Beach Ocean Parkway, Babylon, NY 11702",Babylon,NY,http://www.townofbabylon.com,,,,,,,,,,
Sebastian Municipal Golf Course,"100 Brush Foot Dr, Sebastian, FL 32958-3924",Sebastian,FL,http://www.sebastiangolfcourse.org,,,,,,,,,,
Eagle's Landing Golf Course,"12367 Eagles Nest Rd, Berlin, MD 21811-2453",Berlin,MD,http://www.eagleslandinggolf.com,,,,,,,,,,
The Groves Golf and Country Club,"7924 Melogold Cir, Land O Lakes, FL 34637-7509",Land O Lakes,FL,http://www.thegrovesgolfandcountryclub.com/,,,,,,,,,,
Hesperia Golf & Country Club,"17970 Bangor Ave, Hesperia, CA 92345",Hesperia,CA,http://www.golfhesperiaparks.com/index.htm,,,,,,,,,,
Ottawa Park Golf Course,"2315 Walder Park Drive, Toledo, OH 43606",Toledo,OH,http://www.ottawaparkgc.com,,,,,,,,,,
Winston Lake Golf Clubhouse,"3535 Winston Lake Rd, Winston Salem, NC 27105",Winston Salem,NC,http://www.cityofws.org/golf,,,,,,,,,,
Disney's Oak Trail,"1950 W Magnolia Palm Drive, Lake Buena Vista, FL 32830",Lake Buena Vista,FL,https://www.golfwdw.com,,,,,,,,,,
Falcon Ridge Golf Course,"33942 Falcon Ave, Stacy, MN 55079-9581",Stacy,MN,http://www.falconridgegolf.net,,,,,,,,,,
Putnam County Golf Course,"187 Hill St, Mahopac, NY 10541-2724",Mahopac,NY,http://putnamcountygc.com/,,,,,,,,,,
Rio Pinar Country Club,"8600 El Prado Avenue, Orlando, FL 32825",Orlando,FL,http://www.riopinar.com,,,,,,,,,,
Canterbury Green Golf Course,"2727 Canterbury Blvd, Fort Wayne, IN 46835-3201",Fort Wayne,IN,http://www.canterburygreengolf.com,,,,,,,,,,
Sycuan Resort- Pine Glen Golf Course,"3007 Dehesa Rd, El Cajon, CA 92019",El Cajon,CA,http://www.sycuanresort.com,,,,,,,,,,
Sapphire Mountain Golf Club,"50 Slicers Ave, Sapphire, NC 28774-9405",Sapphire,NC,http://www.sapphirenationalgolfclub.com,,,,,,,,,,
Date Palm Country Club,"36200 Date Palm Dr, Cathedral City, CA 92234-1506",Cathedral City,CA,http://www.datepalmcountryclub.net/,,,,,,,,,,
Westport Golf Club,"7494 Golf Course Rd S, Denver, NC 28037",Denver,NC,http://westportgc.com,,,,,,,,,,
Big Sky Resort Golf Course,"50 Big Sky Resort Rd, Big Sky, MT 59716",Big Sky,MT,http://bigskyresort.com/things-to-do/golf-course,,,,,,,,,,
Blueberry Plantation Golf & Country Club,"315 Ironwood Cir, Alma, GA 31510-1835",Alma,GA,http://www.blueberryplantation.com,,,,,,,,,,
Nine Springs Golf Course,"2201 Traceway Dr, Fitchburg, WI 53713",Fitchburg,WI,http://www.ninespringsgolfcourse.com,,,,,,,,,,
Anderson Creek Golf Club,"125 Whispering Pines Dr, Spring Lake, NC 28390",Spring Lake,NC,https://andersoncreekclub.com/custompages/golf-course/,,,,,,,,,,
Western Skies Golf Club,"1245 E Warner Rd, Gilbert, AZ 85296",Gilbert,AZ,http://www.westernskiesgolf.com/,,,,,,,,,,
Angel Fire Resort Country Club,"100 Country Club Drive, Angel Fire, NM 87710",Angel Fire,NM,http://www.angelfireresort.com,,,,,,,,,,
Wildhorse Golf Club of Robson Ranch,"9400 Ed Robson Blvd Ste A, Denton, TX 76207-8671",Denton,TX,http://www.robsonranch.com,,,,,,,,,,
Westover Golf Course,"181 South Street, Granby, MA 01033",Granby,MA,http://www.westovergolfcourse.com,,,,,,,,,,
Viera East Golf Club,"2300 Clubhouse Dr, Viera, FL 32955",Viera,FL,http://www.vieragolf.com,,,,,,,,,,
Lake Diamond Golf & Country Club,"16 Golf View Dr, Ocala, FL 34472-5000",Ocala,FL,http://golf-fla.com/diamond.html,,,,,,,,,,
Shorecliffs Golf Club,"501 Avenida Vaquero, San Clemente, CA 92672",San Clemente,CA,http://shorecliffsgolfclub.com/,,,,,,,,,,
Gavilan College Golf Course,"5055 Santa Teresa Blvd, Gilroy, CA 95020-9578",Gilroy,CA,http://gavilangolfcourse.com/,,,,,,,,,,
Wildwood Golf Course,"2200 Button Willow, Village Mills, TX 77663",Village Mills,TX,http://www.wildwoodresortcity.com,,,,,,,,,,
Forest Hills Country Club,"36260 SW Tongue Ln, Cornelius, OR 97113-6242",Cornelius,OR,http://www.golfforesthills.com,,,,,,,,,,
Hudson Hills Golf Course,"400 Croton Dam Rd, Ossining, NY 10562-1704",Ossining,NY,https://golf.westchestergov.com/hudson-hills-golf-course,,,,,,,,,,
Eagle Point Golf Club,"100 Eagle Point Drive, Eagle Point, OR 97524",Eagle Point,OR,http://www.eaglepointgolf.com,,,,,,,,,,
Hanover Country Club,"14314 Country Club Dr, Ashland, VA 23005-3139",Ashland,VA,http://www.hanovercountryclub.com,,,,,,,,,,
Needwood Golf Course - Needwood Course,"6724 Needwood Rd, Derwood, MD 20855-1639",Derwood,MD,http://www.mcggolf.com/Courses/Needwood.aspx,,,,,,,,,,
Wesburn Golf Club,"5617 South Huron River Drive, South Rockwood, MI 48179",South Rockwood,MI,http://www.wesburngolfcourse.com/,,,,,,,,,,
Deerfield Golf Club,"1201 Saunders Rd, Deerfield, IL 60015",Deerfield,IL,http://www.deerfieldgolf.org,,,,,,,,,,
The Pines Golf Club,"1319 N Millborne Rd, Orrville, OH 44667-9500",Orrville,OH,http://www.thepinesgolf.com,,,,,,,,,,
Charlie Yates Golf Course,"10 Lakeside Village Dr SE, Atlanta, GA 30317-3101",Atlanta,GA,http://www.charlieyatesgolfcourse.com,,,,,,,,,,
Logan River Golf Course,"550 W 1000 S, Logan, UT 84321-5935",Logan,UT,http://www.loganutah.org,,,,,,,,,,
Meadow Oaks Golf Club,"13125 Fairwinds Rd, Hudson, FL 34669-2438",Hudson,FL,http://www.meadowoakscountryclub.com/,,,,,,,,,,
Woods Fort Country Club,"1 Country Club Dr, Troy, MO 63379",Troy,MO,http://www.woodsfortgolf.com/,,,,,,,,,,
Wendell Country Club,"180 Jake May Dr., Wendell, NC 27591",Wendell,NC,http://www.wendellcc.com,,,,,,,,,,
St. Germain Golf Club,"PO Box 385, Saint Germain, WI 54558",Saint Germain,WI,http://stgermaingolf.com/,,,,,,,,,,
Regatta Bay Golf & Country Club,"465 Regatta Bay Blvd, Destin, FL 32541-5329",Destin,FL,http://www.regattabay.com,,,,,,,,,,
The Legends Golf Club,"41687 Temeku Dr, Temecula, CA 92591-3909",Temecula,CA,http://www.thelegendsgc.com,,,,,,,,,,
Idle Creek Golf Course,"5353 Ryanne Marie Ln, Terre Haute, IN 47802-8173",Terre Haute,IN,http://www.idlecreek.com,,,,,,,,,,
Maple Lane Golf Club - East,"33203 Maple Ln Dr, Sterling Heights, MI","Sterling Heights,",MI,http://www.maplelanegolf.com/,,,,,,,,,,
Lenoir Golf Club,"701 Norwood St SW, Lenoir, NC 28645-5807",Lenoir,NC,http://www.lenoirgolfclub.com,,,,,,,,,,
Riverwood Golf Club,"400 Riverwood Dr, Clayton, NC 27527",Clayton,NC,https://www.riverwoodgolfnc.com/,,,,,,,,,,
Flagg Creek Golf Course,"6939 Wolf Rd, Indianhead Park, IL 60525",Indianhead Park,IL,http://www.flaggcreekgolfcourse.org/,,,,,,,,,,
Majestic Oaks Golf Club - Crossroads Course,"701 Bunker Lake Blvd NE, Andover, MN 55304-6720",Andover,MN,http://www.majesticoaksgolfclub.com,,,,,,,,,,
Marysville Golf Club,"13683 State Route 38, Marysville, OH 43040-9023",Marysville,OH,http://www.marysvillegolfclub.com,,,,,,,,,,
Palm Valley Golf Course,"9201 Del Webb Blvd, Las Vegas, NV 89134",Las Vegas,NV,http://www.golfsummerlin.com,,,,,,,,,,
Sunset Grove Golf Course,"41615 NW Osterman Rd, Forest Grove, OR 97116-8063",Forest Grove,OR,http://www.sunsetgrovegolf.com,,,,,,,,,,
Plantation Golf Club,"9425 Plantation Rd, Olive Branch, MS 38654",Olive Branch,MS,http://www.olivebranchgolf.com,,,,,,,,,,
Prairie View Golf Club,"7000 Longest Dr, Carmel, IN 46033-8829",Carmel,IN,http://www.prairieviewgc.com,,,,,,,,,,
Renwood Golf Course,"701 E. Shorewood Rd., Round Lake Beach, IL 60073",Round Lake Beach,IL,http://www.renwoodgolf.com,,,,,,,,,,
Logans Run Family Golf Club,"14 Golfview Drive, Logansport, IN 46947",Logansport,IN,http://www.logansrungolf.com/,,,,,,,,,,
Texas A&M Campus Course,"1 Bizzel St, College Station, TX",College Station,TX,http://www.tamucampuscourse.com/,,,,,,,,,,
Hanover Golf Club,"133 Larrison Rd, Wrightstown, NJ 08562",Wrightstown,NJ,http://www.hanovergc.com,,,,,,,,,,
Bill Roberts Municipal Golf Course,"2201 N Benton Ave, Helena, MT 59601-0241",Helena,MT,http://www.billrobertsgolf.com,,,,,,,,,,
Crestview Golf Club,"1680 S Crestline Dr, Waldport, OR 97394-9717",Waldport,OR,http://www.crestviewgolfclub.com,,,,,,,,,,
Cedar Glen Golf Club,"36860 25 Mile Rd, New Baltimore, MI 48047-2817",New Baltimore,MI,http://www.cedarglengolfclub.com,,,,,,,,,,
Seven Oaks Golf Club,"Corner of East Lake Rd & Payne St., Hamilton, NY 13346",Hamilton,NY,http://www.sevenoaksgolf.com,,,,,,,,,,
Vintner's Golf Club,"7901 Solano Ave, Yountville, CA 94599-1453",Yountville,CA,http://www.vintnersgolfclub.com,,,,,,,,,,
Webb Hill,"438 Fm 2358, Wolfe City, TX 75496",Wolfe City,TX,http://www.webbhillcountryclub.com,,,,,,,,,,
Barefoot Resort and Golf Club - Norman Course,"4980 Barefoot Resort Bridge Rd, North Myrtle Beach, SC 29582-9361",North Myrtle Beach,SC,http://www.barefootgolf.com,,,,,,,,,,
McCloud Golf Club,"1001 Squaw Valley Road, McCloud, CA 96057",McCloud,CA,http://www.mccloudgolfclub.com,,,,,,,,,,
Shanty Creek Resorts - The Legend,"5780 Shanty Creek Rd, Bellaire, MI 49615",Bellaire,MI,http://www.shantycreek.com,,,,,,,,,,
Royal American Links,"3300 Miller Paul Rd, Galena, OH",Galena,OH,http://www.royalamericanlinks.com,,,,,,,,,,
Olde Scotland Links,"690 Pine St, Bridgewater, MA 02324",Bridgewater,MA,http://oldescotlandlinks.com,,,,,,,,,,
GreatLife Golf & Fitness At Abilene,"1705 Country Club Ln, Abilene, KS 67410-6931",Abilene,KS,http://www.greatlifegolf.com,,,,,,,,,,
Wigwam Golf Club - Gold,"451 N. Old Litchfield Rd., Litchfield Park, AZ 85340",Litchfield Park,AZ,http://www.wigwamresort.com,,,,,,,,,,
Monroe Country Club,"63 Still Rd, Monroe, NY 10950-3940",Monroe,NY,http://www.monroecountryclubny.com,,,,,,,,,,
Cedar Chase Golf Club,"7551 17 Mile Rd NE, Cedar Springs, MI 49319-9399",Cedar Springs,MI,http://www.cedarchasegolfclub.com,,,,,,,,,,
Quarry Ridge Golf Club,"9 Rose Hill Rd, Portland, CT 06480-1247",Portland,CT,http://www.quarryridge.com,,,,,,,,,,
Boyne Highlands - Heather Course,"600 Hedrick Road, Harbor Springs, MI 49740",Harbor Springs,MI,http://www.boyne.com/boynehighlands/golf/courses/the-heather,,,,,,,,,,
Indian Springs Golf Club,"79-940 Westward Ho Drive, Indio, CA 92201",Indio,CA,http://www.indianspringsgc.com,,,,,,,,,,
Valley Pine Country Club,"901 Lasker Golf Course Rd, Lasker, NC 27845-9636",Lasker,NC,http://www.valleypinecc.com/,,,,,,,,,,
St Denis Golf Course and Party Center,"10660 Chardon Rd, Chardon, OH 44024-9751",Chardon,OH,http://www.stdenisgolfcourse.com,,,,,,,,,,
Palm Desert Country Club - The Champ Course,"77200 California Dr, Palm Desert, CA 92211-7898",Palm Desert,CA,http://www.pdccgolf.com/,,,,,,,,,,
King and Bear Golf Course/World Golf Village,"1 King and Bear Dr, Saint Augustine, FL 32092-2798",Saint Augustine,FL,http://www.golfwgv.com/,,,,,,,,,,
TPC Louisiana,"11001 Lapalco Blvd, Avondale, LA 70094",Avondale,LA,http://www.tpc.com/tpc-louisiana,,,,,,,,,,
Snow Hill Country Club,"11093 SR 73, New Vienna, OH 45159",New Vienna,OH,http://www.snowhillcountryclub.com/,,,,,,,,,,
Honeywell Golf Course,"3360 W Division Rd, Wabash, IN 46992",Wabash,IN,https://www.honeywellgc.com/,,,,,,,,,,
Pequabuck Golf Club,"56 School Street, Pequabuck, CT 06781",Pequabuck,CT,http://www.pequabuckgolf.com,,,,,,,,,,
Angeles National Golf Club,"9401 Foothill Blvd., Sunland, CA 91040",Sunland,CA,"http://www,angelesnational.com",,,,,,,,,,
Oak Hills Golf Course,"1928 Hygeia Rd, Greenbrier, TN 37073-5210",Greenbrier,TN,http://oakhillsgolfcourse.net/,,,,,,,,,,
Shandin Hills Golf Club,"3380 Little Mountain Dr, San Bernardino, CA 92405-0900",San Bernardino,CA,https://www.golfshandinhillsgc.com/,,,,,,,,,,
The Providence Club,"656 Providence Club Dr, Monroe, GA 30656-3374",Monroe,GA,http://www.theprovidenceclubgolf.com,,,,,,,,,,
Cummings Cove Golf & Country Club,"3000 Lakeledge Court, Hendersonville, NC 28739-8711",Hendersonville,NC,http://www.cummingscove.com,,,,,,,,,,
Rolling Oaks Golf Course,"181 Route 25a, Rocky Point, NY 11778-8805",Rocky Point,NY,http://www.golfrollingoaks.com,,,,,,,,,,
Lakeside Golf Course,"1201 N1100 West, West Bountiful, UT 84087",West Bountiful,UT,http://www.lakesidegolfcourse.com/,,,,,,,,,,
Sunrise Golf Course,"2136 Michigan Rd, Madison, IN 47250-2400",Madison,IN,http://www.madisonparks.com,,,,,,,,,,
Sydney R. Marovitz Golf Course,"3600 N Lake Shore Dr, Chicago, IL 60613",Chicago,IL,http://www.cpdgolf.com/Sydney-R-Marovitz-Golf-Course.html,,,,,,,,,,
Browns Lake Golf Course,"932 Browns Lake Dr, Burlington, WI 53105-7232",Burlington,WI,https://www.brownslakegc.com/,,,,,,,,,,
Woodbridge Golf Club,"7400 Country Club Dr., Wylie, TX 75098",Wylie,TX,http://www.wbgolfclub.com/,,,,,,,,,,
Mission Trails Golf Course,"7380 Golfcrest Pl, San Diego, CA 92119-2400",San Diego,CA,http://www.missiontrailsgc.com/,,,,,,,,,,
The Gauntlet Golf Club,"18 Fairway Dr, Fredericksburg, VA 22406-4145",Fredericksburg,VA,http://www.golfgauntlet.com,,,,,,,,,,
Shadow Mountain Golf Club,"73800 Ironwood St, Palm Desert, CA 92260-5531",Palm Desert,CA,http://www.shadowmtgc.com/,,,,,,,,,,
BlackHorse Golf Club - North Course,"12205 Fry Rd, Cypress, TX 77433-3315",Cypress,TX,http://www.blackhorsegolfclub.com,,,,,,,,,,
Bunker Hill Golf Club,"220 Bunker Hill Rd, Princeton, NJ 08540-8514",Princeton,NJ,http://www.distinctgolf.com,,,,,,,,,,
Ajo Golf Course,"77 W Mead Rd, Ajo, AZ 85321",Ajo,AZ,http://www.ajogolfcourse.com/,,,,,,,,,,
Green Acres Golf Course,"7323 Dixie Hwy, Bridgeport, MI 48722-9727",Bridgeport,MI,http://greenacresgc.net,,,,,,,,,,
Rancocas Golf Club,"12 Club Ridge Ln, Willingboro, NJ 08046-3525",Willingboro,NJ,https://www.rancocasgc.com/,,,,,,,,,,
Eaton Canyon Golf Course,"1150 N Sierra Madre Villa Ave, Pasadena, CA 91107",Pasadena,CA,https://www.playeatoncanyon.com/,,,,,,,,,,
Rivermoor Golf Club,"30802 Waterford Drive, Waterford, WI 53185",Waterford,WI,http://rivermoorgolfclub.com/,,,,,,,,,,
Frog Hollow Golf Club,"1 East Whittington Way, Middletown, DE 19709",Middletown,DE,http://www.froghollowgolfclub.com,,,,,,,,,,
St. Joseph Bay Golf Club,"700 Country Club Rd, Port Saint Joe, FL 32456-5448",Port Saint Joe,FL,http://www.stjoebaygolf.com,,,,,,,,,,
Lake Spivey Golf Club,"8255 Clubhouse Way, Jonesboro, GA 30236-4219",Jonesboro,GA,http://www.lakespivey.net,,,,,,,,,,
The Legends Golf Resort | Heathland,"1500 Legends Rd, Myrtle Beach, SC 29579-6808",Myrtle Beach,SC,http://www.legendsgolf.com,,,,,,,,,,
Coweta Club,"300 Arbor Springs Plantation Dr, Newnan, GA 30265-",Newnan,GA,http://cowetaclub.com,,,,,,,,,,
Arrowhead Golf Course | Arrowhead,"655 Gallup Rd, Spencerport, NY 14559-9526",Spencerport,NY,http://www.arrowheadgc.org,,,,,,,,,,
Stonecreek Golf Club,"4435 E. Paradise Village Parkway South, Phoenix, AZ 85032",Phoenix,AZ,http://www.stonecreekgc.com,,,,,,,,,,
Bent Pine Golf Club,"2480 Duck Lake Rd, Whitehall, MI 49461-9756",Whitehall,MI,http://www.bentpinegolfclub.com,,,,,,,,,,
Elks Golf Club of Hillsboro,"451 Danville Pike, HILLSBORO, OH 45133",HILLSBORO,OH,http://hillsboroelks.com/page3,,,,,,,,,,
Crooked Tree Golf Course,"9101 N Thornydale Rd, Tucson, AZ 85742-9082",Tucson,AZ,http://www.crookedtreegc.com/,,,,,,,,,,
Saticoy Golf Course,"1025 South Wells Road, Ventura, CA 93004",Ventura,CA,https://www.saticoygc.com/,,,,,,,,,,
Maple Run Golf Course LLC,"13610A Moser Rd, Thurmont, MD 21788-2237",Thurmont,MD,http://www.maplerungolf.com,,,,,,,,,,
Teetering Rocks Golf Course,"12040 E 86th St, Raytown, MO",Raytown,MO,http://www.teeteringrocks.com/,,,,,,,,,,
Dunmaglas Golf Club,"9031 Boyne City Rd., Charlevoix, MI 49720",Charlevoix,MI,http://www.dunmaglas.com,,,,,,,,,,
Crystal Springs Golf Course,"6650 Golf Course Dr, Burlingame, CA 94010-6543",Burlingame,CA,http://www.playcrystalsprings.com,,,,,,,,,,
Benson Park Golf Course,"5333 N 72nd St, Omaha, NE 68134-2305",Omaha,NE,http://www.cityofomaha.org/parks/recreation/golf,,,,,,,,,,
Twin Lakes Golf Course - Oaks Course,"6201 Union Mill Road, Clifton, VA",Clifton,VA,http://www.fairfaxcounty.gov/parks/golf/twinlakes/,,,,,,,,,,
The Medalist Golf Club,"15701 N Dr N, Marshall, MI 49068-9425",Marshall,MI,http://www.themedalist.com,,,,,,,,,,
The Golf Club at Magnolia Landing,"3501 Avenida Del Vera Boulevard, North Fort Myers, FL 33917",North Fort Myers,FL,http://www.magnolialandingclub.com,,,,,,,,,,
Eagle Rock Golf Club,"211 Carpenter Rd, Defiance, OH 43512-1718",Defiance,OH,http://www.golfeaglerock.com,,,,,,,,,,
Indian Hills Golf Club,"405 Calumet Trce, Murfreesboro, TN",Murfreesboro,TN,http://www.indianhillsgc.com,,,,,,,,,,
Sky View Golf Club,"226 Lafayette Rd, Sparta, NJ 07871-3564",Sparta,NJ,http://www.skyviewgolf.com,,,,,,,,,,
Spring Valley Golf Course,"3441 Calaveras Rd, Milpitas, CA 95035-7214",Milpitas,CA,http://www.springvalleygolfcourse.com,,,,,,,,,,
Wedgewood Country Club,"3201 Old Stantonsburg Road, Wilson, NC 27893",Wilson,NC,http://www.northcarolinagolf.com/courses/wilson/wedgewood-country-club/,,,,,,,,,,
Sun Ridge Golf Course,"1000 Long Drive South, Carson City, NV 89705-6023",Carson City,NV,http://www.sunridgegc.com/,,,,,,,,,,
Sherrill Park Golf Course - One Course,"2001 E Lookout Dr, Richardson, TX 75082-3222",Richardson,TX,http://www.sherrillparkgolf.com,,,,,,,,,,
Arizona Grand Golf Course,"8000 S. Arizona Grand Pkwy, Phoenix, AZ 85044",Phoenix,AZ,https://www.arizonagrandgolf.com/,,,,,,,,,,
Cherry Creek - The Woods Course,"900 Reeves Ave, Riverhead, NY 11901",Riverhead,NY,http://www.cherrycreeklinks.com,,,,,,,,,,
Creekside Golf & Country Club,"591 Westchester Club Dr, Hiram, GA 30141-5028",Hiram,GA,http://www.creeksidegolf.com,,,,,,,,,,
John A. White Golf Course,"1053 Cascade Cir SW, Atlanta, GA 30311-2817",Atlanta,GA,https://www.golfnow.com/courses/1478568-john-a-white-park-golf-course-details,,,,,,,,,,
Tilden Park Golf Course,"10 Golf Course Drive, Berkeley, CA 94708",Berkeley,CA,http://www.tildenparkgc.com/,,,,,,,,,,
Meadowlark Hills Golf Course,"3300 30th Ave., Kearney, NE 68848",Kearney,NE,http://www.meadowlarkhillsgolf.com,,,,,,,,,,
Pomperaug Golf Club,"522 Heritage Rd, Southbury, CT 06488",Southbury,CT,http://www.heritagesouthbury.com,,,,,,,,,,
Olympia Hills,"12900 Mount Olympus, Universal City, TX 78148",Universal City,TX,http://olympiahillsgolf.com,,,,,,,,,,
Pumpkin Ridge Golf Club - Ghost Creek Course,"12930 NW Old Pumpkin Ridge Rd, North Plains, OR 97133-6147",North Plains,OR,http://www.pumpkinridge.com,,,,,,,,,,
The Links at Land's End,"285 Private Road 5980, Yantis, TX 75497",Yantis,TX,http://www.golflakefork.com,,,,,,,,,,
Tuckaway Golf Club,"27641 S Stoney Island Ave, Crete, IL 60417-8032",Crete,IL,http://www.tuckawaygc.com,,,,,,,,,,
Big Bear Mountain Ski & Golf Resort,"43101 Goldmine Drive, Big Bear Lake, CA 92315",Big Bear Lake,CA,http://www.bearmtn.com,,,,,,,,,,
Lagoon Park Golf Course,"2855 Lagoon Park Dr, Montgomery, AL 36109-1112",Montgomery,AL,http://www.montgomeryal.gov,,,,,,,,,,
Emerald Hills Golf Course,"938 Wilmington Way, Redwood City, CA 94062-4036",Redwood City,CA,http://www.emeraldhillslodge.com,,,,,,,,,,
Waikoloa Village Golf Club,"68-1792 Melia St., Waikoloa, HI 96738",Waikoloa,HI,http://www.waikoloavillagegolf.com,,,,,,,,,,
Broadacres Golf Club,"40 Old Orangeburg Rd, Orangeburg, NY","Orangeburg,",NY,http://www.broadacresgolf.com/,,,,,,,,,,
Brook Hill Golf Club,"11175 Fairway Ln, Brookville, IN 47012-8975",Brookville,IN,http://www.brookhillgc.com,,,,,,,,,,
Meridian Sun Golf Club,"1018 Haslett Road, Haslett, MI 48840",Haslett,MI,http://www.meridiansungc.com,,,,,,,,,,
South Winds Golf Club,"14600 Reaume Pkwy, Southgate, MI 48195",Southgate,MI,http://www.golfsouthwinds.com/,,,,,,,,,,
Bay View Golf Club,"1500 Country Club Dr, Milpitas, CA 95035-3456",Milpitas,CA,https://bayview.golf/,,,,,,,,,,
Jamestown Park Golf Course,"7041 E Fork Rd, Jamestown, NC 27282-9574",Jamestown,NC,http://www.jamestownparkgolf.com,,,,,,,,,,
RedHawk Golf Club,"45100 Redhawk Pkwy, Temecula, CA 92592-9500",Temecula,CA,http://www.redhawkgolfcourse.com,,,,,,,,,,
Pinetuck Golf Club,"2578 Tuckaway Road, Rock Hill, SC 29730",Rock Hill,SC,http://www.pinetuckgolf.com/,,,,,,,,,,
Rocky Gap Lodge & Golf Resort,"16701 Lakeview Rd NE, Flintstone, MD 21530-1059",Flintstone,MD,http://www.rockygapresort.com,,,,,,,,,,
Broadland Creek National Golf Course,"118 22nd Street NW, Huron, SD 57350",Huron,SD,http://broadlandcreekgolf.com/,,,,,,,,,,
Blackberry Farm Golf Course,"22100 Stevens Creek Blvd, Cupertino, CA 95014-1037",Cupertino,CA,http://blackberryfarmgolfcourse.com,,,,,,,,,,
Clear Creek Golf Center,"717 Burks Branch Road, Shelbyville, KY 40065",Shelbyville,KY,http://www.clearcreekgolfcenter.com/,,,,,,,,,,
Keith Hills Country Club,"100 Keith Hills Road, Buies Creek, NC 27506",Buies Creek,NC,http://www.keithhills.com/,,,,,,,,,,
Cross Creek Golf Course,"1221 Cross Creek Pkwy NW, Atlanta, GA 30327-1096",Atlanta,GA,http://www.crosscreek-atlanta.com,,,,,,,,,,
Bradshaw Ranch Golf Course Inc,"7350 Bradshaw Rd, Sacramento, CA 95829-1024",Sacramento,CA,http://www.bradshawranchgolf.com,,,,,,,,,,
Palatine Hills Golf Course,"512 W Northwest Hwy, Palatine, IL",Palatine,IL,http://www.palatinehills.org/,,,,,,,,,,
The Lodge Golf Course,"601 Corona Place, Cloudcroft, NM 88317",Cloudcroft,NM,http://www.thelodgeresort.com/golf.cfm,,,,,,,,,,
Whittle Springs Golf Course,"3133 Valley View Drive, Knoxville, TN 37917",Knoxville,TN,http://www.golfwhittlesprings.com,,,,,,,,,,
Hartington Golf Club,"101 E Felber St, Hartington, NE 68739",Hartington,NE,http://www.ci.hartington.ne.us,,,,,,,,,,
Willow Crest Golf Club,"3500 Midwest Rd, Oak Brook, IL 60523-2573",Oak Brook,IL,http://www.willowcrestgolf.com,,,,,,,,,,
Eagle Ridge Golf Club,"2951 Club Dr, Gilroy, CA 95020-3043",Gilroy,CA,http://www.eagleridgegc.com,,,,,,,,,,
Cresta Verde Golf Course,"1295 Cresta Rd, Corona, CA 92879-1132",Corona,CA,http://www.golfcrestaverde.com,,,,,,,,,,
Harbor Pines Golf Club,"500 Saint Andrews Dr, Egg Harbor Township, NJ 08234-7721",Egg Harbor Township,NJ,http://www.harborpines.com,,,,,,,,,,
Lakeview Resort Mountainview Course,"1 Lakeview Dr, Morgantown, WV","Morgantown,",WV,http://www.lakeviewresort.com/west-virginia-golf-resort/,,,,,,,,,,
Auburn Golf Course,"29630 Green River Road SE, Auburn, WA 98092",Auburn,WA,http://www.auburngolf.org,,,,,,,,,,
Summerfield Crossings Golf Club,"13050 Summerfield Blvd, Riverview, FL 33579-7117",Riverview,FL,http://www.summerfieldgc.com,,,,,,,,,,
Raptor Bay Golf Club,"23001 Coconut Point Resort Dr, Bonita Springs, FL 34134-7247",Bonita Springs,FL,http://www.raptorbaygolfclub.com,,,,,,,,,,
Oak Knoll Country Club,"45246 Country Club Rd, Hammond, LA 70401",Hammond,LA,http://www.oakknollcountryclub.com/,,,,,,,,,,
Ravisloe Country Club,"18231 South Park Avenue, Homewood, IL 60430",Homewood,IL,http://www.ravisloecountryclub.com/,,,,,,,,,,
Headwaters Golf Club,"20018 County 1, Park Rapids, MN",Park Rapids,MN,http://www.headwatersgolf.com/,,,,,,,,,,
LSU Golf Course,"Corner of Burbank and Nicholson, Baton Rouge, LA 70808",Baton Rouge,LA,http://ofs.lsu.edu,,,,,,,,,,
Vail Golf Club,"1778 Vail Valley Dr, Vail, CO 81657-5187",Vail,CO,http://www.vailgolfclub.net,,,,,,,,,,
Eagle Valley,"2600 Double Eagle Ln, Woodbury, MN 55129-4217",Woodbury,MN,http://www.eaglevalleygc.com,,,,,,,,,,
The Players Course at Wyboo Plantation,"2565 Players Course Drive, Manning, SC 29102",Manning,SC,http://www.wyboogolfclub.com/,,,,,,,,,,
Hobb's Hole Golf Course,"1267 Hobbs Hole Drive, Tappahannock, VA 22560",Tappahannock,VA,http://www.hobbshole.com,,,,,,,,,,
Pala Mesa Resort,"2001 Old Highway 395, Fallbrook, CA 92028",Fallbrook,CA,http://www.palamesa.com,,,,,,,,,,
Country Club of the Poconos,"1 Big Ridge Drive, East Stroudsburg, PA 18302",East Stroudsburg,PA,http://www.ccppagolf.com,,,,,,,,,,
CreeksBend Golf Course,"26826 Langford Ave, New Prague, MN 56071-8868",New Prague,MN,http://www.creeksbendgolfcourse.com,,,,,,,,,,
Grassy Creek Golf Club,"2360 Swiss Pine Lake Dr, Spruce Pine, NC 28777",Spruce Pine,NC,http://www.grassycreek.com/,,,,,,,,,,
Green Crest Golf Course,"7813 Bethany Rd, Middletown, OH 45044-9516",Middletown,OH,http://www.greencrestgolf.com,,,,,,,,,,
Legend Trail Golf Club,"9462 E Legendary Ln, Scottsdale, AZ 85262-1139",Scottsdale,AZ,http://www.legendtrailgc.com,,,,,,,,,,
Patriot Hills Golf Course,"735 Constitution Dr, Jefferson City, TN 37760","Jefferson City,",TN,http://www.dandridgegolf.com/,,,,,,,,,,
Brambleton Golf Course,"42180 Ryan Rd, Ashburn, VA 20148-6920",Ashburn,VA,https://www.novaparks.com/golf/brambleton-golf-course,,,,,,,,,,
BlackHorse Golf Club - South,"12205 Fry Rd, Cypress, TX","Cypress,",TX,http://www.blackhorsegolfclub.com/homepage/start_page.php,,,,,,,,,,
Yocha Dehe at Cache Creek,"14455 State Highway 16, Brooks, CA 95606-9707",Brooks,CA,https://www.yochadehegolfclub.com/,,,,,,,,,,
Landings At Spirit Golf Club,"180 N Eatherton Rd, Chesterfield, MO 63005",Chesterfield,MO,http://www.landingsatspirit.com,,,,,,,,,,
Stonewall Orchard Golf Club,"25675 Illinois 60, Grayslake, IL",Grayslake,IL,http://www.stonewallorchard.com/,,,,,,,,,,
Atlantis Golf Course,"261 Country Club Boulevard, Little Egg Harbor, NJ 08087",Little Egg Harbor,NJ,http://www.co.ocean.nj.us/GolfCourses/ContentPage.aspx?ID=de667db1-18ee-478c-ba1d-198c58340c9c,,,,,,,,,,
Plum Creek Country Club,"12401 Lynnwood Blvd, Carmel, IN 46033-8815",Carmel,IN,http://www.plumcreekgolfclub.com,,,,,,,,,,
Canyon Mesa Country Club,"500 Jacks Canyon Rd, Sedona, AZ 86351",Sedona,AZ,http://www.canyonmesacountryclub.com/,,,,,,,,,,
Stonebridge Golf Club,"585 Stonebridge Dr NW, Rome, GA 30165-4415",Rome,GA,http://www.romestonebridge.com,,,,,,,,,,
Augustine Golf Club,"76 Monument Dr, Stafford, VA 22554-8508",Stafford,VA,http://www.augustinegolf.com,,,,,,,,,,
The Currituck Club,"620 Currituck Clubhouse Dr, Corolla, NC 27927-9558",Corolla,NC,http://www.thecurrituckgolfclub.com,,,,,,,,,,
Glenkerry Golf Course,"1413 E Kent Rd., Greenville, MI 48838",Greenville,MI,http://www.golfglenkerry.com/,,,,,,,,,,
Lake Spanaway Golf Course,"15602 Pacific Ave S, Spanaway, WA 98387",Spanaway,WA,http://lakespanawaygc.com,,,,,,,,,,
Salmon Falls Golf Course,"52 Golf Course Ln, Hollis Center, Maine 04004",Hollis Center,Maine,http://www.salmonfalls-resort.com,,,,,,,,,,
Pine Island Golf Course,"920 8th St, Pine Island, MN 55963",Pine Island,MN,http://www.pineislandgolf.com/,,,,,,,,,,
Kentucky Hills Golf Course | Kentucky Hills,"6198 Randolph Summer Shade Rd, SUMMER SHADE, KY 42166",SUMMER SHADE,KY,http://www.facebook.com/Kentucky-Hills-Golf-Course-117575644935602/,,,,,,,,,,
Wolf Creek Golf Club,"401 Paradise Pkwy, Mesquite, NV 89027",Mesquite,NV,http://golfwolfcreek.com,,,,,,,,,,
Western Hills Golf Course,"2160 Russellville Rd, Hopkinsville, KY 42240-8943",Hopkinsville,KY,https://www.westernhillsgolf.org/,,,,,,,,,,
Mansfield National Golf Club,"3750 National Parkway, Mansfield, TX 76063",Mansfield,TX,http://www.mansfield-national.com,,,,,,,,,,
Bonnie Brook Golf Course,"2800 N Lewis Ave, Waukegan, IL 60087-2950",Waukegan,IL,http://www.waukegangolf.org/,,,,,,,,,,
Valencia Golf & Country Club,"1725 Double Eagle Trl, Naples, FL 34120-0436",Naples,FL,http://www.valenciagolfandcountryclub.com,,,,,,,,,,
Springfield Golf Center,"855 Jacksonville Rd, Mount Holly, NJ 08060-3910",Mount Holly,NJ,http://www.springfieldgc.com,,,,,,,,,,
Lake Isle Country Club,"660 White Plains Rd, Eastchester, NY 10709-5511",Eastchester,NY,http://www.lakeislecountryclub.com/,,,,,,,,,,
Hidden Hills Country Club,"3901 Monument Rd, Jacksonville, FL 32225-1799",Jacksonville,FL,http://www.hiddenhillsgc.com/,,,,,,,,,,
The Club at Viniterra,"8647 Angelâ€™s Share Drive, New Kent, VA 23124",New Kent,VA,http://viniterragolf.com/,,,,,,,,,,
Kimball Golf Club,"11823 County Road 150, Kimball, MN 55353",Kimball,MN,http://www.kimballgolfclub.com,,,,,,,,,,
Westridge Golf Club,"1400 S La Habra Hills Dr, La Habra, CA 90631-6998",La Habra,CA,http://www.westridgegolfclub.com,,,,,,,,,,
Barefoot Bay Golf Course,"1225 Barefoot Blvd, Barefoot Bay, FL 32976-7001",Barefoot Bay,FL,http://www.bbrd.org,,,,,,,,,,
The Links Golf Club,"100 Majestic Way, Marlton, NJ 08053",Marlton,NJ,http://www.thelinksgc.com/,,,,,,,,,,
Green Briar Golf Course,"1130 Morris Majestic Rd, Morris, AL 35116-1832",Morris,AL,http://www.greenbriargolfcourse.com,,,,,,,,,,
Parkview Golf Course,"2300 Broadway St, Pekin, IL 61554-3971",Pekin,IL,http://www.parkviewgolfcourseil.com/,,,,,,,,,,
Don Knabe Golf Center,"13717 Shoemaker Ave, Norwalk, CA 90650-4522",Norwalk,CA,http://www.playknabegolf.com,,,,,,,,,,
Elizabethton Golf Club,"185 Buck VanHuss Road, Elizabethton, TN 37643",Elizabethton,TN,http://www.elizabethtongolf.com,,,,,,,,,,
Castle Oaks Golf Club,"1000 Castle Oaks Drive, Ione, CA 95640",Ione,CA,http://www.castleoaksgolf.com,,,,,,,,,,
Cedar Crest,"7972 Mona Rd, Murfreesboro, TN 37129-7432",Murfreesboro,TN,http://www.cedarcrestgolfclub.net,,,,,,,,,,
Beckett Ridge Country Club,"5595 Beckett Ridge Blvd, West Chester, OH 45069-1800",West Chester,OH,http://www.beckettridgegolf.com,,,,,,,,,,
Chenoweth Golf Course,"3087 Chenoweth Rd., Akron, OH 44312",Akron,OH,http://www.chenowethgolf.com,,,,,,,,,,
Stonegate Golf Club - Cypress,"404 Village Drive, Kissimmee, FL 34759",Kissimmee,FL,http://www.stonegategolf.com/,,,,,,,,,,
San Saba River Golf Course,"723 County Road 102, San Saba, TX 76877",San Saba,TX,http://www.golfsansaba.com/,,,,,,,,,,
Lander Golf & Country Club,"1 Golf Course Dr, Lander, WY 82520",Lander,WY,http://www.landergolfclub.com/,,,,,,,,,,
Kelly Plantation Golf Club,"307 Kelly Plantation Dr, Destin, FL 32541-3404",Destin,FL,http://www.kellyplantationgolf.com,,,,,,,,,,
Pike Run Golf Club,"10807 Road H, Ottawa, OH 45875",Ottawa,OH,http://www.pikerungc.com/,,,,,,,,,,
Rock Barn Golf and Spa - Tom Jackson Course,"3791 Club House Dr NE, Conover, NC 28613-9456",Conover,NC,http://www.rockbarn.com,,,,,,,,,,
Hidden Creek Golf Course,"555 E Hidden Creek Pkwy, Burleson, TX 76028-8236",Burleson,TX,http://hiddencreekgc.com/,,,,,,,,,,
Cattails Golf Club,"57737 9 Mile Rd, South Lyon, MI 48178-9708",South Lyon,MI,http://www.cattailsgolfclub.com,,,,,,,,,,
Sandridge Golf Club | Dunes,"5300 73rd St, Vero Beach, FL 32967-5462",Vero Beach,FL,http://www.sandridgegc.com,,,,,,,,,,
Sun City South Golf Course,"11000 N 103rd Ave, Sun City, AZ 85351-4148",Sun City,AZ,http://www.sunaz.com/south.htm,,,,,,,,,,
Ruffled Feathers Golf Club,"1 Pete Dye Dr, Lemont, IL 60439-7742",Lemont,IL,http://www.ruffledfeathersgc.com,,,,,,,,,,
Lost Lake Golf Club,"8300 SE Fazio Dr, Hobe Sound, FL 33455-8209",Hobe Sound,FL,http://www.lostlakegolfclub.com,,,,,,,,,,
Forest Park Golf Course,"1155 Sheffield Dr, Valparaiso, IN 46385-2882",Valparaiso,IN,http://www.valparaisogolf.com,,,,,,,,,,
Hidden Valley Lake Country Club,"18174 Hidden Valley Rd, Hidden Valley Lake, CA 95467",Hidden Valley Lake,CA,http://www.golfhvl.com/,,,,,,,,,,
Highlands Ridge Golf Club - South Course,"4100 Carter Creek Lane, Avon Park, FL 33825",Avon Park,FL,http://highlandsridgegolfclub.com/,,,,,,,,,,
Sandwich Hollows Golf Club,"1 Round Hill Rd, East Sandwich, East Sandwhich, MA",East Sandwhich,MA,http://www.sandwichhollows.com/,,,,,,,,,,
Sun Valley Golf Course,"192 S Highway W, Elsberry, MO 63343-4223",Elsberry,MO,http://www.sunvalleygc.com,,,,,,,,,,
Glencoe C.C.,"1325 1st St E, Glencoe, MN","Glencoe,",MN,http://www.glencoecountryclub.com/,,,,,,,,,,
Chili Country Club,"760 Scottsville-Chili Rd, Scottsville, NY","Scottsville,",NY,http://www.chilicountryclub.com/,,,,,,,,,,
Makray Memorial Golf Club,"1010 S Northwest Hwy, Barrington, IL 60010-4700",Barrington,IL,http://www.makraygolf.com,,,,,,,,,,
Thunderhart Golf Course,"2740 Route 67, Freehold, NY 12431-5518",Freehold,NY,http://www.thunderhartgolf.com,,,,,,,,,,
Pine Creek Golf Club,"9850 Divot Trail, Colorado Springs, CO 80920",Colorado Springs,CO,http://www.pinecreekgc.com,,,,,,,,,,
Melrose Golf Club,"401 Canino Rd, Houston, TX 77076",Houston,TX,http://www.houstontx.gov/municipalgolf/melrose.html,,,,,,,,,,
Northdale Golf & Tennis Club,"4417 Northdale Blvd, Tampa, FL 33624",Tampa,FL,http://www.northdalegolf.com,,,,,,,,,,
Caledonia Golf & Fish Club,"369 Caledonia Drive, Pawleys Island, SC 29585",Pawleys Island,SC,http://www.fishclub.com,,,,,,,,,,
Champions Club At Summerfield,"3400 SE Summerfield Way, Stuart, FL 34997",Stuart,FL,http://www.thechampionsgolfclub.com/,,,,,,,,,,
Fairways of Woodside,"W235 N8518 Clubhouse Cir, Sussex, WI 53089-1546",Sussex,WI,http://www.fairwaysofwoodside.com,,,,,,,,,,
Kings Grant Golf & Country,"347 Shawcroft Rd, Fayetteville, NC 28311",Fayetteville,NC,http://www.kingsgrantlife.com,,,,,,,,,,
Elmwood Golf Course,"6232 Pacific St, Omaha, NE 68106",Omaha,NE,http://www.golfingnebraska.com/course_description/omaha_elmwoodpark.shtml,,,,,,,,,,
Big Island Country Club,"71-1420 Mamalahoa Hwy, Kailua Kona, HI 96740",Kailua Kona,HI,http://www.bigislandcountryclub.com,,,,,,,,,,
Oak Hills Country Club,"1928 Hygeia Rd, Palos Heights, IL 60463",Palos Heights,IL,http://www.oakhills.com/index.htm,,,,,,,,,,
The Club Renaissance,"2121 S Pebble Beach Blvd, Sun City Center, FL 33573-4425",Sun City Center,FL,http://www.clubrenaissancescc.com,,,,,,,,,,
Hornell Golf Club,"473 Seneca Rd, Hornell, NY",Hornell,NY,http://www.hornellgolfclub.com/,,,,,,,,,,
John Pitman Golf Course,"400 S. Main St., Hereford, TX 79045",Hereford,TX,https://www.pitmangc.com/,,,,,,,,,,
The Golf Club At Redlands Mesa,"2325 W Ridges Blvd, Grand Junction, CO 81503-1677",Grand Junction,CO,http://www.redlandsmesa.com,,,,,,,,,,
La Tourette Golf Course,"1001 Richmond Hill Rd, Staten Island, NY 10306-1101",Staten Island,NY,http://latourette.americangolf.com/,,,,,,,,,,
Crandon Golf Key Biscayne,"6700 Crandon Blvd, Key Biscayne, FL 33149-3200",Key Biscayne,FL,http://golfcrandon.com/,,,,,,,,,,
Crescent Oaks Country Club,"3300 Crescent Oaks Blvd, Tarpon Springs, FL 34688-7605",Tarpon Springs,FL,http://www.crescentoaksgolf.com,,,,,,,,,,
Knollwood Golf Club,"12040 Balboa Blvd, Granada Hills, CA 91344-1701",Granada Hills,CA,http://www.knollwoodgc.com,,,,,,,,,,
The River Golf & Country Club,"170 Clear Water Rd, Louisburg, NC 27549",Louisburg,NC,http://www.rivergolf.net,,,,,,,,,,
Olde Mill Golf Club,"6101 West XY Ave, Schoolcraft, MI 49087",Schoolcraft,MI,http://www.oldemillgolf.net/,,,,,,,,,,
Sherwood Forest Golf Club,"79 N Frankwood Ave, Sanger, CA 93657",Sanger,CA,http://www.sherwoodforestgolfclub.com/,,,,,,,,,,
Sandestin Resort and Club - Baytowne Course,"9300 US Highway 98 W, Miramar Beach, FL 32550-7268",Miramar Beach,FL,http://www.BAYTOWNEGOLF.COM,,,,,,,,,,
Den Brae Golf Course,"80 Prescott Rd, Sanbornton, NH 03269-2220",Sanbornton,NH,http://www.denbrae.com,,,,,,,,,,
Heritage Harbor Golf & Country Club,"19502 Heritage Harbor Pkwy, Lutz, FL 33558-9740",Lutz,FL,http://www.heritageharborgolf.com,,,,,,,,,,
Weed Golf Course,"27730 Old Edgewood Rd, Weed, California 96094",Weed,California,http://www.weedgolfcourse.com,,,,,,,,,,
Stonegate Golf Club,"4100 Sweeter Rd, Twin Lake, MI 49457-8648",Twin Lake,MI,http://www.stonegategolfclub.com,,,,,,,,,,
Green Garden Country Club | Blue,"9511 W Manhattan Monee Rd, Frankfort, IL 60423-8011",Frankfort,IL,http://www.greengardencc.com,,,,,,,,,,
Michigan Meadows Golf Course,"4575 County Line Rd, Casco, MI 48064-2800",Casco,MI,http://interactive.golfhub.com/michiganmeadows/start_page.php,,,,,,,,,,
Trophy Club Apalachee,"1008 Dacula Rd, Dacula, GA 30019-2087",Dacula,GA,http://www.trophyclubapalachee.com,,,,,,,,,,
Windy Hill Golf Course - Lake Course,"16500 Midlothian Turnpike, Midlothian, VA 23113",Midlothian,VA,http://www.windyhillsports.com,,,,,,,,,,
Traditions At Chevy Chase,"1000 N Milwaukee Ave, Wheeling, IL 60090-1813",Wheeling,IL,http://www.chevychasecountryclub.com,,,,,,,,,,
Palmetto Hall - Robert Cupp,"108 Fort Howell Dr, Hilton Head Island, SC 29926",Hilton Head Island,SC,http://www.palmettohallclub.com,,,,,,,,,,
Seascape Golf Club,"100 Seascape Dr, Miramar Beach, FL 32550-3919",Miramar Beach,FL,http://www.seascape-resort.com,,,,,,,,,,
PGA West - TPC Stadium Course,"56150 PGA Blvd, La Quinta, CA 92253",La Quinta,CA,http://www.pgawest.com/club/scripts/home/home.asp,,,,,,,,,,
Greens at North Hills,"7400 Highway 107, Sherwood, AR 72120",Sherwood,AR,http://www.thegreensatnorthhills.net,,,,,,,,,,
Halifax Plantation Golf Club,"4000 Old Dixie Highway, Ormond Beach, FL 32174",Ormond Beach,FL,http://www.halifaxplantation.com/,,,,,,,,,,
Ballantrae Golf Club,"1300 Ballantrae Club Drive, Pelham, AL 35124",Pelham,AL,http://www.ballantraegolf.com,,,,,,,,,,
The Links At Stono Ferry,"4812 Stono Links Dr, Hollywood, SC 29449",Hollywood,SC,http://stonoferrygolf.com,,,,,,,,,,
White Heron Golf Club,"200 Eagle Ridge Dr, Davenport, FL",Davenport,FL,https://whgolfclub.com/,,,,,,,,,,
Antelope Green Golf Course,"2721 Elverta Rd, Antelope, CA 95843-9700",Antelope,CA,http://antelopegreensgolf.com,,,,,,,,,,
Talking Stick Golf Club - Oâ€™odham,"9998 E Talking Stick Way, Scottsdale, AZ 85256-1201",Scottsdale,AZ,http://www.talkingstickgolfclub.com,,,,,,,,,,
Rainbows End Golf Club,"20650 SW 80th Place Rd., Dunnellon, FL 34431",Dunnellon,FL,http://www.rainbowsendgolfclub.com/,,,,,,,,,,
Poplar Golf Course,"9548 E Golf Course Rd, Poplar, Wisconsin 54864",Poplar,Wisconsin,http://www.poplargolf.com,,,,,,,,,,
Maplegate Country Club,"160 Maple Street, Bellingham, MA 02019",Bellingham,MA,http://www.maplegate.com,,,,,,,,,,
StoneRidge Golf Course,"1601 N. Bluff Top Dr., Prescott, AZ 86314",Prescott,AZ,http://www.stoneridgegolf.com,,,,,,,,,,
Middletown Country Club,"420 N. Bellevue Ave., Langhorne, PA 19047",Langhorne,PA,http://www.middletowncc.com,,,,,,,,,,
Oak Ridge Golf Club - Marsh Oaks Course,"35035 26 mile Rd., New Haven, MI",New Haven,MI,http://www.oakridgegolf.com/,,,,,,,,,,
Bucknell Golf Club,"Smoketown Rd, Lewisburg, PA 17837",Lewisburg,PA,http://www.bucknell.edu/golfclub,,,,,,,,,,
Beachwood Golf Club,"1520 Highway 17 S, North Myrtle Beach, SC 29582",North Myrtle Beach,SC,http://www.beachwoodgolf.com,,,,,,,,,,
Chemung Hills Golf Club,"3125 Golf Club Rd, Howell, MI 48843-9001",Howell,MI,http://www.chemunghills.com,,,,,,,,,,
Meadowink Golf Course,"4076 Bulltown Rd, Murrysville, PA 15668-9501",Murrysville,PA,http://www.meadowinkgolf.com,,,,,,,,,,
Carlowden Country Club,"4105 Carlowden Rd, Carthage, NY 13619-2103",Carthage,NY,http://www.carlowden.com,,,,,,,,,,
Bear Creek Valley Golf Club,"910 Missouri 42, Osage Beach, MO 65047","Osage Beach,",MO,http://www.bearcreekvalley.com,,,,,,,,,,
Glen Abbey Golf Club,"391 N Pine Meadow Dr, Debary, FL 32713-2303",Debary,FL,http://glenabbey.clublink.ca/,,,,,,,,,,
Fall Creek State Park Golf Course,"2009 Village Camp Rd, Pikeville, TN 37367-6736",Pikeville,TN,http://www.tnstateparks.com,,,,,,,,,,
Buffalo Creek Golf Club,"624 Country Club Dr, Rockwall, TX 75032-5848",Rockwall,TX,http://buffalocreek.americangolf.com/,,,,,,,,,,
Joe Louis Golf Course,"13100 S Halsted St, Riverdale, IL 60827",Riverdale,IL,http://joelouis.forestpreservegolf.com/,,,,,,,,,,
Lima Golf & Country Club - Island Oaks,"7470 Chase Rd, Lima, NY",Lima,NY,http://www.limagolf.com/,,,,,,,,,,
Dublin Ranch Golf Course,"5900 Signal Hill Dr, Dublin, CA 94568-7795",Dublin,CA,http://www.dublinranchgolf.com,,,,,,,,,,
Ellsworth Country Club,"W6920 Golf Course Lane, Ellsworth, WI 54011",Ellsworth,WI,http://www.ellsworthcountryclub.com,,,,,,,,,,
Sugarloaf Golf Club,"18 Golf Course Rd, Sugarloaf, PA 18249-3501",Sugarloaf,PA,http://www.sugarloafgolfclub.com,,,,,,,,,,
Civitan Golf Course,"2200 N Dustin Ave, Farmington, NM",Farmington,NM,http://www.golflink.com/golf-courses/course.aspx?course=755945,,,,,,,,,,
The Golf Club at Copper Valley,"1001 Saddle Creek Drive, Copperopolis, CA 95228",Copperopolis,CA,https://coppervalley.com/,,,,,,,,,,
L.A. Nickell Municipal Golf Course,"1800 Parkside Dr, Columbia, MO 65202",Columbia,MO,http://www.gocolumbiamo.com,,,,,,,,,,
Stansbury Park Golf Club,"1 Clubhouse Dr, Tooele, UT 84074-",Tooele,UT,http://www.stansburygolf.com,,,,,,,,,,
Crawfordsville Municipal Golf Course,"1000 E South Blvd, Crawfordsville, IN 47933-3774",Crawfordsville,IN,http://www.crawfordsville.net/department/index.php?structureid=59,,,,,,,,,,
Gladstan Golf Course,"1 Gladstan Dr, Payson, UT 84651",Payson,UT,http://gladstangolf.com,,,,,,,,,,
Heddles Hideaway Golf Course,"5451 S. Pine St, Spartanburg, SC 29302",Spartanburg,SC,http://www.heddleshideaway.com,,,,,,,,,,
Idabel Country Club,"2301 E Lincoln Rd, Idabel, OK 74745",Idabel,OK,http://www.facebook.com/idabelcountryclub/,,,,,,,,,,
Tannenbaum Golf Club,"5 Kustrin Road, Drasco, AR 72530",Drasco,AR,http://www.tboxgolf.net/,,,,,,,,,,
National City Golf Course,"1439 Sweetwater Rd, National City, CA 91950-7632",National City,CA,http://www.nationalcitygc.com/,,,,,,,,,,
Indian Meadows Golf Club,"275 Turnpike Rd, Westborough, MA 01581",Westborough,MA,http://indianmeadowsgolf.com,,,,,,,,,,
Empire Ranch Golf Club,"1620 E Natoma St, Folsom, CA 95630-5314",Folsom,CA,http://www.empireranchgolfclub.com,,,,,,,,,,
Kensington Golf Course,"2240 W Buno Rd, Milford, MI 48380-4410",Milford,MI,http://golf.metroparks.com/kensington-metropark/,,,,,,,,,,
Back Creek Golf Club,"101 Back Creek Dr, Middletown, DE 19709",Middletown,DE,http://www.backcreekgc.com,,,,,,,,,,
Fairmont Hot Springs Resort,"1500 Fairmont Rd, Anaconda, MT 59711-9461",Anaconda,MT,http://www.fairmontmontana.com,,,,,,,,,,
Craft Farms | Cotton Creek,"3840 Cotton Creek Cir, Gulf Shores, AL 36542-9097",Gulf Shores,AL,http://www.craftfarms.com,,,,,,,,,,
Waterchase Golf Course,"8951 Creek Run Rd, Fort Worth, TX 76120",Fort Worth,TX,http://waterchasegc.com,,,,,,,,,,
Shirkey Golf Course,"901 Wollard Blvd, Richmond, MO 64085",Richmond,MO,http://www.shirkeygolfcourse.com,,,,,,,,,,
Blackhawk Golf Course,"2714 Kelly Ln, Pflugerville, TX 78660-5028",Pflugerville,TX,http://www.blackhawkgolf.com,,,,,,,,,,
Spring Lake Country Club,"1375 Springlake Rd, York, SC 29745",York,SC,http://www.springlakegolfcourse.com/,,,,,,,,,,
Maple Lane Golf Club - North Course,"33203 Maple Lane Dr, Sterling Heights, MI 48312-6213",Sterling Heights,MI,http://www.maplelanegolf.com,,,,,,,,,,
Twin Hills Golf Course Inc,"5719 Ridge Rd W, Spencerport, NY 14559",Spencerport,NY,http://www.twinhillsgolfcourse.com,,,,,,,,,,
Wild Wood Country Club,"1201 Rush West Rush Road, Rush, NY 14543",Rush,NY,http://www.golfwildwood.com/,,,,,,,,,,
Towne Lake Hills Golf Club,"1003 Towne Lake Hills East, Woodstock, GA 30189",Woodstock,GA,http://www.townelakehillsgc.com,,,,,,,,,,
Crown Point Country Club,"Weathersfield Center Rd, Springfield, VT 5156",Springfield,VT,http://www.crownpointcc.com,,,,,,,,,,
Bridges,"711 Hollywood Blvd, Bay Saint Louis, MS 39520-1808",Bay Saint Louis,MS,http://www.hollywoodcasinobsl.com,,,,,,,,,,
Huukan Golf Club,"5835 S Desert Lakes Dr, Fort Mohave, AZ 86426",Fort Mohave,AZ,https://www.mojavegolf.com/,,,,,,,,,,
Ojai Valley Inn and Spa,"905 Country Club Rd, Ojai, CA 93023-3734",Ojai,CA,http://www.ojairesort.com,,,,,,,,,,
Twin Peaks Golf Course,"1200 Cornell Dr, Longmont, CO 80503-2154",Longmont,CO,https://www.golflongmont.com/twin-peaks,,,,,,,,,,
The Pines at Elizabeth City,"1525 North Road Street, Elizabeth City, NC 27909",Elizabeth City,NC,http://www.thepinesec.com/,,,,,,,,,,
Bridges of Poplar Creek Country Club,"1400 Poplar Creek Dr, Hoffman Estates, IL 60169-5028",Hoffman Estates,IL,http://www.bridgesofpoplarcreek.com,,,,,,,,,,
Desert Mirage,"8710 W Maryland Ave, Glendale, AZ 85305-2467",Glendale,AZ,http://www.golfdm.com/,,,,,,,,,,
Glade Valley Golf Club,"10502 Glade Rd, Walkersville, MD 21793-9713",Walkersville,MD,http://www.gladevalleygc.com,,,,,,,,,,
Viking Meadows Golf Club,"1788 Viking Blvd NE, East Bethel, MN 55011",East Bethel,MN,http://www.vikingmeadows.com/,,,,,,,,,,
Deer Ridge Golf Club,"900 Comfort Plaza Drive, Bellville, OH","Bellville,",OH,http://www.deerridgegc.com/,,,,,,,,,,
New York Country Club,"103 Brick Church Rd, Spring Valley, NY 10977-2119",Spring Valley,NY,http://www.nycountryclub.com,,,,,,,,,,
Westboro Country Club,"121 W Main St, Westboro, MA 01581",Westboro,MA,http://westborocountryclub.com/,,,,,,,,,,
Indian Rock Golf Club,"100 Indian Lake Avenue, Gravois Mills, MO 65038",Gravois Mills,MO,http://www.indianrockgolfclub.com,,,,,,,,,,
Indian Hills Country Club,"5700 Club House Dr, Riverside, CA 92509-7098",Riverside,CA,http://www.indianhillsgolf.com,,,,,,,,,,
Taylor Meadows Golf Course,"25360 Ecorse Rd., Taylor, MI 48180",Taylor,MI,http://www.taylorgolf.com,,,,,,,,,,
Bristow Manor Golf Club,"11507 Valley View Dr, Bristow, VA 20136-1501",Bristow,VA,http://www.bristowmanorgc.com,,,,,,,,,,
Johnny Goodman Golf Course,"6111 S 99th St, Omaha, NE 68127-3102",Omaha,NE,http://www.cityofomaha.org/parks/recreation/golf,,,,,,,,,,
Callaway Gardens Golf Resort - Lake View Course,"Intersection GA Hwys. 18/354, Pine Mountain, GA 31822-2513",Pine Mountain,GA,http://www.callawaygardens.com,,,,,,,,,,
Douglaston Park Golf Course,"6320 Marathon Pkwy, Little Neck, NY 11362-2300",Little Neck,NY,http://www.golfnyc.com/douglaston_home/,,,,,,,,,,
Blue Fox Run Golf Course,"65 Nod Road, Avon, CT 06001",Avon,CT,http://www.bluefoxent.com/,,,,,,,,,,
Grand Oaks Golf Club,"3502 Country Club Dr, Grand Prairie, TX 75052-6229",Grand Prairie,TX,http://www.grandoaksgolfclub.com,,,,,,,,,,
Monticello Country Club,"1209 Golf Course Rd, Monticello, MN 55362-8751",Monticello,MN,http://www.montigolf.com,,,,,,,,,,
Jefferson Golf Club,"913 Golf Drive, Jefferson, WI 53549",Jefferson,WI,http://www.jeffersongolf13.com/,,,,,,,,,,
Tanglewood Golf Course,"818 Golf Drive, Fulton, MO 65251",Fulton,MO,http://www.tanglewoodfulton.com/,,,,,,,,,,
Forest Hill Golf Course,"200 Kubo Rd, Drummonds, TN 38023-2944",Drummonds,TN,http://www.foresthillgolfcourse.com,,,,,,,,,,
Suffolk Golf Course,"1227 Holland Rd, Suffolk, VA 23434-6308",Suffolk,VA,https://www.suffolkgolfcourse.org/,,,,,,,,,,
Quail Ridge Golf Course,"5634 Quail Ridge Dr, Sanford, NC 27332-8860",Sanford,NC,http://www.quailridgegolfcourse.com,,,,,,,,,,
Crossings Golf Club,"4023 Wake Forest Rd, Durham, NC 27703-3609",Durham,NC,http://www.crossingsgolf.com,,,,,,,,,,
Oak Crest Golf Course,"N1475 US 8, Norway, MI",Norway,MI,http://www.oakcrestgolf.com/,,,,,,,,,,
McDowell Mountain Golf Club,"10690 E Sheena Dr, Scottsdale, AZ 85255",Scottsdale,AZ,http://www.mcdowellmountaingc.com,,,,,,,,,,
TPC Las Vegas,"9851 Canyon Run Dr, Las Vegas, NV 89144-0801",Las Vegas,NV,http://www.tpc.com/lasvegas,,,,,,,,,,
Redwood Falls Golf Club,"101 E Oak St, Redwood Falls, MN 56283-1142",Redwood Falls,MN,http://www.redwoodfallsgolf.com,,,,,,,,,,
Bayou Golf Course,"2800 Ted Dudley Dr, Texas City, TX 77590",Texas City,TX,http://bayougc.com,,,,,,,,,,
Bass Creek Golf Club,"1303 S Murphy Rd, Janesville, WI 53548",Janesville,WI,http://www.golfbasscreek.com/,,,,,,,,,,
Waikoloa Beach Course,"69-600 Waikoloa Beach Dr, Waikoloa Village, HI",Waikoloa Village,HI,http://www.waikoloabeachgolf.com/,,,,,,,,,,
Miller Memorial Golf Course,"2814 Pottertown Road, Murray, KY 42071",Murray,KY,http://www.millermemorialgc.com/,,,,,,,,,,
Coyote Creek Golf Course,"222 Club House Dr, Fort Lupton, CO 80621-2218",Fort Lupton,CO,http://www.coyotecreekgc.com,,,,,,,,,,
The Resort Course at La Cantera,"16641 La Cantera Pkwy, San Antonio, TX 78256",San Antonio,TX,http://www.lacanteragolfclub.com,,,,,,,,,,
Limestone Springs Golf Club,"3000 Colonial Dr, Oneonta, AL 35121-3560",Oneonta,AL,http://www.limestonesprings.com,,,,,,,,,,
Platteville Golf & Country Club,"6729 North Water St, Platteville, WI 53818",Platteville,WI,http://www.plattevillegolf.com,,,,,,,,,,
Brookhill Golf Course,"North Maplewood Drive, 3150 County Road 1700 East, Rantoul, IL 61866",Rantoul,IL,http://www.golfbrookhillgc.com/,,,,,,,,,,
St. Croix National Golf Course,"1603 32nd St, Somerset, WI 54025-6933",Somerset,WI,http://www.stcroixnationalgolf.com,,,,,,,,,,
Wolf Hollow,"4504 Highway 100, Labadie, MO 63055-1052",Labadie,MO,http://www.wolfhollowgolf.com,,,,,,,,,,
Talega Golf Club,"990 Avenida Talega, San Clemente, CA 92673-6849",San Clemente,CA,http://www.talegagolfclub.com,,,,,,,,,,
Rio Bend RV and Golf Resort,"1589 Drew Rd, El Centro, CA",El Centro,CA,http://www.riobendrvgolfresort.com/,,,,,,,,,,
New Albany Links,"7100 New Albany Links Drive, New Albany, OH 43054",New Albany,OH,http://www.newalbanylinks.com,,,,,,,,,,
Belle Terre Country Club,"111 Fairway Dr., LaPlace, LA 70068",LaPlace,LA,http://www.belleterregolf.com,,,,,,,,,,
Woodland Hills Golf - North Course,"620 NE 66th Ave, Des Moines, IA 50313-1230",Des Moines,IA,http://www.golfwoodlandhills.com,,,,,,,,,,
Heritage Oaks Golf Club GA,"126 Clipper Bay, Brunswick, GA",Brunswick,GA,http://www.heritageoaksgolfclub.com/,,,,,,,,,,
Lake Hills Golf Course,"1930 Clubhouse Way, Billings, MT 59105",Billings,MT,http://www.lakehillsgolf.com,,,,,,,,,,
San Marcos Golf Resort,"One N. San Marcos Place, Chandler, AZ",Chandler,AZ,http://www.sanmarcosresort.com,,,,,,,,,,
Studebaker Golf Course,"718 E Calvert St, South Bend, IN 46613",South Bend,IN,http://www.sbpark.org,,,,,,,,,,
Delaware Springs Golf Course,"600 Delaware Springs Blvd, Burnet, TX 78611-3584",Burnet,TX,http://www.delawaresprings.com/,,,,,,,,,,
Sugar Creek Golf Course,"5224 Country Club Drive, High Ridge, MO 63049",High Ridge,MO,http://www.sugarcreekgolfcourse.com,,,,,,,,,,
Shoreline Golf Links,"2940 N Shoreline Blvd, Mountain View, CA 94043-1357",Mountain View,CA,http://www.shorelinelinks.com/,,,,,,,,,,
Turkey Creek Golf Course,"6400 Harrison St, Merrillville, IN 46410-3238",Merrillville,IN,http://www.turkeycreekgolf.com/index.html,,,,,,,,,,
Olde Dutch Mill Golf Course,"2745 Grandview Road, Lake Milton, OH 44429",Lake Milton,OH,http://www.oldedutchmill.com/,,,,,,,,,,
Mystic Oak Golf Club,"643 Ridge Road, Waterloo, IL 62298",Waterloo,IL,http://www.mysticoakgolf.com/,,,,,,,,,,
Terra Verde Golf Course,"11741 W Leonard St., Nunica, MI 49448-9434",Nunica,MI,http://www.terraverdegc.com,,,,,,,,,,
Lost Plantation Golf Club,"1 Clubhouse Dr., Rincon, GA 31326",Rincon,GA,http://lostplantationgolfclub.com/,,,,,,,,,,
Chalet Hills Golf Club,"943 Rawson Bridge Rd, Cary, IL 60013-1471",Cary,IL,http://www.chalethillsgolfclub.com/,,,,,,,,,,
Forest Creek Golf Club,"99 Twin Ridge Pkwy, Round Rock, TX 78664-9603",Round Rock,TX,http://www.forestcreek.com,,,,,,,,,,
Warrenton Golf Course,"Highway 47, Warrenton, MO 63383",Warrenton,MO,http://www.warrentongolfcourse.com,,,,,,,,,,
Grandover Resort - East Course,"1000 Club Rd, Greensboro, NC 27407-8286",Greensboro,NC,http://grandovergolf.com,,,,,,,,,,
Abington Country Club,"300 Meetinghouse Road, Jenkintown, PA 19046",Jenkintown,PA,http://www.abingtonclub.com,,,,,,,,,,
North Kent Golf Course,"11029 Stout Ave NE, Rockford, MI 49341",Rockford,MI,https://www.northkentgolf.com/,,,,,,,,,,
Manhattan Beach Marriott Golf Club,"1400 Parkview Ave., Manhattan Beach, CA",Manhattan Beach,CA,http://www.marriottgolf.com,,,,,,,,,,
Rolling Oaks Golf Course,"440 W Division Ave, Barron, WI 54812-1014",Barron,WI,http://www.rollingoaksgolf.net,,,,,,,,,,
Heather Downs Golf Club,"3910 Heatherdowns Boulevard, Toledo, OH 43614",Toledo,OH,http://www.heatherdowns.com,,,,,,,,,,
Coyote Crossing Golf Course,"5801 Augusta Blvd, West Lafayette, IN 47906-8714",West Lafayette,IN,http://www.coyotecrossinggolf.com,,,,,,,,,,
La Mirada Golf Course,"15501 Alicante Rd, La Mirada, CA 90638-3199",La Mirada,CA,https://www.lamiradagc.com/,,,,,,,,,,
Ocean View Golf Course,"9610 Norfolk Avenue, Norfolk, VA 23503",Norfolk,VA,http://www.oceanviewgc.com,,,,,,,,,,
Dutcher Creek Golf Course,"4611 Upper River Road, Grants Pass, OR 97526",Grants Pass,OR,http://www.dutchercreekgolf.com/,,,,,,,,,,
Indian Mounds Golf Club,"RR 111, Fairmont City, IL 62201",Fairmont City,IL,http://www.indianmoundsgolfcourse.com,,,,,,,,,,
Pukalani Country Club,"360 Pukalani Street, Pukalani, HI",Pukalani,HI,http://www.pukalanigolf.com,,,,,,,,,,
Pleasant Valley Golfer's Club,"4715 Pleasant Valley Rd, Chantilly, VA 20151-1801",Chantilly,VA,http://www.pleasantvalleygc.com,,,,,,,,,,
Bayonet at Puppy Creek,"349 S Parker Church Rd, Raeford, NC 28376-5615",Raeford,NC,http://www.bayonetgolf.com,,,,,,,,,,
Windy Knoll Golf Club,"500 Roscommon Dr, Springfield, OH 45503-7133",Springfield,OH,http://www.windyknollgolfclub.com,,,,,,,,,,
Lakes of Taylor Golf Course,"25505 Northline Rd, Taylor, MI 48180",Taylor,MI,http://www.taylorgolf.com,,,,,,,,,,
The Dunes Golf & Tennis Club,"949 Sand Castle Rd, Sanibel, FL 33957-3612",Sanibel,FL,http://www.dunesgolfsanibel.com,,,,,,,,,,
Sugar Tree Golf & Country Club,"251 Sugartree Dr, Lipan, TX 76462-9698",Lipan,TX,http://www.sugartreegolf.com,,,,,,,,,,
Heron Lakes Golf Course - The Greenback Course,"3500 N Victory Blvd, Portland, OR 97217-7723",Portland,OR,http://www.heronlakesgolf.com,,,,,,,,,,
Dixie Golf Club,"750 Hillcrest Drive, Laurel, MS 39442",Laurel,MS,http://dixiegolf.net/index.htm,,,,,,,,,,
Cranberry Valley Golf Course,"183 Oak St, Harwich, MA 02645",Harwich,MA,http://cranberrygolfcourse.com/,,,,,,,,,,
Forge Pond Golf Course,"301 Chambersbridge Rd, Brick, NJ",Brick,NJ,http://www.co.ocean.nj.us/GolfCourses/,,,,,,,,,,
Bergen Point Golf Course,"69 Bergen Ave, West Babylon, NY 11704",West Babylon,NY,http://www.bergenpointgolf.com,,,,,,,,,,
River Glen Country Club,"12010 Clubhouse Dr, Fishers, IN 46038",Fishers,IN,http://riverglencc.com,,,,,,,,,,
Silverado Golf Club,"7605 E Indian Bend Rd, Scottsdale, AZ 85250-4634",Scottsdale,AZ,http://www.scottsdalesilveradogolfclub.com,,,,,,,,,,
El Dorado Park Golf Course,"2400 N Studebaker Rd, Long Beach, CA 90815-2428",Long Beach,CA,http://www.eldoradoparkgc.com/?doubleclick=false,,,,,,,,,,
The Prairies,"300 Tricentennial Ct, Cahokia, IL 62206-2400",Cahokia,IL,http://www.cahokiaillinois.org,,,,,,,,,,
Prince William Golf Course,"14631 Vint Hill Rd, Nokesville, VA 20181",Nokesville,VA,http://www.princewilliamgolf.com,,,,,,,,,,
Lake Forest Yacht & Country Club,"1 Golf Terrace, Daphne, AL 36526",Daphne,AL,http://www.lakeforestpoa.org,,,,,,,,,,
WestRidge Golf Course,"9055 N Cotton Ridge Rd, Mckinney, TX 75070-6109",Mckinney,TX,http://www.westridgegolfcourse.com,,,,,,,,,,
Manada Golf Course,"609 Golf Ln, Grantville, PA 17028-9113",Grantville,PA,http://www.golfatmanadagc.com,,,,,,,,,,
Mount Si Golf Course,"9010 Boalch Avenue SE, Snoqualmie, WA 98065",Snoqualmie,WA,http://www.mtsigolf.com,,,,,,,,,,
Lake Ridge Park Golf & Marina,"12350 Cotton Mill Dr, Woodbridge, VA 22192",Woodbridge,VA,http://www.lakeridgegc.com/index.php,,,,,,,,,,
Los Lagos Golf Course,"2995 Tuers Rd, San Jose, CA 95121-2376",San Jose,CA,http://www.playloslagos.com/,,,,,,,,,,
Mather Golf Course,"4103 Eagles Nest Rd, Mather, CA 95655-2900",Mather,CA,http://www.playmather.com,,,,,,,,,,
Woodland Hills Golf Club,"320 N Gates Rd, Sandusky, MI 48471",Sandusky,MI,http://www.woodlandhillsontheweb.com,,,,,,,,,,
Arizona Golf Resort,"425 S Power Rd, Mesa, AZ 85206",Mesa,AZ,http://www.azgolfresort.com,,,,,,,,,,
Oaks National Golf Club,"1500 The Oaks Blvd, Kissimmee, FL 34746",Kissimmee,FL,https://www.oaksnationalgolfclub.com/,,,,,,,,,,
Granite Falls Golf Course - South Course,"15949 W Clearview Blvd, Surprise, AZ 85374-4571",Surprise,AZ,http://www.grandinfo.com,,,,,,,,,,
Bensalem Country Club,"2000 Brown Ave, Bensalem, PA 19020-3711",Bensalem,PA,http://www.bensalemtownshipcountryclub.com,,,,,,,,,,
Foothills Golf Course | Executive 9,"3901 S Carr St, Denver, CO 80235-1807",Denver,CO,http://www.foothillsgolf.org,,,,,,,,,,
Fern Hill Golf Club,"17600 Clinton River Rd, Clinton Township, MI 48038-6536",Clinton Township,MI,https://www.fernhillgc.com/,,,,,,,,,,
The Captain's Club at Woodfield,"10200 Woodfield Drive, Grand Blanc, MI 48439",Grand Blanc,MI,http://www.captainsclubatwoodfield.com,,,,,,,,,,
Crestview Country Club,"281 Shoemaker Ln, Agawam, MA 01001-3615",Agawam,MA,http://www.crestviewcc.org,,,,,,,,,,
Chalk Mountain Golf Course,"10000 El Bordo Ave, Atascadero, CA 93422-5502",Atascadero,CA,http://www.chalkmountaingolf.com,,,,,,,,,,
Royal Lakes Country Club,"4700 Royal Lakes Dr, Flowery Branch, GA 30542-4604",Flowery Branch,GA,http://www.royallakesgolfcc.com,,,,,,,,,,
Maple Lane Golf Club - West Course,"33203 Maple Lane Dr, Sterling Heights, MI 48312-6213",Sterling Heights,MI,http://www.maplelanegolf.com,,,,,,,,,,
City Club Marietta,"510 Powder Springs St, Marietta, GA 30064-3523",Marietta,GA,http://www.cityclubmarietta.com,,,,,,,,,,
Gull Lake View Golf Club and Resort - East Course,"7417 N 38th St, Augusta, MI 49012-9250",Augusta,MI,http://www.gulllakeview.com/golf/golf-courses/gull-lake-view-east/,,,,,,,,,,
Bryce Resort Golf Course,"1982 Fairway Drive, Basye, VA 22810",Basye,VA,http://www.bryceresort.com,,,,,,,,,,
Beacon Rock Golf Course,"102 Grenia Rd, North Bonneville, WA 98639",North Bonneville,WA,http://www.beaconrockgolf.com,,,,,,,,,,
Nippersink Golf Resort,"N1055 Tombeau Rd., Genoa City, WI 53128",Genoa City,WI,http://www.nippersinkresort.com,,,,,,,,,,
Hiddenbrooke Golf Club,"1095 Hiddenbrooke Pkwy, Vallejo, CA 94591-6436",Vallejo,CA,http://www.hiddenbrookegolf.com,,,,,,,,,,
The Preserve at Verdae,"650 Verdae Blvd, Greenville, SC 29607-4022",Greenville,SC,http://thepreserveatverdae.com/,,,,,,,,,,
Wolf Creek Golf Course,"3000 Union Rd SW, Atlanta, GA 30331-8077",Atlanta,GA,http://www.wolfcreekgc.com,,,,,,,,,,
Greenhorn Creek Resort,"711 McCauley Ranch Road, Angels Camp, CA 95222",Angels Camp,CA,http://www.greenhorncreek.com/,,,,,,,,,,
Foster Golf Links,"13500 Interurban Ave S, Tukwila, WA 98168-3332",Tukwila,WA,http://www.fostergolflinks.com,,,,,,,,,,
Reflection Bay Golf Club,"75 Montelago Blvd., Henderson, NV 89011",Henderson,NV,http://www.reflectionbaygolf.com,,,,,,,,,,
Pelham Bay & Split Rock Golf Courses - Pelham Bay,"870 Shore Rd., Bronx, NY 10465",Bronx,NY,http://www.pelhamsplitrock.com/,,,,,,,,,,
Holland Meadows Golf Course,"1503 State Highway 29, Gloversville, NY 12078",Gloversville,NY,http://www.hollandmeadowsgolfcourse.com,,,,,,,,,,
TPC Tampa Bay,"5300 Lutz Lake Fern Rd, Lutz, FL 33558",Lutz,FL,http://www.tpctampabay.com,,,,,,,,,,
Cimarron Trails Golf Club,"1400 Lovers Lane, Perkins, OK 74059",Perkins,OK,http://www.cimarrontrails.com,,,,,,,,,,
Pohick Bay Regional Park Golf Course,"10301 Gunston Rd, Lorton, VA 22079-2203",Lorton,VA,https://www.novaparks.com/golf/pohick-bay-golf-course,,,,,,,,,,
California Golf Course,"5924 Kellogg Ave., Cincinnati, OH 45228",Cincinnati,OH,http://california.cincygolf.org/,,,,,,,,,,
Providence Golf Club,"1160 S Providence Rd, Richmond, VA 23236-2646",Richmond,VA,http://www.providencegolfcourse.com,,,,,,,,,,
Kimberton Golf Club,"162 Ridge Rd, Phoenixville, PA 19460-",Phoenixville,PA,http://www.kimbertongolfclub.com,,,,,,,,,,
Flatbush Golf Course,"940 Littlestown Rd, Littlestown, PA 17340-9441",Littlestown,PA,http://www.flatbushgolfcourse.com,,,,,,,,,,
Randolph Park Golf Courses - Randolph North Course,"600 S Alvernon Way, Tucson, AZ 85711-4765",Tucson,AZ,http://www.tucsoncitygolf.com/randolph-courses/,,,,,,,,,,
Westbrook Village/Vistas Course,"18823 N Country Club Pkwy, Peoria, AZ 85382-8539",Peoria,AZ,http://www.westbrookvillagegolf.com,,,,,,,,,,
Hyatt Hills Golf Course,"1300 Raritan Rd, Clark, NJ 07066-1100",Clark,NJ,http://www.hyatthills.com,,,,,,,,,,
Charlevoix,"9600 Club House Dr, Charlevoix, MI 49720-2025",Charlevoix,MI,http://www.chxcountryclub.com,,,,,,,,,,
Saddle Creek Golf Club,"1480 Fayetteville Hwy, Lewisburg, TN 37091-3580",Lewisburg,TN,http://www.saddlecreekgc.com,,,,,,,,,,
Palmetto-Pine Country Club,"1940 SW 9th Ct, Cape Coral, FL 33991-3313",Cape Coral,FL,http://www.palmettopine.com,,,,,,,,,,
Shell Landing Golf Club,"3499 Shell Landing Blvd, Gautier, MS 39553",Gautier,MS,http://www.shelllandinggolf.com/,,,,,,,,,,
Olde Sycamore Golf Plantation,"7500 Olde Sycamore Dr, Charlotte, NC 28227-6879",Charlotte,NC,http://www.oldesycamoregolf.com,,,,,,,,,,
Diamondhead Golf and Country Club,"245 Independence Dr, Hot Springs, AR 71913",Hot Springs,AR,http://www.diamondheadcommunity.com,,,,,,,,,,
Discovery Bay Golf Club,"7401 Cape George Rd, Port Townsend, WA 98368-9625",Port Townsend,WA,http://discobaygolf.com,,,,,,,,,,
Monroe,"1680 Pageland Highway, Monroe, NC 28112",Monroe,NC,http://www.monroecountryclubgolf.com,,,,,,,,,,
Chapel Hill Golf Course,"2023 Old Lancaster Pike, Reading, PA 19608",Reading,PA,http://www.chapelhillgolf.net,,,,,,,,,,
Historic City Park Golf Course,"1442 City Park Ave, BATON ROUGE, LA 70808",BATON ROUGE,LA,http://www.brecgolf.com/golf/proto/brec/hcp_overview/hcp_overview.htm,,,,,,,,,,
Chateau Elan Golf Club - Par-3 Course,"6060 Golf Club Dr, Braselton, GA 30517-2408",Braselton,GA,http://www.chateauelan.com,,,,,,,,,,
Reedsburg Country Club,"7126 East Highway 23-33, Reedsburg, WI 53959",Reedsburg,WI,http://www.reedsburgcountryclub.com,,,,,,,,,,
Sugar Ridge Golf Club - Sugar Ridge Golf Club Course,"21010 State Line Rd, Lawrenceburg, IN 47025-9323",Lawrenceburg,IN,http://www.sugarridgegc.com,,,,,,,,,,
Saratoga Lake Golf Club,"35 Gracemore Rd, Saratoga Springs, NY 12866",Saratoga Springs,NY,http://www.saratogalakegolf.com,,,,,,,,,,
Woodmont Golf Club,"3105 Gaddis Rd, Canton, GA 30115-6427",Canton,GA,http://www.woodmontgolfclub.com,,,,,,,,,,
Bear Creek Golf Club,"237 Whooping Crane Way, Hilton Head, SC 29926",Hilton Head,SC,https://www.bearcreekhhi.com/,,,,,,,,,,
Grand Geneva Resort - Highlands,"7036 Grand Geneva Way, Lake Geneva, WI 53147",Lake Geneva,WI,http://www.grandgeneva.com/,,,,,,,,,,
Dubsdread Golf Club,"549 W Par St, Orlando, FL 32804",Orlando,FL,http://historicaldubsdread.com,,,,,,,,,,
Coldwater Golf Club,"100 N Clubhouse Dr, Avondale, AZ 85323-8262",Avondale,AZ,http://www.coldwatergolfclub.com,,,,,,,,,,
Asheville Municipal Golf Course,"226 Fairway Drive, Asheville, NC 28805",Asheville,NC,http://www.popegolf.net,,,,,,,,,,
Agawam Municipal Golf Course,"128 Southwick St, Feeding Hills, MA 01030-2026",Feeding Hills,MA,http://agawamgolfcourse.com,,,,,,,,,,
Lick Creek,"2210 N Parkway Dr, Pekin, IL 61554-1952",Pekin,IL,https://www.golfnow.com/tee-times/facility/9357-lick-creek-golf-course/search#view=List&timemax=42&timemin=10&ratetype=all&holes=3&players=0&date=Mon+Jan+09+2017&sortby=Date&searchtype=1,,,,,,,,,,
Spencer T. Olin Golf Course,"4701 College Avenue, Alton, IL 62002",Alton,IL,http://www.spencertolingolf.com,,,,,,,,,,
Foxford Hills Golf Club,"6800 S Rawson Bridge Rd, Cary, IL 60013-1466",Cary,IL,http://www.foxfordhillsgolfclub.com,,,,,,,,,,
Glen Annie Golf Club,"405 Glen Annie Rd, Goleta, CA 93117",Goleta,CA,http://www.glenanniegolf.com/,,,,,,,,,,
Maple Moor Golf Course,"1128 North St, White Plains, NY 10605-5101",White Plains,NY,http://golf.westchestergov.com/maple-moor-golf-course,,,,,,,,,,
Pebble Creek Golf Course,"9799 Prechtel Road, Cincinnati, OH 45252",Cincinnati,OH,http://www.pebblecreekgc.com,,,,,,,,,,
Walkabout Golf & Country Club,"3950 Clubhouse Drive, Mims, FL 32754",Mims,FL,https://www.golfnow.com/courses/1505876-indian-river-preserve-fka-walkabout-golf-club-details,,,,,,,,,,
North Kern Golf Course,"17412 Quality Rd, Bakersfield, CA 93308",Bakersfield,CA,http://northkerngolf.com,,,,,,,,,,
Reston National Golf Course,"11875 Sunrise Valley Dr, Reston, VA 20191",Reston,VA,http://www.restonnationalgc.com,,,,,,,,,,
Douglas Municipal Golf Course,"1372 E. Fairway Drive, Douglas, AZ 85607",Douglas,AZ,http://www.douglasgolfclubandrvpark.com/,,,,,,,,,,
Willow Springs Golf Course,"12980 Livestock Rd, West Friendship, MD 21794",West Friendship,MD,http://www.willowspringsgolfcourse.com/,,,,,,,,,,
Whispering Pines Golf Club,"2500 Whispering Pines Dr, Pinckney, MI 48169-8872",Pinckney,MI,http://www.whisperingpinesgc.com,,,,,,,,,,
Boca Greens Country Club,"19642 Trophy Dr, Boca Raton, FL",Boca Raton,FL,http://www.bocagreenscountryclub.com/,,,,,,,,,,
Buffalo Run Golf Course,"15700 E 112th Ave, Commerce City, CO 80022-9791",Commerce City,CO,http://www.buffalorungolfcourse.com,,,,,,,,,,
Pembroke Country Club,"94 W Elm St, Pembroke, MA 02359-2133",Pembroke,MA,http://www.pembrokegolf.com,,,,,,,,,,
Twin Isles Country Club,"301 Madrid Blvd, Punta Gorda, FL 33950",Punta Gorda,FL,http://www.twinislescc.org,,,,,,,,,,
Duck Hollow Golf Club,"374 Duck Hollow Rd, Uniontown, PA 15401",Uniontown,PA,https://www.duckhollowgc.com/,,,,,,,,,,
Del Mar Golf Club,"1079 Smiley Stop Rd, Wampum, PA 16157-5523",Wampum,PA,http://www.golfdelmar.com,,,,,,,,,,
Meadowbrook Golf Course,"1815 Jenson Road, Fort Worth, TX 76112",Fort Worth,TX,https://www.fortworthgolf.org/-meadowbrook-golf-course,,,,,,,,,,
Sun City Lakes | West,"10433 W Talisman Rd, Sun City, AZ 85351-2252",Sun City,AZ,http://www.sunaz.com,,,,,,,,,,
Sandpines Golf Links,"1201 35th St, Florence, OR 97439-8913",Florence,OR,http://www.sandpines.com,,,,,,,,,,
Grand Marais Golf Course,"5802 Lake Drive, Centreville, IL 62203",Centreville,IL,http://www.grandmaraisgolf.com,,,,,,,,,,
Viewpoint Golf Resort - Viewpoint Course,"650 N Hawes Rd, Mesa, AZ 85207-5833",Mesa,AZ,http://www.viewpointgolfresort.com,,,,,,,,,,
Hickory Stick Golf Club,"4422 Thompson Blvd, Greenwood, IN 46143-7443",Greenwood,IN,http://www.hickorystickgolf.com,,,,,,,,,,
ChampionsGate Golf Club- National,"1400 Masters Blvd, Davenport, FL 33896-5309",Davenport,FL,http://www.championsgategolf.com/Orlando-Florida-Golf-Course/,,,,,,,,,,
Golf Club at Cinco Ranch,"23030 Cinco Ranch Blvd, Katy, TX 77450-5997",Katy,TX,http://www.golfclubatcincoranch.com,,,,,,,,,,
Lake Oswego Municipal Golf Course,"17525 Stafford Rd, Lake Oswego, OR 97034",Lake Oswego,OR,http://www.lakeoswegogolf.org,,,,,,,,,,
Eagle River Golf Course,"457 McKinley Blvd, Eagle River, WI 54521-8422",Eagle River,WI,http://www.eaglerivergolfcourse.com,,,,,,,,,,
Greystone Golf Club,"67500 Mound Rd, Washington, MI 48095-1108",Washington,MI,http://www.golfgreystone.com,,,,,,,,,,
Twin Rivers Golf Course,"4446 Preston Fall City Rd SE, Fall City, WA 98024-5707",Fall City,WA,http://www.twinriversgolfcourse.com,,,,,,,,,,
Centerbrook Golf Course,"5500 Lilac Dr N, Brooklyn Center, MN 55430",Brooklyn Center,MN,http://www.centerbrookgolf.com/index.htm,,,,,,,,,,
Timber Trace Golf Club,"1 Champions Cir, Pinckney, MI 48169-9617",Pinckney,MI,http://www.timbertracegolfclub.com,,,,,,,,,,
Mountain Greens Golf Club,"1822 Resort Dr, Massanutten, VA 22840",Massanutten,VA,http://www.massresort.com/,,,,,,,,,,
Oakland Golf Club,"433 N Bradley Ln, Oakland, MD 21550-5501",Oakland,MD,http://www.golfatoakland.com,,,,,,,,,,
Bear Trace At Cumberland Mountain,"407 Wild Plum Ln, Crossville, TN 38572-1117",Crossville,TN,http://www.tnstateparks.com,,,,,,,,,,
Kilmarlic Golf Club,"215 Westside Ln, Powells Point, NC",Powells Point,NC,https://kilmarlicresort.com/,,,,,,,,,,
Kings Ridge - Kings Course,"1950 Kings Ridge Boulevard, Clermont, FL 34711",Clermont,FL,http://www.kingsridgegolfclub.com,,,,,,,,,,
Acorns Golf Links,"3933 Ahne Rd, Waterloo, IL 62298-6425",Waterloo,IL,https://www.acornsgolf.com/,,,,,,,,,,
Merrill Golf Club,"1604 O'Day Street, Merrill, WI 54452",Merrill,WI,http://www.merrillgolfclub.com/,,,,,,,,,,
Citrus Springs Country Club,"8690 N Golfview Dr, Dunnellon, FL 34434-5876",Dunnellon,FL,https://www.golfnow.com/courses/1028306-citrus-springs-country-club-details,,,,,,,,,,
Meadow Hills Golf Course,"3609 S Dawson Street, Aurora, CO 80014",Aurora,CO,http://golfaurora.com,,,,,,,,,,
Sandridge Golf Club | Lakes,"5300 73rd St, Vero Beach, FL 32967-5462",Vero Beach,FL,http://www.sandridgegc.com,,,,,,,,,,
Knolls Golf Course,"11630 Sahler St, Omaha, NE 68164",Omaha,NE,http://parks.cityofomaha.org/golf,,,,,,,,,,
Miami Springs Golf & Country Club,"650 Curtiss Pkwy, Miami Springs, FL 33166-5250",Miami Springs,FL,http://miamispringsgolfcourse.com/,,,,,,,,,,
Tianna Country Club,"7470 State 34 NW, Walker, MN 56484",Walker,MN,http://www.tianna.com,,,,,,,,,,
Krueger-Haskell Golf Course,"1611 Hackett St, Beloit, WI 53511-3338",Beloit,WI,http://kruegerhaskellgolf.webs.com/,,,,,,,,,,
Mililani GC,"95-176 Kuahelani Avenue, Mililani Town, HI",Mililani Town,HI,http://www.mililanigolf.com/,,,,,,,,,,
Wampanoag Golf Course,"168 Old Providence Rd, Swansea, MA 02777",Swansea,MA,http://www.wampanoaggolf.com,,,,,,,,,,
Elkhorn Valley Golf Course,"32295 N Fork Rd SE, Lyons, OR 97358-9734",Lyons,OR,http://www.elkhorngolf.com,,,,,,,,,,
Vineyard Valley Golf Club,"34 Brayman Hollow Road, Pomfret Center, CT 06259",Pomfret Center,CT,http://vineyardvalleygolfclub.com/,,,,,,,,,,
Bois De Sioux Golf Course,"1305 Rj Hughes Dr, Wahpeton, ND 58075-",Wahpeton,ND,http://www.boisdesiouxgolf.com,,,,,,,,,,
Orchard Valley Golf Course,"2411 W Illinois Avenue, Aurora, IL 60506",Aurora,IL,http://www.orchardvalleygolf.com,,,,,,,,,,
Kingfisher Golf Course,"600 E Bowman St, Kingfisher, OK","Kingfisher,",OK,http://www.golflink.com/golf-courses/city.aspx?dest=Kingfisher+OK,,,,,,,,,,
Chuck Corica Golf Complex - Jack Clark Course,"1 Clubhouse Memorial Rd, Alameda, CA 94502-6502",Alameda,CA,http://www.golfinalameda.com/golf/proto/golfinalameda/index.htm,,,,,,,,,,
Choctaw Creek Golf Course,"2200 N Hiwassee, Choctaw, OK 73020",Choctaw,OK,http://choctawcreekgolf.org/,,,,,,,,,,
Pinehills Golf Club - Nicklaus Course,"54 Clubhouse Drive, Plymouth, MA 02630",Plymouth,MA,http://www.pinehillsgolf.com,,,,,,,,,,
Mountain Vista Golf Course At Sun City Palm Desert - San Gorgonio Course,"38180 Del Webb Blvd, Palm Desert, CA 92211-1256",Palm Desert,CA,http://www.mountainvistagolfclub.com/index.php,,,,,,,,,,
Lake Forest Golf and Practice Center,"23308 Cherry Ave, Lake Forest, CA 92630-5300",Lake Forest,CA,http://www.lakeforestgolfcenter.com/,,,,,,,,,,
Flanders Valley GC Red/Gold,"53 East Hanover Avenue, Morristown, NJ",Morristown,NJ,https://www.flandersvalleygc.com/book-a-tee-time,,,,,,,,,,
Madison Country Club,"45152 233rd St., Madison, SD 57042",Madison,SD,http://www.madisonsd.com/Org/Madison_Golf_and_Country_Club_Inc,,,,,,,,,,
Sundance Golf Club,"900 North Sundance Pkwy, Buckeye, AZ 85326",Buckeye,AZ,http://www.sundancegolfaz.com/index.php,,,,,,,,,,
Morristown Golf & Country Club,"1180 Valley Home Rd, Morristown, TN 37813-2938",Morristown,TN,,,,,,,,,,,
Greystone Golf Club,"10548 Andrews Drive, Sauk Centre, MN 56378",Sauk Centre,MN,http://www.greystonegc.net/,,,,,,,,,,
Shawnee Bend Golf Course,"29353 Golf Rd., Warsaw, MO 65355",Warsaw,MO,http://www.shawneebendgolf.com/,,,,,,,,,,
Glengarry Golf Links,"168 Lentz Rd, Latrobe, PA 15650-3978",Latrobe,PA,http://www.golfglengarry.ca,,,,,,,,,,
The Quarry Golf Club,"444 East Basse Road, San Antonio, TX 78209",San Antonio,TX,http://www.quarrygolf.com/,,,,,,,,,,
Brooksville Country Club,"23446 Links Drive, Brooksville, FL 34601",Brooksville,FL,http://www.brooksvillecc.com/,,,,,,,,,,
Sunset Golf Course,"783 S Geyers Church Rd, Middletown, PA 17057-4424",Middletown,PA,http://www.sunsetgc.com,,,,,,,,,,
Wellington Golf Club,"1500 W Harvey Ave, Wellington, KS 67152",Wellington,KS,http://www.cityofwellington.net,,,,,,,,,,
The Trophy Club,"3887 N State Road 52, Lebanon, IN 46052-8859",Lebanon,IN,http://www.thetrophyclubgolf.com,,,,,,,,,,
Hat Creek Golf Course,"437 Golf Course Rd, Brookneal, VA 24528",Brookneal,VA,http://www.hatcreekgolf.com,,,,,,,,,,
Little Mountain Country Club,"7667 Hermitage Rd, Painesville, OH 44077-9770",Painesville,OH,http://www.littlemountaincc.com,,,,,,,,,,
Bardmoor Golf and Tennis Club,"8001 Cumberland Rd, Largo, FL 33777",Largo,FL,http://www.bardmoorgolf.com,,,,,,,,,,
Eagle's Pointe Golf Club,"1 Eagle Pointe Dr, Okatie, SC 29909-4626",Okatie,SC,http://www.eaglespointegolf.com/layout10.asp?id=748&page=41349,,,,,,,,,,
Quail Ridge Golf Course,"4055 Altruria Road, Bartlett, TN 38135",Bartlett,TN,http://www.thequailgolf.com,,,,,,,,,,
Del Monte Golf Course,"1300 Sylvan Rd, Monterey, CA 93940",Monterey,CA,http://www.pebblebeach.com/,,,,,,,,,,
Desert Springs Golf Club Resort - Palm Course,"74855 Country Club Dr, Palm Desert, CA 92260-1961",Palm Desert,CA,http://www.desertspringsresort.com,,,,,,,,,,
DuBois Country Club,"10 Lakeside Ave, DuBois, PA 15801",DuBois,PA,http://www.duboiscountryclub.com/,,,,,,,,,,
Ayden Golf & Country Club,"4343 Ayden Golf Club Rd, Ayden, NC 28513-7579",Ayden,NC,http://www.aydengolf.com,,,,,,,,,,
Mount Huff Golf Course,"15301 Highway 89, Crescent Mills, CA 95934",Crescent Mills,CA,http://ww.mthuffgolf.com,,,,,,,,,,
Craig Woods Golf Course,"5818 S Il Route 47, Woodstock, IL 60098-7424",Woodstock,IL,http://www.crystalwoodsgc.com,,,,,,,,,,
Pleasanton Golf Center,"4501 Pleasanton Ave, Pleasanton, CA 94566",Pleasanton,CA,http://www.pleasantongolfcenter.com,,,,,,,,,,
Incline Village - Championship Course,"955 Fairway Blvd, Incline Village, NV 89451-7425",Incline Village,NV,https://www.yourtahoeplace.com/golf-incline/championship-course,,,,,,,,,,
Las Vegas Paiute Golf Resort - Sun Mountain Course,"10325 Nu Wav Kaiv Blvd, Las Vegas, NV 89124",Las Vegas,NV,http://www.lvpaiutegolf.com/,,,,,,,,,,
Tatum Ridge Golf Links,"421 N. Tatum Rd., Sarasota, FL",Sarasota,FL,http://www.tatumridgegolflinks.com/,,,,,,,,,,
Palos Hills Golf Course,"7301 W 105th St, Palos Hills, IL",Palos Hills,IL,http://www.paloshillsweb.org/,,,,,,,,,,
Hudson Mills Metropark,"4800 Dexter Pinckney Rd, Dexter, MI 48130-8537",Dexter,MI,http://golf.metroparks.com/,,,,,,,,,,
Drumm Farm Golf Course - Drumm Farm Course,"15400 E 34th St S, Independence, MO 64055-2095",Independence,MO,http://www.drummfarmgolfclub.com,,,,,,,,,,
The Bridges at Springtree Golf Club,"8150 Springtree Dr, Fort Lauderdale, FL 33351-6114",Fort Lauderdale,FL,http://sevenbridgesgc.com/,,,,,,,,,,
Rogues Roost Golf & Country Club - East Course,"1092 State Route 31, Bridgeport, NY 13030-9750",Bridgeport,NY,http://www.roguesroost.com,,,,,,,,,,
DeBary Golf Club,"300 Plantation Club Dr, Debary, FL 32713-2217",Debary,FL,http://www.debarycc.com,,,,,,,,,,
Gardner Municipal Golf Course,"152 Eaton Street, Gardner, MA 01440",Gardner,MA,http://www.gardnergolfcourse.com/,,,,,,,,,,
Cherokee Run Golf Club,"1595 Centennial Olympic Pkwy NE, Conyers, GA 30013-6511",Conyers,GA,http://www.cherokeerungolfclub.com/,,,,,,,,,,
Irving Golf Club,"2000 E. Shady Grove Rd., Irving, TX 75060-6428",Irving,TX,http://www.irvinggolfclub.org/,,,,,,,,,,
Green Knoll Golf Course,"587 Garretson Rd, Bridgewater, NJ 08807-2414",Bridgewater,NJ,https://www.greenknollgolf.com/,,,,,,,,,,
Palmetto Golf Course,"9300 SW 152nd St, Miami, FL 33157-1777",Miami,FL,http://www.golfpalmetto.com/,,,,,,,,,,
A-Ga-Ming Golf Resort | Torch,"627 Agaming Drive, Kewadin, MI 49648",Kewadin,MI,http://www.a-ga-ming.com,,,,,,,,,,
Meadows Golf Club,"79 Two Bridges Rd, Lincoln Park, NJ 07035-2701",Lincoln Park,NJ,http://www.meadowsgolfclub.com,,,,,,,,,,
Saddlebrook Resort - Saddlebrook Course,"5700 Saddlebrook Way, Wesley Chapel, Florida 33543",Wesley Chapel,Florida,http://www.saddlebrookresort.com,,,,,,,,,,
White Oaks Country Club,"2951 Dutch Mill Rd, Newfield, NJ 08344",Newfield,NJ,http://www.whiteoaksgolf.com,,,,,,,,,,
Napa Golf Course At Kennedy Park,"2295 Streblow Dr, Napa, CA 94558-6211",Napa,CA,http://www.playnapa.com,,,,,,,,,,
Wentworth Golf Club,"2990 Wentworth Way, Tarpon Springs, FL 34688-8428",Tarpon Springs,FL,http://www.wentworthgolfclub.org,,,,,,,,,,
Las Vegas Paiute Golf Resort - Snow Mountain Course,"10325 Nu Wav Kaiv Blvd, Las Vegas, NV 89124-8411",Las Vegas,NV,http://www.lvpaiutegolf.com,,,,,,,,,,
Southwyck Golf Club,"2901 Clubhouse Dr, Pearland, TX 77584-4841",Pearland,TX,http://www.southwyckgc.com,,,,,,,,,,
Martin Downs Golf Club,"3801 SW Greenwood Way, Palm City, FL",Palm City,FL,http://martindownsgolfclub.com/,,,,,,,,,,
Kiskiack Golf Club,"8104 Club Drive, Williamsburg, VA 23188",Williamsburg,VA,http://www.kiskiackgc.com/index.php,,,,,,,,,,
Island Pine Country Club,"1601 Wyoming Ave W, Atwater, MN 56209-1046",Atwater,MN,http://www.islandpinegolf.com,,,,,,,,,,
Escanaba Country Club,"1800 11th Avenue South, Escanaba, MI 49829",Escanaba,MI,http://www.escanabacc.com,,,,,,,,,,
Chardon Lakes Golf Course,"470 South Street, Chardon, OH 44024",Chardon,OH,http://www.chardonlakes.com,,,,,,,,,,
Myrtlewood Golf Club - Palmetto,"1500 48th Ave North, Myrtle Beach, SC",Myrtle Beach,SC,http://www.myrtlewoodgolf.com/,,,,,,,,,,
Llano River Golf Course,"2835 West Ranch Road 152, Llano, TX 78643",Llano,TX,http://www.llanorivergolfcourse.com,,,,,,,,,,
Twisted Dune,"2101 Ocean Heights Ave, Egg Harbor Township, NJ 08234-5722",Egg Harbor Township,NJ,http://www.twisteddune.com,,,,,,,,,,
El Conquistador,"10000 N Oracle Rd, Tucson, AZ","Tucson,",AZ,http://www3.hilton.com/en/hotels/arizona/hilton-tucson-el-conquistador-golf-and-tennis-resort-TUSHTHH/index.html,,,,,,,,,,
Bruce Hills Golf Club,"6771 Taft Road, Romeo, MI",Romeo,MI,http://www.golfbrucehills.com,,,,,,,,,,
Forest Akers Golf Course MSU - West Course,"3535 Forest Rd, Lansing, MI 48910-3734",Lansing,MI,http://www.golf.msu.edu,,,,,,,,,,
Emerald Golf Club,"5000 Clubhouse Drive, New Bern, NC 28562",New Bern,NC,http://www.emeraldgc.com,,,,,,,,,,
Mountain Falls Golf Course,"5001 Clubhouse Dr, Pahrump, NV 89061-6921",Pahrump,NV,http://www.mountainfallsgolfclub.com/,,,,,,,,,,
Warren Brook Golf Course,"500 Warrenville Rd, Warren, NJ 07059",Warren,NJ,http://www.somersetcountyparks.org,,,,,,,,,,
Brea Creek Golf Course,"501 W Fir St, Brea, CA 92821",Brea,CA,http://www.golfbrea.com,,,,,,,,,,
Poplar Creek Golf Course,"1700 Coyote Point Dr, San Mateo, CA 94401-1000",San Mateo,CA,http://www.poplarcreekgolf.com,,,,,,,,,,
Lake Arlington Golf Course,"1516 W Green Oaks Blvd, Arlington, TX 76013-2846",Arlington,TX,http://www.arlingtongolf.com,,,,,,,,,,
Fox Creek Golf Club,"1501 Windy Hill Rd SE, Smyrna, GA 30080-2179",Smyrna,GA,http://www.legacyfoxcreek.com,,,,,,,,,,
The Crossings,"2585 Tennessee 81, Jonesborough, TN",Jonesborough,TN,http://www.TheCrossingsGolfClub.net,,,,,,,,,,
Hidden Valley Golf Club.,"0501 Pine Lake Rd, Lincoln, NE",Lincoln,NE,http://www.hiddenvalleylincoln.com/,,,,,,,,,,
The Club at Westminster,"2199 Berkley Way, Lehigh Acres, FL 33973-6010",Lehigh Acres,FL,http://www.westminster-golf.com,,,,,,,,,,
Garrisons Lake Golf Club,"101 W Fairways Cir, Smyrna, DE 19977-1829",Smyrna,DE,http://www.garrisonslakegolf.com,,,,,,,,,,
River Wilds Golf Course,"P.O. 370, Blair, NE 68008",Blair,NE,http://www.riverwilds.com,,,,,,,,,,
Chippewa Golf Club,"23550 W State Route 579, Curtice, OH 43412",Curtice,OH,http://www.chippewagolfonline.com,,,,,,,,,,
Mint Valley Golf Course,"4002 Pennsylvania St, Longview, WA 98632-5204",Longview,WA,http://www.mint-valley.com,,,,,,,,,,
Sand Springs Country Club,"10 Clubhouse Drive, Drums, PA 18222",Drums,PA,http://www.sandspringsgolf.com/,,,,,,,,,,
Babe Zaharias Golf Course,"11412 Forest Hills Drive, Tampa, FL 33612",Tampa,FL,http://www.babezahariasgolf.net/home#play,,,,,,,,,,
Pointe Royale Village Country Club,"1000 Pointe Royale Dr, Branson, MO 65616",Branson,MO,http://www.pointeroyalegolf.net/,,,,,,,,,,
Jack Frost National Golf Club,"Rt. 940 and Jack Frost Mountain Road, Blakeslee, PA 18610",Blakeslee,PA,http://www.jackfrostnational.com,,,,,,,,,,
Hooper's Landing Golf Course,"1019 W. Locust Street, Seaford, DE 19973",Seaford,DE,http://www.hooperslanding.com,,,,,,,,,,
Deercroft Golf Club,"30000 Deercroft Dr, Wagram, NC 28396",Wagram,NC,http://deercroft.com/,,,,,,,,,,
Mojave Resort Golf Club,"9905 Aha Macav Parkway, Laughlin, NV 89029",Laughlin,NV,http://www.mojaveresortgolfclub.com,,,,,,,,,,
Glendoveer Golf & Tennis - East Course,"14015 NE Glisan St, Portland, OR 97230-3346",Portland,OR,http://www.golfglendoveer.com,,,,,,,,,,
Industry Hills Golf Club Babe Course,"1 Industry Hills Pkwy, City of Industry, CA","City of Industry,",CA,http://www.ihgolfclub.com/,,,,,,,,,,
Heather Hills Golf Course,"3801 Heathrow Dr, WINSTON SALEM, NC 27127",WINSTON SALEM,NC,http://www.golfhh.com/,,,,,,,,,,
Ponderosa Golf Course,"10040 Reynolds Way, Truckee, CA 96161",Truckee,CA,http://ponderosagolfcoursetruckee.com/,,,,,,,,,,
Hampton Golf Village,"6310 Hampton Golf Club Dr, Cumming, GA 30041-4034",Cumming,GA,http://www.hamptongolfvillage.net,,,,,,,,,,
Oak Hills Park Golf Course,"165 Fillow St, Norwalk, CT 06850-2300",Norwalk,CT,http://www.oakhillsgc.com,,,,,,,,,,
Las Positas Golf Course,"917 Club House Dr, Livermore, CA 94551",Livermore,CA,http://laspositasgolfcourse.com/siteâ€¦,,,,,,,,,,
Ashland Golf Club,"1333 Center St, Ashland, OH 44805",Ashland,OH,http://www.ashlandgolfclubohio.com,,,,,,,,,,
Tahoma Valley Golf & Country Club,"15425 Mosman Ave Sw, Yelm, WA 98597",Yelm,WA,http://www.tahomavalleygolf.com/,,,,,,,,,,
New Berlin Hills Golf Course,"13175 W Graham St, New Berlin, WI 53151",New Berlin,WI,http://www.newberlinhills.com,,,,,,,,,,
Wyncote Golf Club,"50 Wyncote Dr, Oxford, PA 19363-1272",Oxford,PA,http://www.wyncote.com,,,,,,,,,,
The Great Outdoors Golf Club,"125 Plantation Drive, Titusville, FL",Titusville,FL,http://www.tgoresort.com/,,,,,,,,,,
Quail Ridge Country Club,"49 Skyline Drive, Acton, MA 01720",Acton,MA,https://www.quailridgegolfclub.com/,,,,,,,,,,
Bartlett Hills Golf Club,"800 W Oneida Ave, Bartlett, IL 60103-6608",Bartlett,IL,http://www.bartletthills.com,,,,,,,,,,
Sun Village Golf Course,"17300 N Sun Village Pkwy Ste A, Surprise, AZ 85374",Surprise,AZ,http://www.sunvillage.org,,,,,,,,,,
Coyote Golf Club,"28700 Milford Rd, New Hudson, MI 48165-9348",New Hudson,MI,http://www.coyotegolfclub.com,,,,,,,,,,
Towhee Club,"3901 Kedron Rd, Spring Hill, TN 37174-2162",Spring Hill,TN,http://www.kingscreekgolf.com/,,,,,,,,,,
Mount Shasta Resort,"1000 Siskiyou Lake Blvd, Mt Shasta, CA 96067",Mt Shasta,CA,http://www.mountshastaresort.com/,,,,,,,,,,
Deerfield Golf & Tennis Club,"507 Thompson Station Rd, Newark, DE 19711-7504",Newark,DE,http://www.deerfieldgolfclub.com,,,,,,,,,,
Indio Golf Course,"83040 Avenue 42, Indio, CA 92203-9600",Indio,CA,http://www.indio.org,,,,,,,,,,
Westchase Golf Club,"11602 Westchase Golf Drive, Tampa, FL 33626",Tampa,FL,http://www.westchasegc.com/,,,,,,,,,,
Potomac Shores Golf Club,"1750 Dunnington Place, Potomac Shores, VA 22026",Potomac Shores,VA,http://www.potomacshoresgolfclub.com,,,,,,,,,,
Cowboys Golf Club,"1600 Fairway Drive, Grapevine, TX 76051",Grapevine,TX,http://www.cowboysgolfclub.com,,,,,,,,,,
Lake Erie Metropark Golf Course,"32481 W Jefferson Ave, Rockwood, MI 48173-9300",Rockwood,MI,http://golf.metroparks.com/lake-erie-metropark/,,,,,,,,,,
Southington Country Club Clubhouse,"150 Savage St., Southington, CT 06489",Southington,CT,http://www.southingtoncountryclub.com/,,,,,,,,,,
Ocala Golf Club,"3130 E. Silver Springs Blvd., Ocala, FL 34470",Ocala,FL,http://www.ocalagolfcourses.com,,,,,,,,,,
The Links At Brigantine Beach,"1075 N Shore Dr, Brigantine, NJ 08203-2719",Brigantine,NJ,http://www.brigantinegolf.com,,,,,,,,,,
Links At Jonesboro,"1424 Links Cir, Jonesboro, AR 72404-0698",Jonesboro,AR,http://www.lindseymanagement.com,,,,,,,,,,
Abbey Golf Course,"33640 SR 52 W, St. Leo, FL 33574",St. Leo,FL,http://www.thegolfcourses.net/golfcourses/FL/825.htm,,,,,,,,,,
Deer Valley Golf Club,"3298 Hoover Rd, Deer Grove, Illinois 61243",Deer Grove,Illinois,http://www.dvforegolf.com,,,,,,,,,,
Mound Grove Golf Club,"10760 Donation Rd, Waterford, PA 16441-2302",Waterford,PA,http://www.moundgrove.com,,,,,,,,,,
Forest Hills Golf Course,"2235 SR 430, Mansfield, OH 44905",Mansfield,OH,http://www.golflink.com/golf-courses/course.aspx?course=856645,,,,,,,,,,
Grand View Golf Club,"3003 Hagni Rd NE, Kalkaska, MI 49646-9787",Kalkaska,MI,http://www.grandviewgolf.net,,,,,,,,,,
Greendale Golf Course,"6700 Telegraph Rd, Alexandria, VA 22310-3327",Alexandria,VA,http://www.fairfaxcounty.gov/parks/golf/greendale/,,,,,,,,,,
Rum River Hills Golf Club,"16659 St Francis Blvd, Ramsey, MN 55303","Ramsey,",MN,http://www.rumriverhills.com/,,,,,,,,,,
Wildfire Golf Club - Palmer Course,"5350 E Marriott Dr, Phoenix, AZ 85054-6147",Phoenix,AZ,http://www.wildfiregolf.com,,,,,,,,,,
Bear Creek - Bear Championship Course,"500 E Riggs Rd, Chandler, AZ 85249",Chandler,AZ,http://www.bearcreekaz.com,,,,,,,,,,
Calvert City Golf & Country Club,"123 Country Club Ln, Calvert City, KY 42029-",Calvert City,KY,http://www.calvertcitycountryclub.com,,,,,,,,,,
JC Melrose Country Club,"7600 Tookany Creek Pkwy, Cheltenham, PA 19012-1825",Cheltenham,PA,http://www.jcmelrosecc.com,,,,,,,,,,
Colina Park,"4085 52nd St, San Diego, CA 92105-2274",San Diego,CA,http://www.colinaparkgolf.com/,,,,,,,,,,
The Golf Club at Summerbrooke,"7505 Preservation Road, Tallahassee, FL 32312",Tallahassee,FL,http://www.summerbrookegolf.com,,,,,,,,,,
Chehalem Glenn Golf Course,"4501 E Fernwood Rd, Newberg, OR 97132-7064",Newberg,OR,http://www.chehalemglenn.com,,,,,,,,,,
Tierra Rejada Golf Club,"15187 Tierra Rejada Rd, Moorpark, CA 93021",Moorpark,CA,http://www.tierrarejadagolf.com/,,,,,,,,,,
Exeter Country Club,"58 Jady Hill Ave, Exeter, NH 03833",Exeter,NH,http://www.exetercountryclub.com,,,,,,,,,,
Old Oak Country Club,"14200 S Parker Rd, Homer Glen, IL 60491-9693",Homer Glen,IL,http://www.oldoakcc.com,,,,,,,,,,
Pelican Bay Country Club - North,"350 Pelican Bay Drive, Daytona Beach, FL 32119",Daytona Beach,FL,http://www.pelicanbaycc.com,,,,,,,,,,
Waverly Woods Golf Course,"2100 Warwick Way, Marriottsville, MD 21104",Marriottsville,MD,http://waverlywoods.com,,,,,,,,,,
Sprain Lake Golf Course,"290 Grassy Sprain Rd, Yonkers, NY 10710",Yonkers,NY,http://golf.westchestergov.com/sprain-lake-golf-course-,,,,,,,,,,
Riverside Golf Club,"1210 Larkin-Williams Road, Fenton, MO 63026",Fenton,MO,http://www.golfriverside.net/,,,,,,,,,,
Zellwood Station,"2126 Spillman Dr, Zellwood, FL 32798",Zellwood,FL,http://www.zellwoodgolf.com,,,,,,,,,,
Maggie Valley Club,"1819 Country Club Dr, Maggie Valley, NC 28751-7837",Maggie Valley,NC,http://www.maggievalleyclub.com,,,,,,,,,,
Rocky River Golf Club At Concord,"6900 Speedway Blvd, Concord, NC 28027-0146",Concord,NC,http://www.rockyrivergolf.com,,,,,,,,,,
Saddlebrook Resort - Palmer Course,"5700 Saddlebrook Way, Wesley Chapel, FL 33543-4499",Wesley Chapel,FL,https://www.saddlebrook.com,,,,,,,,,,
CasaBlanca Golf Club,"1100 West Hafen Lane, Mesquite, NV 89027",Mesquite,NV,http://www.casablancaresort.com,,,,,,,,,,
Bent Oak Golf Club,"3610 Bent Oak Trl, Elkhart, IN 46517-3843",Elkhart,IN,http://www.bentoakgc.com,,,,,,,,,,
Wolf Run Golf Club,"1400 Wolf Run Rd, Reno, NV 89511",Reno,NV,http://www.wolfrungolfclub.com/homepage/start_page.php,,,,,,,,,,
Eagle Glen Golf Course,"1800 Eagle Glen Pkwy, Corona, CA 92883-0620",Corona,CA,http://www.eagleglengc.com,,,,,,,,,,
Suncadia Resort- Prospector Course,"3600 Suncadia Trail, Cle Elum, WA",Cle Elum,WA,http://www.suncadiaresort.com/,,,,,,,,,,
Marysville Golf Course,"2080 River Rd, Marysville, MI","Marysville,",MI,https://www.marysvillegolf.com/,,,,,,,,,,
Colonial Charters GC,"301 Charter Drive, Longs, SC 29568",Longs,SC,http://www.colonialchartersgolf.com/,,,,,,,,,,
Cypress Point,"5340 Club Head Rd, Virginia Beach, VA 23455",Virginia Beach,VA,http://www.cypresspointgolf.com,,,,,,,,,,
Smithville Golf Club,"430 Golf Club Dr, Smithville, TN 37166-2603",Smithville,TN,http://www.smithvillegolf.com,,,,,,,,,,
Foxchase Golf Club,"300 Stevens Rd, Stevens, PA 17578",Stevens,PA,http://www.foxchasegolf.com/,,,,,,,,,,
Marine Park Golf Course,"2880 Flatbush Ave, Brooklyn, NY 11234-7007",Brooklyn,NY,http://www.golfmarinepark.com,,,,,,,,,,
Lapeer,"3786 Hunt Rd, Lapeer, MI 48446-2941",Lapeer,MI,http://www.lapeercountryclub.com,,,,,,,,,,
North Shore Golf Club,"11507 N Shore Golf Club Blvd, Orlando, FL 32832-5925",Orlando,FL,http://www.greatorlandogolf.com,,,,,,,,,,
Arcadia Hills Golf Course,"3801 Haines Rd, Attica, MI 48412-9230",Attica,MI,http://www.arcadiahills.com/index.html,,,,,,,,,,
Pebble Brook Golf Club - South Course,"3110 Westfield Rd, Noblesville, IN 46062-9518",Noblesville,IN,http://www.pebblebrookgolfclub.com,,,,,,,,,,
Maggie Hathaway Golf Course,"1921 W 98th St, Los Angeles, CA 90047-5900",Los Angeles,CA,http://www.golflink.com/golf-courses/course.aspx?course=74934,,,,,,,,,,
Shanty Creek - Summit,"1 Shanty Creek Rd., Bellaire, MI 49615",Bellaire,MI,http://www.shantycreek.com,,,,,,,,,,
Hickory Heights Golf Club,"5158 Lehman Rd, Spring Grove, PA 17362",Spring Grove,PA,http://golfhickoryheights.com,,,,,,,,,,
Pine Forest Country Club,"1000 Congressional Blvd, Summerville, SC 29483-5030",Summerville,SC,http://www.pineforestcountryclub.com,,,,,,,,,,
Davie Golf & Country Club,"8201 SW 24th St, Fort Lauderdale, FL 33324-5703",Fort Lauderdale,FL,http://www.golfdavie.com,,,,,,,,,,
Meadowood Golf & Tennis Club,"9425 Meadowood Dr, Fort Pierce, FL 34951-2900",Fort Pierce,FL,http://www.meadowoodgolfandtennis.com,,,,,,,,,,
Hunter Ranch Golf Course,"4041 E Highway 46, Paso Robles, CA 93446-7301",Paso Robles,CA,http://www.hunterranchgolf.com,,,,,,,,,,
Sugarbush Golf Club,"One Sugarbush Drive, Davison, MI 48423",Davison,MI,https://sugarbushgolf.com/,,,,,,,,,,
The Chimneys,"338 Monroe Hwy, Winder, GA 30680-4046",Winder,GA,http://www.chimneysgc.com,,,,,,,,,,
BayPoint Resort - Nicklaus,"4701 Bay Point Rd, Panama City, FL 32408",Panama City,FL,http://www.baypointgolf.com,,,,,,,,,,
Eagle Sticks Golf Club,"2655 Maysville Pike, Zanesville, OH 43701-8575",Zanesville,OH,http://www.eaglesticks.com,,,,,,,,,,
Bent Tree Country Club,"4700 Bent Tree Blvd, Sarasota, FL 34241-6039",Sarasota,FL,http://www.benttreecc.net,,,,,,,,,,
Port Townsend Golf Club,"1948 Blaine St, Port Townsend, WA","Port Townsend,",WA,http://www.golflink.com/golf-courses/city.aspx?dest=port+townsend+wa,,,,,,,,,,
Sultanâ€™s Run Golf Club,"1490 N Meridian Rd, Jasper, IN 47546",Jasper,IN,https://www.sultansrun.com/,,,,,,,,,,
Desert Canyon Golf Club,"10440 N Indian Wells Dr, Fountain Hills, AZ 85268-6240",Fountain Hills,AZ,http://www.desertcanyongolf.com,,,,,,,,,,
San Pedro Golf Course,"926 North Madison Ave, Benson, AZ 85602",Benson,AZ,http://www.sanpedrogolf.com,,,,,,,,,,
Genegantslet Golf Club,"686 State Highway 12, Greene, NY 13778-2286",Greene,NY,https://www.gennygolf.com/,,,,,,,,,,
Bobby Jones Golf Course,"384 Woodward Way NW, Atlanta, GA 30305-4081",Atlanta,GA,http://www.bobbyjonesgc.com/,,,,,,,,,,
Moody Gardens,"1700 Sydnor Ln, Galveston, TX 77554-6306",Galveston,TX,http://www.moodygardensgolf.com,,,,,,,,,,
Colony West Country Club | Championship,"6800 NW 88th Ave, Tamarac, FL 33321-3799",Tamarac,FL,http://www.golfcolonywest.com,,,,,,,,,,
The Club At Savannah Harbor,"2 Resort Dr, Savannah, GA 31421-7001",Savannah,GA,http://www.theclubatsavannahharbor.com,,,,,,,,,,
Jefferson District Golf Course,"7900 Lee Highway, Falls Church, VA 22042",Falls Church,VA,http://www.fairfaxcounty.gov/parks/golf/jeffersongc/,,,,,,,,,,
NorthBrook Country Club,"407 Northbrook Rd, Luxemburg, WI 54217-8397",Luxemburg,WI,http://www.northbrookcc.com,,,,,,,,,,
Miacomet Golf Course,"12 W. Miacomet Rd., Nantucket Island, MA 02554",Nantucket Island,MA,http://www.miacometgolf.com,,,,,,,,,,
Prairie View,"7993 N River Rd, Byron, IL 61010-9533",Byron,IL,http://www.prairieviewgolf.com,,,,,,,,,,
Hells Point Golf Course,"2700 Atwoodtown Rd, Virginia Beach, VA 23456",Virginia Beach,VA,http://www.hellspoint.com,,,,,,,,,,
Heritage Creek Golf Club,"1949 Meetinghouse Rd., Jamison, PA 18929",Jamison,PA,http://www.heritagecreekgolfclub.com/,,,,,,,,,,
Sleepy Hole Golf Course,"4700 Sleepy Hole Road, Suffolk, VA 23435",Suffolk,VA,http://www.sleepyholegolfcourse.com/,,,,,,,,,,
Greenfield Lakes Golf Course,"2484 E Warner Rd, Gilbert, AZ 85296",Gilbert,AZ,http://www.greenfieldlakesgolfcourse.com,,,,,,,,,,
Chariot Run Golf Club,"8191 Chariot Run Dr SE, Laconia, IN 47135-9464",Laconia,IN,http://www.chariotrun.com,,,,,,,,,,
A.J. Jolly Golf Course,"11541 Alexandria Pike, Alexandria, KY 41001-7779",Alexandria,KY,http://www.ajjolly.com,,,,,,,,,,
Rio Secco Golf Club,"2851 Grand Hills Dr., Henderson, NV 89052",Henderson,NV,http://www.riosecco.net/,,,,,,,,,,
Carolina Lakes Golf Club,"23012 Kingfisher Dr, Fort Mill, SC 29707",Fort Mill,SC,http://www.carolinalakesgc.com/,,,,,,,,,,
Perdido Bay Golf Club,"1 Doug Ford Dr, Perdido Bay, FL 32507",Perdido Bay,FL,http://www.perdidobaygolf.com,,,,,,,,,,
Mosholu Golf Course,"3751 Jerome Ave, Bronx, NY 10467",Bronx,NY,http://www.mosholugolfcourse.com,,,,,,,,,,
Stonelick Hills Golf Course,"3155 Sherilyn Ln, Batavia, OH 45103",Batavia,OH,http://www.stonelickhills.com,,,,,,,,,,
The Golf Club at the Resort,"5700 Resort Blvd., Fort Worth, TX 76179",Fort Worth,TX,http://www.resortgolfclub.com,,,,,,,,,,
Eagle Crest Golf Course,"2203 Thomas W Ryan Blvd, Las Vegas, NV 89134",Las Vegas,NV,http://www.golfsummerlin.com,,,,,,,,,,
Biltmore Golf Course,"1210 Anastasia Ave, Coconut Grove, FL 33134",Coconut Grove,FL,http://www.biltmorehotel.com/golf.php,,,,,,,,,,
Diamondback Golf Club,"1510 E. Industrial, Abilene, TX 79602",Abilene,TX,http://www.diamondbackgolfclub.biz/,,,,,,,,,,
Ahwatukee Country Club,"12432 S 48th St, Phoenix, AZ 85044-3351",Phoenix,AZ,http://www.ahwatukeegc.com,,,,,,,,,,
Indian Wells Golf Resort - Players,"44-500 Indian Wells Lane, Indian Wells, CA 92210",Indian Wells,CA,http://www.indianwellsgolfresort.com,,,,,,,,,,
San Dimas Canyon Golf Course,"2100 Terrebonne Ave, San Dimas, CA 91773-1349",San Dimas,CA,https://www.sandimasgc.com/,,,,,,,,,,
Fairview Golf Course,"2399 Quentin Rd, Lebanon, PA 17042-9040",Lebanon,PA,http://www.fairview.distinctgolf.com,,,,,,,,,,
Ironwood Golf Course,"2100 NE 39th Ave, Gainesville, FL 32609-2033",Gainesville,FL,http://www.ironwoodgolfcourse.org/,,,,,,,,,,
Casselberry Golf Club,"300 South Lake Triplett Drive, Casselberry, FL 32707",Casselberry,FL,http://www.casselberrygc.com,,,,,,,,,,
Little Bennett Golf Course,"25900 Prescott Rd, Clarksburg, MD 20871-9160",Clarksburg,MD,http://www.montgomerycountygolf.com,,,,,,,,,,
The Links Golf Club,"11425 N Pr Links Ln, New Palestine, IN 46163-9307",New Palestine,IN,http://www.linksindy.com,,,,,,,,,,
College Park Municipal Golf Course,"3711 Fairway Dr, College Park, GA 30337",College Park,GA,http://www.cp9golf.com,,,,,,,,,,
Deer Island Golf & Lake Club,"18000 Eagles Way, Tavares, FL 32778",Tavares,FL,http://www.deerislandcc.com/,,,,,,,,,,
Chapel Hill Country Club,"2500 N Chapel Hill Rd, Mchenry, IL 60051-3630",Mchenry,IL,http://www.chapelhillgc.com,,,,,,,,,,
Newport Beach Golf Course,"3100 Irvine Ave, Newport Beach, CA 92660-3104",Newport Beach,CA,http://www.npbgolf.com,,,,,,,,,,
Burke Lake Park Golf Course,"7315 Ox Rd, Fairfax Station, VA 22039",Fairfax Station,VA,http://www.fairfaxcounty.gov/parks/golf/blgc/,,,,,,,,,,
White Pines Golf Club - East,"500 West Jefferson Street, Bensenville, IL 60106",Bensenville,IL,http://www.whitepinesgolf.com,,,,,,,,,,
Olde Beau Golf Club,"US Highway 21, Roaring Gap, NC 28668",Roaring Gap,NC,http://www.oldebeau.com,,,,,,,,,,
Lakeland Golf Course,"1772 Kiser Lake Rd, Saint Paris, OH 43072-9217",Saint Paris,OH,http://www.lakelandgolfclub.com,,,,,,,,,,
Heron Lakes - Great Blue,"3500 N Victory Blvd, Portland, OR",Portland,OR,http://www.heronlakesgolf.com/,,,,,,,,,,
Royal Kaanapali,"2290 KAANAPALI PARKWAY, Lahaina, HI",Lahaina,HI,http://www.kaanapali-golf.com,,,,,,,,,,
Windance Country Club,"19385 Champion Cir, Gulfport, MS 39503-7707",Gulfport,MS,http://www.windancecc.com,,,,,,,,,,
Pine View Golf Club,"5820 Stony Creek Road, Ypsilanti, MI 48197",Ypsilanti,MI,http://www.pineviewgc.com/,,,,,,,,,,
Top O The Lake Country Club,"676 Country Club Road, Bowie, TX 76230",Bowie,TX,http://www.topothelakecountryclub.com,,,,,,,,,,
Marriott Shadow Ridge,"9003 Shadow Ridge Rd, Palm Desert, CA 92211-2057",Palm Desert,CA,http://www.golfshadowridge.com,,,,,,,,,,
Tahquitz Creek - Resort Course,"1885 Golf Club Dr, Palm Springs, CA 92264",Palm Springs,CA,http://www.tahquitzgolfresort.com/,,,,,,,,,,
Tameka Woods Golf Course,"4849 S 450 W, Trafalgar, IN 46181",Trafalgar,IN,http://www.tamekawoods.com,,,,,,,,,,
Laguna Seca Golf Club,"10520 York Rd, Monterey, CA 93940-6538",Monterey,CA,http://www.lagunasecagolf.com,,,,,,,,,,
Palo Verde Golf Course,"6215 N 15th Ave, Phoenix, AZ 85015-2002",Phoenix,AZ,https://www.phoenix.gov/parks/golf/phoenix-golf-courses/palo-verde,,,,,,,,,,
Angus Lea Golf Course,"126 Main S, Hillsborough, NH 03244",Hillsborough,NH,http://www.anguslea.com/,,,,,,,,,,
Suncrest Golf Course,"137 Brownsdale Rd, Butler, PA 16002-0419",Butler,PA,http://www.suncrestgolf.com,,,,,,,,,,
Mississippi National - Lowlands,"409 Golf Links Dr, Red Wing, MN",Red Wing,MN,http://www.golfredwing.com/,,,,,,,,,,
Jupiter Dunes Golf Course,"401 N Highway A1A, Jupiter, FL 33477",Jupiter,FL,https://www.jupiterdunesgolf.net/,,,,,,,,,,
Lakota Canyon Ranch Golf Club,"1000 Clubhouse Dr, New Castle, CO 81647-8507",New Castle,CO,http://www.lakotacanyonranch.com,,,,,,,,,,
Geneva National - Trevino,"1221 Geneva National Ave S., Lake Geneva, WI 53147",Lake Geneva,WI,http://www.genevanationalresort.com/,,,,,,,,,,
Foxtail Golf Club - Redwoods (North) Course,"100 Golf Course Dr, Rohnert Park, CA 94928",Rohnert Park,CA,http://www.playfoxtail.com,,,,,,,,,,
Woodcreek Golf Club,"5880 Woodcreek Oaks Boulevard, Roseville, CA 95747",Roseville,CA,http://www.golfroseville.com/golf/proto/golfroseville/woodcreek_course/woodcreek_course.htm,,,,,,,,,,
Mohawk Park - Woodbine - Woodbine Course,"5223 E 41st St N, Tulsa, OK 74115-1319",Tulsa,OK,http://www.tulsagolf.org/Mohawk-Park-Golf-Course.html,,,,,,,,,,
Wildfire Golf Club - Faldo Course,"5350 E Marriott Dr, Phoenix, AZ 85054-6147",Phoenix,AZ,http://www.wildfiregolf.com,,,,,,,,,,
Mount Dora Golf Club,"1100 S Highland St, Mount Dora, FL 32757",Mount Dora,FL,http://www.mountdoragolf.com,,,,,,,,,,
New Paltz Golf Course,"215 Huguenot Street, New Paltz, NY 12561",New Paltz,NY,http://www.newpaltzgolf.com/,,,,,,,,,,
Bay Hills Golf Club,"545 Bay Hills Dr., Arnold, MD 21012",Arnold,MD,http://bayhillsgc.com/,,,,,,,,,,
Falcon Valley,"9801 Falcon Valley Dr, Lenexa, KS 66220",Lenexa,KS,http://www.falconvalleygolf.com,,,,,,,,,,
The UNC Finley Golf Club,"Finley Golf Course Rd, Chapel Hill, NC 27514",Chapel Hill,NC,http://www.uncfinley.com,,,,,,,,,,
Rancho Manana Golf Club,"5734 E Rancho Manana Blvd, Cave Creek, AZ 85331-8588",Cave Creek,AZ,http://www.ranchomanana.com,,,,,,,,,,
Dove Valley Ranch,"33750 N Dove Lakes Dr, Cave Creek, AZ 85331-5001",Cave Creek,AZ,http://www.dovevalleyranch.com,,,,,,,,,,
Ko Olina Golf Club,"92-1220 Aliinui Dr., Kapolei, HI 96707",Kapolei,HI,http://www.koolinagolf.com/,,,,,,,,,,
Deerpath Golf Course,"500 W Deerpath, Lake Forest, IL 60045-1637",Lake Forest,IL,https://www.deerpathgolf.com,,,,,,,,,,
Goose Pond Colony Golf Course | Plantation,"417 Ed Hembree Dr, Scottsboro, AL 35769-7859",Scottsboro,AL,http://www.goosepond.org,,,,,,,,,,
Pine Brook Golf Club,"11043 Durkee Road, Grafton, OH 44044",Grafton,OH,http://www.pinebrookgc.com/,,,,,,,,,,
Bowie Golf & Country Club,"7420 Laurel Bowie Rd, Bowie, MD 20715-1717",Bowie,MD,http://www.bowiegolf.com,,,,,,,,,,
Riverbend Golf Complex - 18 Hole Course,"2019 W Meeker St, Kent, WA 98032-4216",Kent,WA,http://www.ci.kent.wa.us,,,,,,,,,,
Max Starcke Park Golf Club,"650 River Dr W, Seguin, TX 78155-6407",Seguin,TX,http://www.ci.seguin.tx.us/general/golf.htm,,,,,,,,,,
Alfred 'Tup' Holmes Golf Course,"2300 Wilson Dr SW, Atlanta, GA 30311-3338",Atlanta,GA,https://www.golfnow.com/courses/1028877-alfred-tup-holmes-golf-course-details,,,,,,,,,,
Marquette Park Golf Course,"6700 S Kedzie Ave, Chicago, IL 60629",Chicago,IL,http://marquettepark.cpdgolf.com/,,,,,,,,,,
Tour 18 Golf Course Houston,"3102 Farm Market 1960 Rd E, Humble, TX 77338",Humble,TX,http://www.tour18golf.com,,,,,,,,,,
Morongo Golf Club at Tukwet Canyon - Legends,"36211 Champions Dr, Beaumont, CA 92223",Beaumont,CA,http://www.tukwetcanyon.com,,,,,,,,,,
Tekoa Country Club,"459 Russell Rd, Westfield, MA 01085-2102",Westfield,MA,https://tekoacc.com/,,,,,,,,,,
The Links at Hiawatha,"2350 Marshland Rd, Apalachin, NY 13732-",Apalachin,NY,http://www.hiawathalinks.com,,,,,,,,,,
Pierce Community Golf Course,"85428 548th Ave, Pierce, NE 68767-3569",Pierce,NE,http://www.ptcnet.net/golfcourse.htm,,,,,,,,,,
Beechwood Golf Course,"2222 Woodlawn Drive, La Porte, IN 46350",La Porte,IN,http://www.thebeechwoodgolfcourse.com/,,,,,,,,,,
Reid Memorial Park Golf Course South,"1301 Mitchell Boulevard, Springfield, OH",Springfield,OH,http://ntprdreidmemorial.phantomgolf.com/,,,,,,,,,,
Greatwood Golf Club,"6767 Greatwood Pkwy, Sugar Land, TX 77479-6398",Sugar Land,TX,http://www.greatwoodgolf.com,,,,,,,,,,
Lincoln Hills Golf Club - Hills Course,"1005 Sun City Lane, Lincoln, CA 95648",Lincoln,CA,http://www.lincolnhillsgolfclub.com,,,,,,,,,,
Redland Golf and Country Club,"24451 SW 177th Ave, Homestead, FL 33031",Homestead,FL,http://redlandgolf.com,,,,,,,,,,
Elk River Golf Club,"20015 Elk Lake Road, Elk River, MN 55330",Elk River,MN,http://www.elkrivercc.com,,,,,,,,,,
Lakeview Golf Resort and Spa - Lakeview Course,"1 Lakeview Dr, Morgantown, WV 26508-8061",Morgantown,WV,http://www.lakeviewresort.com,,,,,,,,,,
Springvale Golf Club,"5871 Canterbury Rd, North Olmsted, OH 44070-4522",North Olmsted,OH,http://www.north-olmsted.com/springvalegolfcourse.cfm,,,,,,,,,,
Grand Bear Golf Club,"12040 Grand Way Blvd, Saucier, MS",Saucier,MS,https://grandbeargolf.com/,,,,,,,,,,
The Links At Victoria Park,"340 E 192nd St, Carson, CA 90746-2207",Carson,CA,http://www.linksatvictoria.com,,,,,,,,,,
Tpc At Deere Run,"3100 Heather Knl, Silvis, IL 61282",Silvis,IL,http://www.tpc.com/tpc-deere-run,,,,,,,,,,
General Old Golf Course,"16700 Village West Dr, Riverside, CA 92518-2888",Riverside,CA,http://www.generaloldgolfcourse.com,,,,,,,,,,
Ed Oliver Golf Club,"800 N Dupont Rd, Wilmington, DE 19807",Wilmington,DE,http://www.edolivergolfclub.com,,,,,,,,,,
The Dunes At Maui Lani Golf Course,"1333 Mauilani Pkwy, Kahului, HI 96732-2542",Kahului,HI,http://dunesatmauilani.com/,,,,,,,,,,
Golf Club of Estrella,"11800 S Golf Club Dr, Goodyear, AZ 85338-9512",Goodyear,AZ,http://www.estrellagolf.com,,,,,,,,,,
Waterview Golf Club,"75089 Waterview Pkwy, Rowlett, TX 75089",Rowlett,TX,https://www.waterviewgc.com/,,,,,,,,,,
Heron Creek Golf Club,"0615 West 050 North, Lagrange, IN 46761",Lagrange,IN,http://www.heroncreekgolfclub.com/,,,,,,,,,,
Arrowhead Pointe at Richard B Russell,"2790 Olympic Rowing Dr, Elberton, GA 30635",Elberton,GA,http://www.arrowheadpointegc.com/,,,,,,,,,,
Cerbat Cliffs Golf Course,"1001 Gates Avenue, Kingman, AZ 86401",Kingman,AZ,http://cerbatcliffsgc.com/,,,,,,,,,,
Pickaway Country Club,"1399 Stoutsville Pike, Circleville, OH 43113-8987",Circleville,OH,http://www.pickawaycc.com,,,,,,,,,,
Lake City Golf Club,"33587 Lakeview Dr, Lake City, MN 55041-3261",Lake City,MN,http://www.lakecitygolf.com,,,,,,,,,,
Furnace Creek Golf Course,"Highway 190, Death Valley, CA 92328",Death Valley,CA,http://www.furnacecreekresort.com,,,,,,,,,,
Countryland Golf Club,"6560 Mayfield Drive, Cumming, GA 30041",Cumming,GA,http://www.countrylandgolf.com,,,,,,,,,,
Heron's Glen Golf & Country Club,"2250 Avenida del Vera, North Fort Myers, FL 33917-6700",North Fort Myers,FL,http://www.hggcc.com/,,,,,,,,,,
Sherman Hills Golf Club,"31200 Eagle Falls Drive, Brooksville, FL 34602",Brooksville,FL,http://www.shermanhillsgolf.com/,,,,,,,,,,
Stonebridge Golf Links & Country Club,"2000 Raynors Way, Smithtown, NY 11787-4465",Smithtown,NY,http://www.stonebridgeglcc.com,,,,,,,,,,
Wedgewood Golfers' Club,"5206 Tournament Drive, Olive Branch, MS 38654",Olive Branch,MS,http://www.wwncgolf.com,,,,,,,,,,
Bay Harbor Golf Club - Preserve-Links,"3600 Village Harbor Drive, Bay Harbor, MI 49770",Bay Harbor,MI,http://www.bayharborgolf.com/,,,,,,,,,,
Waukewan Golf Club,"Waukewan Rd, Center Harbor, NH 03226",Center Harbor,NH,http://www.waukewan.com,,,,,,,,,,
Schalamar Creek Golf Club,"4500 US Highway 92 E, Lakeland, FL 33801-9457",Lakeland,FL,http://www.schalamar.com,,,,,,,,,,
Myrtle Beach National Golf Course - Southcreek Course,"4900 National Dr, Myrtle Beach, SC 29579",Myrtle Beach,SC,http://www.mbn.com,,,,,,,,,,
Chambers Bay Golf Club,"6320 Grandview Dr W, University Place, WA 98467",University Place,WA,http://www.chambersbaygolf.com,,,,,,,,,,
Lake Doster Golf Club,"116 Country Club Blvd, Plainwell, MI 49080-9120",Plainwell,MI,http://www.lakedostergolf.com,,,,,,,,,,
Raritan Landing Golf Course,"491 Sidney Rd, Piscataway, NJ 08854-4149",Piscataway,NJ,http://www.mciauth.com,,,,,,,,,,
Pierce Lake Golf Course,"1175 S Main, St. Chelsea, MI",St. Chelsea,MI,http://www.piercelakegolf.com/,,,,,,,,,,
Mauna Kea Resort,"62-100 Mauna Kea Beach Dr, Kamuela, HI 96743-9706",Kamuela,HI,https://maunakeabeachhotel.com/,,,,,,,,,,
Currie Municipal Golf Course - West,"1300 Currie Pkwy, Midland, MI","Midland,",MI,http://www.curriegolf.com,,,,,,,,,,
Maple River Golf Club,"3666 163rd Ave SE, West Fargo, ND 58078",West Fargo,ND,http://www.maplerivergolfclub.com,,,,,,,,,,
Cary Country Club,"2400 Grove Ln, Cary, IL 60013-2741",Cary,IL,http://www.carycountryclub.com,,,,,,,,,,
Mountain Branch Golf Course,"1827 Mountain Rd, Joppa, MD 21085-1918",Joppa,MD,http://www.mountainbranch.com,,,,,,,,,,
Kissena Park Golf Course,"16415 Booth Memorial Ave, Fresh Meadows, NY 11365-1532",Fresh Meadows,NY,http://www.golfnyc.com/kissena_home/,,,,,,,,,,
Poipu Bay Golf Course,"2250 Ainako St, Koloa, HI 96756",Koloa,HI,http://poipubaygolf.com,,,,,,,,,,
Oyster Bay Golf Links,"614 Lake Shore Dr, Sunset Beach, NC 28468-4510",Sunset Beach,NC,http://www.legendsgolf.com,,,,,,,,,,
Wyaton Hills Golf Course,"17879 1500 North Ave, Princeton, IL 61356-6813",Princeton,IL,http://www.facebook.com/Wyaton-Hills-Golf-Course-120021978014131/,,,,,,,,,,
Coronado Golf Course,"2829 N Miller Rd, Scottsdale, AZ 85257-1610",Scottsdale,AZ,http://www.coronadogolfscottsdale.com,,,,,,,,,,
Bridgemill Athletic Club,"1190 Bridge Mill Ave, Canton, GA 30114-7712",Canton,GA,http://www.bridgemillathleticclub.com,,,,,,,,,,
Altadena Golf Course,"1456 E Mendocino St, Altadena, CA 91001",Altadena,CA,http://parks.lacounty.gov/wps/portal/dpr/ThingsToDo/Golf/Altadena_Golf_Course,,,,,,,,,,
Serenoa Golf Club,"6773 Serenoa Dr, Sarasota, FL 34241",Sarasota,FL,http://serenoagc.com,,,,,,,,,,
The Canyons At Blackjack Ridge,"1801 N McKinley Ave, Sand Springs, OK 74063-8302",Sand Springs,OK,http://www.thecanyonsatblackjackridge.com,,,,,,,,,,
Audubon Park Golf Course,"6500 Magazine St, New Orleans, LA 70118-4848",New Orleans,LA,http://audubonnatureinstitute.org/golf,,,,,,,,,,
Pinnacle Country Club,"200 Pinnacle Club Dr, Mabank, TX 75156-6005",Mabank,TX,http://www.pinnaclegolfclub.com,,,,,,,,,,
Tour 18 Golf Course Dallas,"8718 Amen Cor, Flower Mound, TX 75022-6498",Flower Mound,TX,http://www.tour18-dallas.com,,,,,,,,,,
Fox Bend Golf Course,"3516 US Highway 34, Oswego, IL 60543-8943",Oswego,IL,http://www.foxbendgolfcourse.com,,,,,,,,,,
Grand Ridge Golf Club,"500 Willowdale Blvd, Luling, LA 70070",Luling,LA,http://www.grandridgegolf.com/index.htm,,,,,,,,,,
Sun City Country Club,"9433 N 107th Ave, Sun City, AZ 85351-4605",Sun City,AZ,http://www.suncitycountryclub.org,,,,,,,,,,
The Creek At Hard Labor,"1400 Knox Chapel Rd, Social Circle, GA 30025-4526",Social Circle,GA,http://www.georgiagolf.com,,,,,,,,,,
Point Venture Golf Course,"422 Venture Blvd S, Point Venture, TX 78645-8543",Point Venture,TX,http://pointventuregolf.com,,,,,,,,,,
Elbel Park Golf Club,"26595 Auten Road, South Bend, IN 46628",South Bend,IN,http://www.sbparks.org,,,,,,,,,,
Salem Hills Golf Club,"8810 6 Mile Rd, Northville, MI 48167",Northville,MI,http://salemhillsgolfclub.com,,,,,,,,,,
Lake Wales Country Club,"E State Rd 60, Lake Wales, FL",Lake Wales,FL,http://www.lakewalescc.com/,,,,,,,,,,
Santee National Golf Course,"8636 Old Number Six Highway, Santee, SC 29142",Santee,SC,http://www.santeenational.com,,,,,,,,,,
Ely Park Golf Course,"67 Ridge St, Binghamton, NY 13905-1730",Binghamton,NY,http://www.elyparkgolf.com,,,,,,,,,,
Camelback Golf Club - Padre Course,"7847 N Mockingbird Ln, Paradise Valley, AZ 85253",Paradise Valley,AZ,http://www.marriott.com/golf-hotels/phxcb-jw-marriott-scottsdale-camelback-inn-resort-and-spa/camelback-golf-club/5256759/home-page.mi,,,,,,,,,,
Cumberland Golf Club,"2395 Ritner Hwy, Carlisle, PA 17015-9316",Carlisle,PA,http://www.81fun.com/golf/proto/81fun/golf_home/golf_home.htm,,,,,,,,,,
Las Sendas Golf Club,"7555 E Eagle Crest Dr, Mesa, AZ 85207-1053",Mesa,AZ,http://www.lassendas.com,,,,,,,,,,
Port Royal Golf Club - Robber's Row,"10 Clubhouse Dr, Hilton Head Island, SC 29928",Hilton Head Island,SC,http://www.portroyalgolfclub.com,,,,,,,,,,
Fox Hollow Golf Club,"10050 Robert Trent Jones Pkwy, New Port Richey, FL 34655",New Port Richey,FL,http://golfthefox.com,,,,,,,,,,
College Heights Country Club,"1225 E 4th St, Crete, NE 68333-3220",Crete,NE,https://www.chccgolf.com,,,,,,,,,,
Paradise Valley Golf Course,"3950 Paradise Valley Dr, Fairfield, CA 94533-9701",Fairfield,CA,http://www.fairfieldgolf.com,,,,,,,,,,
Rawiga Golf & Country Club,"10353 Rawiga Road, Seville, OH 44273",Seville,OH,http://www.rawigacc.com,,,,,,,,,,
Indian Trails Golf Course,"2776 Kalamazoo Ave SE, Grand Rapids, MI 49507-3940",Grand Rapids,MI,http://www.grand-rapids.mi.us,,,,,,,,,,
Eagle Dunes Golf Club,"24000 Marbella Drive, Sorrento, FL 32776",Sorrento,FL,http://www.eagledunes.com,,,,,,,,,,
Cathedral Canyon Golf Club - Lake Course,"68311 Paseo Real, Cathedral City, CA 92234-6767",Cathedral City,CA,http://www.cathedral-canyon.com,,,,,,,,,,
Wyckoff Country Club,"233 Easthampton Rd, Holyoke, MA 01040-1228",Holyoke,MA,http://www.wyckoffcountryclub.com,,,,,,,,,,
Silverhorn Golf Club,"1100 W Bitters Rd, San Antonio, TX 78216-7809",San Antonio,TX,http://www.silverhorngolfclub.com,,,,,,,,,,
Azalea City Golf Course,"1000 Gaillard Drive, Mobile, AL 36608",Mobile,AL,http://www.azaleacitygolfcourse.com/,,,,,,,,,,
Reid Memorial Park Golf Course - North Course,"1325 S Bird Rd, Springfield, OH 45505-3503",Springfield,OH,http://www.ci.springfield.oh.us,,,,,,,,,,
Downingtown Golf Club,"85 Country Club Dr, Downingtown, PA 19335-3060",Downingtown,PA,http://www.golfdowningtown.com,,,,,,,,,,
Superstition Springs Golf Club,"6542 E Baseline Rd, Mesa, AZ 85206-4300",Mesa,AZ,http://www.superstitionspringsgc.com,,,,,,,,,,
Sawmill Creek Golf Club & Resort,"2901 Cleveland Rd W, Huron, OH 44839",Huron,OH,http://www.golfsawmillcreek.com,,,,,,,,,,
Mountain Vista Golf Club - Santa Rosa,"38180 Del Webb Blvd., Palm Desert, CA 92211",Palm Desert,CA,http://www.mountainvistagolfclub.com/index.php,,,,,,,,,,
Paw Paw Lake Golf Course,"4548 Forest Beach Rd, Watervliet, MI 49098",Watervliet,MI,http://www.pplgcgolf.com,,,,,,,,,,
Raccoon International Golf Course,"3275 Worthington Rd SW, Granville, OH 43023",Granville,OH,http://www.raccooninternational.com,,,,,,,,,,
Eagle Knoll Golf Club,"5757 E. Eagle Knoll Drive, Hartsburg, MO 65039",Hartsburg,MO,https://www.eagleknoll.com/,,,,,,,,,,
Piper Glen,"7112 Piper Glen Drive, Springfield, IL 62711",Springfield,IL,http://www.piperglen.com,,,,,,,,,,
WildHorse Golf Club,"2100 Warm Springs Road, Henderson, NV 89014",Henderson,NV,http://www.golfwildhorse.com,,,,,,,,,,
Timberlake Plantation Golf Course,"284 Club Dr, Chapin, SC 29036-8454",Chapin,SC,http://www.timberlakecountryclub.com,,,,,,,,,,
Colts Neck Golf Club,"50 Flock Road, Colts Neck, NJ 07722",Colts Neck,NJ,http://www.coltsneckgolfclub.com/,,,,,,,,,,
Candler Hills Golf Club,"8137 SW 90th Terrace Rd., Ocala, FL 34481",Ocala,FL,http://www.candlerhillsgolfclub.com,,,,,,,,,,
Dr. Charles L. Sifford Golf Course at Revolution Park,"1225 Remount Road, Charlotte, NC 28208",Charlotte,NC,http://www.charlottepublicgolf.com/charles-l-sifford-gc.html,,,,,,,,,,
TGC at Pleasant Point Plantation,"8 Barnwell Drive, LADYS ISLAND, SC 29907",LADYS ISLAND,SC,http://tgcppp.com,,,,,,,,,,
Grey Hawk Golf Club,"665 U S Grant St, Lagrange, OH 44050-8508",Lagrange,OH,http://www.greyhawkgolf.com,,,,,,,,,,
Golden Hills Golf & Country Club,"100 Scotland Dr, Lexington, SC 29072-8052",Lexington,SC,http://www.goldenhillsgolf.com,,,,,,,,,,
Twin Lakes Golf Course,"400 W 59th St, Westmont, IL 60559",Westmont,IL,http://westmontparks.org/twin-lakes-golf-club/course-layout.htm,,,,,,,,,,
Tamarack Golf Club,"50771 Colorado 71, Limon, CO 80828",Limon,CO,http://www.tamarackcc.com,,,,,,,,,,
The Resort at Glade Springs - Stonehaven,"255 Resort Drive, Daniels, WV 25832",Daniels,WV,http://www.gladesprings.com/,,,,,,,,,,
Salt Creek Golf Club,"1051 N. Prospect Avenue Suite A, Wood Dale, IL 60191",Wood Dale,IL,http://www.saltcreekgolfclub.com,,,,,,,,,,
Glen Dornoch Golf Links,"4840 Glen Dornoch Way, Little River, SC 29566",Little River,SC,http://www.glensgolfgroup.com,,,,,,,,,,
Hickory Valley Golf Club - Presidential Course,"1921 Ludwig Rd, Gilbertsville, PA 19525-9438",Gilbertsville,PA,http://www.hickoryvalley.com,,,,,,,,,,
Streator Country Club,"2000 Eastwood Ave, Streator, IL 61364-1073",Streator,IL,http://www.eastwoodtwincreeks.com,,,,,,,,,,
Upland Hills Country Club,"1231 E 16th St, Upland, CA 91784-2450",Upland,CA,https://www.golfuplandhillscountryclub.com/,,,,,,,,,,
The Lakes At Laura S. Walker,"5500 Laura Walker Rd, Waycross, GA 31503-0951",Waycross,GA,http://gastateparks.org/The-Lakes,,,,,,,,,,
Northwood Golf Course,"3131 Golf Course Rd, Rhinelander, WI 54501-8177",Rhinelander,WI,http://www.northwoodgolfclub.com,,,,,,,,,,
Morris Williams Golf Course,"4305 Manor Rd, Austin, TX 78723-5901",Austin,TX,http://www.ci.austin.tx.us/parks/morriswilliams.htm,,,,,,,,,,
Alburg Golf Links,"230 Route 129, Alburg, VT 05440",Alburg,VT,http://www.alburggolflinks.com,,,,,,,,,,
Los Caballeros Golf Club,"1551 South Vulture Mine Rd, Wickenburg, AZ 85390",Wickenburg,AZ,https://www.ranchodeloscaballeros.com/golf-club,,,,,,,,,,
Pryor Creek Golf Course,"724 E 530, Pryor, OK 74361-2863",Pryor,OK,http://www.pryorcreekgolf.org/,,,,,,,,,,
Pleasant Hills,"4452 E Millbrook Rd, Mount Pleasant, MI 48858-9108",Mount Pleasant,MI,http://www.pleasanthillsgolfcourse.com,,,,,,,,,,
Sabal Springs Golf & Racquet Club,"3410 Clubview Dr., Fort Myers, FL 33917",Fort Myers,FL,http://www.sabalspringsgolf.com,,,,,,,,,,
Dix Hills Park Golf Course,"575 Vanderbilt Pkwy, Dix Hills, NY 11746-5435",Dix Hills,NY,https://www.dixhillsgolf.com/,,,,,,,,,,
Skytop Lodge Golf Course,"1 Skytop Ldg Rd., Skytop, PA 18357-1001",Skytop,PA,http://www.skytop.com,,,,,,,,,,
The Golf Club at Sanctuary Cove,"2050 Sanctuary Wynd, Waverly, GA 31565",Waverly,GA,http://www.sanctuarycovegolf.com,,,,,,,,,,
Indian Boundary Golf Course,"8600 W Forest Preserve Avenue, Chicago, IL 60634",Chicago,IL,https://indianboundary.forestpreservegolf.com/,,,,,,,,,,
Yorktown Golf Complex,"300 Goalby Dr, Belleville, IL 62221-3191",Belleville,IL,http://www.yorktowngolf.net,,,,,,,,,,
Seaview Golf Resort - Bay Course,"401 S New York Rd, Absecon, NJ 08205-9753",Absecon,NJ,http://www.seaviewgolf.com,,,,,,,,,,
The Bear Trace At Tims Ford,"891 Wiseman Bend Rd, Winchester, TN 37398-3881",Winchester,TN,http://www.tnstateparks.com,,,,,,,,,,
Town of Wallkill Golf Club,"40 Sands Rd., Middletown, NY 10941",Middletown,NY,http://www.townofwallkill.com/golfclub,,,,,,,,,,
River Vale Country Club,"660 Rivervale Rd, River Vale, NJ 07675-6479",River Vale,NJ,http://www.rivervalecc.com,,,,,,,,,,
Ridgeview Ranch Golf Club,"2701 Ridgeview Dr, Plano, TX",Plano,TX,http://www.ridgeviewgc.com/,,,,,,,,,,
Glen Oak Golf Course,"711 Smith Rd, East Amherst, NY 14051-1102",East Amherst,NY,http://www.glenoak.com,,,,,,,,,,
Buenaventura Golf Course,"5882 Olivas Park Drive, Ventura, CA 93003",Ventura,CA,http://www.buenaventuragolf.com,,,,,,,,,,
Lewisburg Recreation Center,"1551 Mooresville Highway, Lewisburg, TN 37091",Lewisburg,TN,http://www.lewisburgtn.gov/lewisburg-recreation-center.html,,,,,,,,,,
Sah-Hah-Lee,"17104 SE 130th Ave, Clackamas, OR 97015",Clackamas,OR,http://www.sah-hah-lee.com,,,,,,,,,,
Collins Park Golf Course,"624 Reineck Dr, Toledo, OH 43605-1316",Toledo,OH,http://www.eaglegolf.com,,,,,,,,,,
Mesquite Golf Club,"825 Interstate 30, Mesquite, TX 75150-1411",Mesquite,TX,http://www.mesquitegc.com/,,,,,,,,,,
Sky Creek Ranch Golf Club,"601 Promontory Dr, Keller, TX 76248",Keller,TX,http://skycreekranch.com,,,,,,,,,,
The Golf Club at Grayâ€™s Crossing,"11406 Henness Rd, Truckee, CA 96161",Truckee,CA,http://grayscrossinggolf.com,,,,,,,,,,
Swenson Park Golf Club - Swenson Park Course,"6803 Alexandria Pl, Stockton, CA 95207-2417",Stockton,CA,http://www.stocktongolfcourses.com,,,,,,,,,,
Oasis Golf Club - The Canyons,"100 Palmer Lane, Mesquite, NV 89027",Mesquite,NV,http://www.theoasisgolfclub.com/homepage/start_page.php,,,,,,,,,,
Candlewood Valley Country Club,"401 Danbury Rd., New Milford, CT 06776",New Milford,CT,http://www.candlewoodvalleygolf.com,,,,,,,,,,
The Club at Ironwood,"62 Country club Circle, Staunton, VA 24401",Staunton,VA,http://www.theclubatironwood.com/,,,,,,,,,,
Sienna Golf Club,"1 Waters Lake Blvd, Missouri City, TX 77459",Missouri City,TX,http://www.siennagolf.com,,,,,,,,,,
Remington Golf Club,"2995 Remington Boulevard, Kissimmee, FL 34744",Kissimmee,FL,https://www.playgolfinremington.com,,,,,,,,,,
Blackthorn Golf Club,"6100 Nimtz Parkway, South Bend, IN 46628",South Bend,IN,http://www.blackthorngolf.com,,,,,,,,,,
Tot Hill Farm Golf Club,"3185 Tot Hill Farm Rd, Asheboro, NC 27205-9543",Asheboro,NC,http://www.tothillfarm.com,,,,,,,,,,
The Golf Club At Star Ranch,"2500 Fm 685, Hutto, TX 78634-5007",Hutto,TX,http://www.starranchgolf.com,,,,,,,,,,
Settler's Hill Golf Course,"919 E Fabyan Pkwy, Batavia, IL 60510-1407",Batavia,IL,http://www.settlershill.com,,,,,,,,,,
Van Cortlandt Park Golf Course,"Van Cortlandt Park S.& Bailey, Bronx, NY 10471",Bronx,NY,http://www.golfnyc.com/vancortlandt_home/,,,,,,,,,,
Palm Beach National Golf & Country Club,"7500 Saint Andrews Rd, West Palm Beach, FL 33467",West Palm Beach,FL,http://www.palmbeachnational.com,,,,,,,,,,
Cattails at Meadow View,"1901 Meadowview Pkwy, Kingsport, TN",Kingsport,TN,http://www.cattailsgolf.com,,,,,,,,,,
Country Club of Miami - West,"6801 NW 186th Street, Hialeah, FL",Hialeah,FL,http://golfccmiami.com/,,,,,,,,,,
Boca Royale Golf & Country Club,"1601 Englewood Road, Englewood, FL 34223-1856",Englewood,FL,http://www.bocaroyale.com,,,,,,,,,,
St. Marlo Country Club,"7755 Saint Marlo Country Club Pkwy, Duluth, GA 30097-1631",Duluth,GA,http://www.stmarlo.com,,,,,,,,,,
Country Oaks Golf Course,"6481 Ga Highway 122, Thomasville, GA 31757-2413",Thomasville,GA,http://www.countryoaksgolfcourse.org,,,,,,,,,,
Shiloh Park Golf Course,"23rd and Bethesda Blvd, Zion, IL",Zion,IL,http://www.shilohparkgolf.com/,,,,,,,,,,
Otsego Club - The Classic,"696 M-32 East Main Street, Gaylord, MI 49734",Gaylord,MI,http://www.otsegoclub.com/,,,,,,,,,,
Poinciana Country Club,"3536 Via Poinciana, Lake Worth, FL 33467",Lake Worth,FL,http://www.golfpoinciana.com/,,,,,,,,,,
Southern Gayles Golf Club,"22230 Mooresville Rd, Athens, AL 35613",Athens,AL,http://southerngayles.com/,,,,,,,,,,
Centennial Golf Course,"101 Centennial Blvd, Oak Ridge, TN 37830",Oak Ridge,TN,http://www.centennialgc.com,,,,,,,,,,
Kissimmee Bay Country Club,"2801 Kissimmee Bay Blvd, Kissimmee, FL 34744",Kissimmee,FL,http://www.playgolfinkissimmee.com/,,,,,,,,,,
Avery Ranch Golf Club,"10500 Avery Club Dr, Austin, TX 78717-3825",Austin,TX,http://www.averyranchgolf.com,,,,,,,,,,
The Orchards Golf Club,"1499 Golf Course Dr, Belleville, IL 62220-4870",Belleville,IL,http://www.orchardsgolfclub.com,,,,,,,,,,
Iron Horse Golf Course,"6200 Skylark Circle, North Richland Hills, TX 76180",North Richland Hills,TX,http://www.ironhorsetx.com,,,,,,,,,,
Quail Lodge Golf Club,"8205 Valley Greens Dr, Carmel, CA 93923",Carmel,CA,http://www.quaillodge.com/,,,,,,,,,,
Wetlands Golf,"740 Gilbert Rd, Aberdeen, MD 21001",Aberdeen,MD,http://golfwetlands.com,,,,,,,,,,
Painted Woods Golf Course,"Highway 83, Washburn, North Dakota 58577",Washburn,North Dakota,http://www.paintedwoodsgolf.com,,,,,,,,,,
Schaumburg Golf Club - 9 Holes,"401 N Roselle Rd, Schaumburg, IL",Schaumburg,IL,http://www.schaumburggolf.com/,,,,,,,,,,
Country Club of Coral Springs,"10800 W Sample Rd, Pompano Beach, FL 33065-2632",Pompano Beach,FL,http://www.ccofcs.com/,,,,,,,,,,
Country Club Of Johnston County,"694 Country Club Rd, Smithfield, NC 27577",Smithfield,NC,http://www.ccjohnstoncounty.com/,,,,,,,,,,
Wickenburg Country Club,"1420 Country Club Dr, Wickenburg, AZ 85390",Wickenburg,AZ,http://www.wickenburgcountry.club/,,,,,,,,,,
Grandover Resort - West Course,"1000 Club Rd, Greensboro, NC 27407-8286",Greensboro,NC,http://www.grandover.com,,,,,,,,,,
Viroqua Hills Golf Club,"1110 Highway 14 South, Viroqua, WI 54665",Viroqua,WI,http://www.viroquahillsgolf.com,,,,,,,,,,
Portage Country Club,"W7245 Country Club Rd, Portage, WI 53901",Portage,WI,http://www.portagecc.net,,,,,,,,,,
Cherry Blossom Golf & Country Club,"150 Clubhouse Dr, Georgetown, KY 40324-9070",Georgetown,KY,http://www.cherryblossomgolf.com/,,,,,,,,,,
Lost Tracks Golf Club,"60205 Sunset View Dr, Bend, OR","Bend,",OR,http://losttracks.com/,,,,,,,,,,
Midlane Golf Resort,"4555 W Yorkhouse Rd, Wadsworth, IL",Wadsworth,IL,http://www.midlaneresort.com,,,,,,,,,,
Blue Hills Golf Club,"2002 Blue Hills Dr NE, Roanoke, VA","Roanoke,",VA,http://www.bluehillsgc.com/,,,,,,,,,,
University Golf Club & Conference Center,"23520 Crawford Ave, University Park, IL 60466-3614",University Park,IL,http://www.universitygolfclub.com,,,,,,,,,,
Apache Wells Country Club,"5601 E Hermosa Vista Dr, Mesa, AZ 85215",Mesa,AZ,http://www.apachewellscountryclub.com/,,,,,,,,,,
Greens Folly Golf Course,"1085 Greens Folly Road, South Boston, VA 24592",South Boston,VA,http://www.greensfolly.com/,,,,,,,,,,
Sun City Lakes | East,"10433 W Talisman Rd, SUN CITY, AZ 85351-2252",SUN CITY,AZ,http://www.sunaz.com/golf,,,,,,,,,,
Raven at Three Peaks Golf Club,"2929 North Golden Eagle Road, Silverthorne, CO 80498",Silverthorne,CO,http://www.ravenatthreepeaks.com/,,,,,,,,,,
Raton Country Club,"510 Country Club Rd, Raton, NM 87740",Raton,NM,http://www.ratongolf.com/,,,,,,,,,,
Winthrop Golf Club,"55155 300th St, Winthrop, MN 55396",Winthrop,MN,http://winthropgolfing.com/,,,,,,,,,,
Manatee Golf Course,"6415 53rd Ave West, Bradenton, FL 34210",Bradenton,FL,http://www.manateegcpublic.com,,,,,,,,,,
Teal Bend Golf Course,"7200 Garden Hwy, Sacramento, CA 95837-9314",Sacramento,CA,http://www.tealbendgolf.com,,,,,,,,,,
Jamaica Run Golf Club,"8781 JAMAICA RD., GERMANTOWN, OH 45327",GERMANTOWN,OH,http://www.jamaicarun.com/,,,,,,,,,,
Osceola Municipal Golf Course,"300 Tonawanda Dr, Pensacola, FL 32506-3212",Pensacola,FL,http://www.osceolagolf.com/909/Osceola-Golf-Course,,,,,,,,,,
Bear Trace At Harrison Bay,"8919 Harrison Bay Rd, Harrison, TN 37341-8935",Harrison,TN,http://www.tngolftrail.net,,,,,,,,,,
Hawk Meadows At Dama Farms,"410 E Marr Rd, Howell, MI 48855-8379",Howell,MI,http://www.hawkmeadows.com,,,,,,,,,,
Saxon Woods Golf Course,"315 Mamaroneck Rd, Scarsdale, NY 10583-7717",Scarsdale,NY,http://www.westchestergov.com/parks/Golf/SaxonWoods.htm,,,,,,,,,,
Brentwood Golf Course,"1157 MBO1 Golfair Boulevard, Jacksonville, FL 32209",Jacksonville,FL,http://www.brentwoodgolfcourse.com,,,,,,,,,,
Palm Aire Country Club & Resort - Oaks Course,"2600 Palm-Aire Drive North, Pompano Beach, FL 33069",Pompano Beach,FL,http://www.palmairegolf.com,,,,,,,,,,
The Links of Lake Bernadette,"5430 Links Ln, Zephyrhills, FL 33541",Zephyrhills,FL,http://www.linksoflakebernadette.com,,,,,,,,,,
Royal Scot Golf Club,"4831 Church Rd, New Franken, WI 54229-9609",New Franken,WI,http://www.royalscotgolfclub.com,,,,,,,,,,
Palmilla Beach Resort & Golf Club,"265 Palm Island Dr, Port Aransas, TX 78373",Port Aransas,TX,http://www.newportdunesgolf.com,,,,,,,,,,
Arrowood Golf Course,"5201 Village Drive, Oceanside, CA 92057",Oceanside,CA,http://www.arrowoodgolf.com,,,,,,,,,,
Pine Hills Golf Club Inc,"433 W 130th St, Hinckley, OH 44233",Hinckley,OH,http://golfpinehills.net,,,,,,,,,,
River's Edge Golf Resort,"400 NW Proshop Dr, Redmond, OR 97701-1303",Redmond,OR,http://www.riverhouse.com,,,,,,,,,,
Lost Nation,"38890 Hodgson Rd, Willoughby, OH 44094-7572",Willoughby,OH,http://www.lostnationgolfcourse.com,,,,,,,,,,
Inniscrone Golf Club,"15 Athelone Way, Avondale, PA 19311",Avondale,PA,http://www.inniscronegolfclub.com,,,,,,,,,,
Lake Worth Municipal Golf Course,"1 7th Ave N, Lake Worth, FL 33460-2700",Lake Worth,FL,http://www.lakeworth.org,,,,,,,,,,
Copperas Hollow Country Club,"995 Country Club Dr, Caldwell, TX 77836",Caldwell,TX,http://www.copperashollow.com,,,,,,,,,,
Swiss Fairways,"13114 Skiing Paradise Blvd, Clermont, FL 34711-8474",Clermont,FL,http://www.swiss-fairways.com/,,,,,,,,,,
Fillmore Fairways Golf Course,"21655 Highway 151, Cascade, IA 52033",Cascade,IA,http://www.fillmorefairways.com/,,,,,,,,,,
Sandpiper Golf Club,"6001 Sandpipers Dr, Lakeland, FL 33809-5667",Lakeland,FL,http://www.sandpipergolfclubfl.com/,,,,,,,,,,
Cobblestone Golf Course,"4200 Nance Rd NW, Acworth, GA 30101-3847",Acworth,GA,http://www.cobblestonegolf.com,,,,,,,,,,
Longbow Golf Club,"5601 E Longbow Pkwy, Mesa, AZ 85215-9630",Mesa,AZ,http://www.longbowgolf.com,,,,,,,,,,
Lewisburg Elks Country Club,"368 Brush Rd, Lewisburg, WV 24901",Lewisburg,WV,http://www.lewisburgelkscc.com/,,,,,,,,,,
Silverthorn Country Club,"4550 Golf Club Ln, Brooksville, FL 34609",Brooksville,FL,http://www.silverthornclub.net,,,,,,,,,,
Dub's Dread Golf Club,"12601 Hollingsworth Rd, Kansas City, KS 66109-3822",Kansas City,KS,http://www.dubsdreadgolfclub.com,,,,,,,,,,
Magnolia Green Golf Club,"17301 Memorial Tournament Drive, Moseley, VA 23120",Moseley,VA,http://www.magnoliagreengolfclub.com/,,,,,,,,,,
Arrowhead Golf Course,"3974 Clubhouse Dr, Greenfield, IN 46140-8943",Greenfield,IN,http://www.arrowheadgc.com,,,,,,,,,,
Gleneagles Golf Club,"2615 Glenwood Drive, Twinsburg, OH 44087",Twinsburg,OH,http://www.gleneaglesgc.com,,,,,,,,,,
Huntington Hills Golf & Country Club,"2626 Duff Rd, Lakeland, FL 33810-2155",Lakeland,FL,http://www.huntingtonhillscountryclub.com,,,,,,,,,,
Lone Tree Golf Club,"6262 S Mountain Blvd, Chandler, AZ 85249-3965",Chandler,AZ,http://www.lonetreegolf18.com,,,,,,,,,,
Elks Run Golf Club,"2000 Elklick Road, Batavia, OH 45103",Batavia,OH,http://www.elksrungc.com,,,,,,,,,,
Arizona Biltmore Golf Club - Links,"2400 E. Missouri Ave., Phoenix, AZ 85016",Phoenix,AZ,http://www.azbiltmoregc.com,,,,,,,,,,
Ken McDonald Golf Course,"800 E Divot Dr, Tempe, AZ 85283-4607",Tempe,AZ,http://www.golftempeaz.com,,,,,,,,,,
Jacksboro Country Club,"1300 State Hwy 148, Jacksboro, TX 76058",Jacksboro,TX,http://www.facebook.com/JacksboroGolfCountryClub/,,,,,,,,,,
Tumwater Valley Golf Club,"4611 Tumwater Valley Dr SE, Olympia, WA 98501-4551",Olympia,WA,http://www.tumwatervalleygc.com,,,,,,,,,,
Grey Rock Golf Club,"7401 Highway 45, Austin, TX 78739",Austin,TX,http://www.greyrockgolfclub.com,,,,,,,,,,
Bear Creek Golf Club - West,"3500 Bear Creek Ct, Dallas, TX 75261",Dallas,TX,http://www.bearcreek-golf.com,,,,,,,,,,
Canoa Ranch Golf Club,"5800 S Camino del Sol, Green Valley, AZ 85622",Green Valley,AZ,http://www.canoaranchgolfclub.com,,,,,,,,,,
Wildhorse Golf Course,"2323 Rockwell Dr, Davis, CA 95618-7635",Davis,CA,http://www.wildhorsegolfclub.com,,,,,,,,,,
Pacific Grove Golf Links,"77 Asilomar Blvd, Pacific Grove, CA 93950-2037",Pacific Grove,CA,http://www.pggolflinks.com,,,,,,,,,,
Red Wing Golf Club,"1311 W 6th St, Red Wing, MN 55066",Red Wing,MN,http://www.redwinggolfcourse.com/,,,,,,,,,,
The Fields Golf Course,"1508 N State Rd, Ithaca, MI 48847-9744",Ithaca,MI,http://thefieldsgolfcourse.com,,,,,,,,,,
Morning Star Golf Course,"271 S Mitthoeffer Rd, Indianapolis, IN 46229-3018",Indianapolis,IN,http://www.morningstargc.com,,,,,,,,,,
Bay Harbor Golf Club - The Quarry-Preserve,"3600 Village Harbor Road, Bay Harbor, MI 49770",Bay Harbor,MI,http://www.bayharborgolf.com/,,,,,,,,,,
Bear's Best Atlanta,"5342 Aldeburgh Dr, Suwanee, GA 30024-7512",Suwanee,GA,http://www.bearsbest.com,,,,,,,,,,
Rice Lake Golf & Country Club,"43080 Golf Avenue, Lake Mills, IA 50450",Lake Mills,IA,http://www.ricelakegolfandcountryclub.com/,,,,,,,,,,
Escalon Golf Course,"17051 Escalon Bellota Rd, Escalon, CA 95320-9557",Escalon,CA,http://escalongolf.com/,,,,,,,,,,
Apple Mountain Golf Resort,"3455 Carson Rd, Camino, CA 95709-9595",Camino,CA,http://www.applemountaingolfresort.net,,,,,,,,,,
Legacy Golf Course at Lanier Islands,"7000 Lanier Islands Pkwy, Buford, GA 30518",Buford,GA,http://www.lanierislands.com,,,,,,,,,,
Pickens Country Club,"1018 Country Club Rd, Pickens, SC 29671-9070",Pickens,SC,http://www.aaggolfgroup.com,,,,,,,,,,
Mt. Woodson Golf Club,"16422 N Woodson Dr, Ramona, CA 92065-6800",Ramona,CA,http://www.mtwoodsongolfclub.com/,,,,,,,,,,
Fort Walton Beach Golf Course - Pines Course,"1955 Lewis Turner Blvd, Fort Walton Beach, FL 32547-1256",Fort Walton Beach,FL,http://www.fwb.org,,,,,,,,,,
Hollywood Beach Golf Club,"1600 Johnson Street, Hollywood, FL 33020",Hollywood,FL,http://www.hollywoodbeachgolf.com,,,,,,,,,,
Indigo Creek Golf Club,"9480 Indigo Club Dr, Murrells Inlet, SC 29576-8637",Murrells Inlet,SC,http://www.indigocreekgolfclub.com,,,,,,,,,,
Suneagles Golf Club,"2000 Lowther Drive, Eatontown, NJ 07724",Eatontown,NJ,http://www.suneaglesgolf.com/,,,,,,,,,,
Dad Miller Golf Course,"430 N Gilbert St, Anaheim, CA 92801-5098",Anaheim,CA,https://www.dadmillergc.com/,,,,,,,,,,
Deer Creek Golf Club,"25055 Western Ave, University Park, IL 60466-3452",University Park,IL,http://www.deercreekgolfcourse.com,,,,,,,,,,
Ridge Creek Dinuba Golf Club,"3018 Ridge Creek Dr, Dinuba, CA 93618",Dinuba,CA,http://golfridgecreek.com,,,,,,,,,,
Kings Mountain Country Club,"109 Country Club Rd, Kings Mountain, NC 28086",Kings Mountain,NC,http://kingsmountaincc.com/,,,,,,,,,,
Turtle Creek Golf Club,"1279 Admiralty Boulevard, Rockledge, FL",Rockledge,FL,https://www.golfturtlecreek.com/,,,,,,,,,,
Country View Golf Course,"240 West Beltline Road, Lancaster, TX 75146",Lancaster,TX,http://www.countryviewgolfcourse.com,,,,,,,,,,
River Club,"11 Pine Dr, Pawleys Island, SC 29585",Pawleys Island,SC,http://www.playriverclub.com/,,,,,,,,,,
Aberdeen Golf Club,"4111 Crescent Rd, Eureka, MO 63025-1630",Eureka,MO,http://www.aberdeengolf.com,,,,,,,,,,
Black Brook Golf Course,"8900 Lake Shore Blvd, Mentor, OH 44060-1524",Mentor,OH,http://www.cityofmentor.com,,,,,,,,,,
Lindsey Golf Course,"4024 Bullion Blvd, Fort Knox, KY 40121",Fort Knox,KY,http://www.knoxmwr.com,,,,,,,,,,
Royal Meadows Golf Course,"10501 E 47th St, Kansas City, MO 64133",Kansas City,MO,http://www.royalmeadowsgolfclub.com,,,,,,,,,,
Gray Eagle Golf Club & Academy,"12500 Brooks School Rd, Fishers, IN 46037-9745",Fishers,IN,http://grayeaglegolf.com/,,,,,,,,,,
Vernon Hills Golf Course,"291 Evergreen Dr, Vernon Hills, IL 60061-2957",Vernon Hills,IL,http://www.vernonhillsgolf.com,,,,,,,,,,
Pinehills Golf Club - Jones Course,"54 Clubhouse Drive, Plymouth, MA 02630",Plymouth,MA,http://www.pinehillsgolf.com,,,,,,,,,,
Sunset Hills Golf Course,"800 Radio Rd, Charlotte, NC 28216",Charlotte,NC,http://www.charlottepublicgolf.com,,,,,,,,,,
Stonewall Golf Club,"15601 Turtle Point Dr, Gainesville, VA 20155",Gainesville,VA,http://stonewallgolf.com,,,,,,,,,,
Hidden Valley Golf Course,"800 MM Highway, Lawson, MO 64062",Lawson,MO,http://www.golflawson.com,,,,,,,,,,
Mercer Oaks Golf Course - West Course,"725 Village Rd W Ste 1, Princeton Junction, NJ 08550-5204",Princeton Junction,NJ,http://www.golfmercercounty.com,,,,,,,,,,
Lincoln Country Club,"2108 Country Club Rd, Lincolnton, NC 28092-8724",Lincolnton,NC,http://www.lincolncountryclub.net,,,,,,,,,,
The Links At Riverlakes Ranch,"5201 Riverlakes Dr, Bakersfield, CA 93312-4993",Bakersfield,CA,http://riverlakesgc.com/,,,,,,,,,,
Sea Scape Golf Links,"300 W Eckner St, Kitty Hawk, NC 27949-5909",Kitty Hawk,NC,http://www.seascapegolf.com,,,,,,,,,,
Rocky Point Golf Club,"4151 Dana Shores Drive, Tampa, FL 33634",Tampa,FL,http://www.rockypointgolf.net/welcome/#about,,,,,,,,,,
Orangebrook Golf & Country Club - East Course,"400 Entrada Drive, Hollywood, FL 33021-7040",Hollywood,FL,http://www.orangebrook.com/,,,,,,,,,,
Village Greens Country Club,"13921 Asheville Highway, Gramling, SC 29348",Gramling,SC,http://www.villagegreens.net/,,,,,,,,,,
Atlantic National Golf Club,"6400 Grand Lacuna Blvd, Lake Worth, FL 33467",Lake Worth,FL,http://www.grandlacuna.com/course,,,,,,,,,,
Boulder City Municipal Golf Course,"1 Clubhouse Dr, Boulder City, NV 89005-3624",Boulder City,NV,http://www.golfbouldercity.com,,,,,,,,,,
Juniper Golf Club,"1938 SW Elkhorn Ave., Redmond, OR 97756",Redmond,OR,http://www.playjuniper.com,,,,,,,,,,
Mee-Kwon Park Golf Course,"6333 W. Bonniwell Road, Mequon, WI 53097",Mequon,WI,http://www.ozaukeecountygolf.com/mee-kwon/,,,,,,,,,,
Freeport Municipal Golf Course,"830 Slaughter Road, Freeport, TX 77541",Freeport,TX,http://www.freeportgolfcourse.com/,,,,,,,,,,
Geneva National - Palmer - Palmer Course,"1221 Geneva National Ave S, Lake Geneva, WI 53147-4904",Lake Geneva,WI,http://www.genevanationalresort.com,,,,,,,,,,
Red Mountain Ranch Country Club,"6423 E Teton Cir, Mesa, AZ 85215-0830",Mesa,AZ,http://www.rmrcc.com,,,,,,,,,,
Belvedere Country Club,"2368 Country Club Dr, Hampstead, NC 28443",Hampstead,NC,http://www.belvederecc.com,,,,,,,,,,
Mohawk Park Golf Course-Pecan Valley,"5223 E 41st St N, Tulsa, OK 74115",Tulsa,OK,http://www.tulsagolf.org/Mohawk-Park-Golf-Course.html,,,,,,,,,,
The Golf Club of Dallas,"2200 W Red Bird Ln, Dallas, TX 75232-2744",Dallas,TX,http://www.golfclubdallas.com,,,,,,,,,,
Heartwell Golf Course,"6700 E Carson St, Long Beach, CA 90808-2297",Long Beach,CA,http://www.heartwellgc.com/,,,,,,,,,,
Mozingo Lakes Golf Course,"25055 Liberty Road, Maryville, MO",Maryville,MO,http://golf.mozingolake.com/,,,,,,,,,,
Whirlwind Golf Club - Devil's Claw,"5692 W North Loop Rd, Chandler, AZ 85226-5401",Chandler,AZ,http://www.whirlwindgolf.com,,,,,,,,,,
Quailbrook Golf Course,"625 New Brunswick Rd, Somerset, NJ 08873-4798",Somerset,NJ,https://www.quailbrookgolf.com/,,,,,,,,,,
Oak Ridge Golf Club,"850 South Westfield Street, Feeding Hills, MA 01030",Feeding Hills,MA,http://www.oakridgegc.com/,,,,,,,,,,
Spring Valley Country Club,"23913 Wilmot Rd, Salem, WI",Salem,WI,http://www.springvalleyccgolf.com/,,,,,,,,,,
Highland Golf Course,"2200 1st Street, Cosmopolis, WA 98537",Cosmopolis,WA,http://www.facebook.com/pages/Highland-Golf-Course/163833048394,,,,,,,,,,
Blackberry Oaks Golf Course,"2245 Kennedy Rd, Bristol, IL 60512-9790",Bristol,IL,http://www.blackberryoaks.com,,,,,,,,,,
Baylands Golf Links,"1875 Embarcadero Rd, Palo Alto, CA 94303-3333",Palo Alto,CA,http://baylandsgolflinks.com/,,,,,,,,,,
Pilot Knob Park Golf Club,"450 Club House Dr, Pilot Mountain, NC 27041",Pilot Mountain,NC,http://www.pilotknobparkgolf.org/,,,,,,,,,,
Rio Vista Golf Club,"1000 Summerset Dr, Rio Vista, CA 94571-9729",Rio Vista,CA,http://thegolfclubatriovista.com/,,,,,,,,,,
Hickory Flat Greens,"54188 Township Road 155, West Lafayette, OH 43845-9501",West Lafayette,OH,http://www.hickoryflatgreens.com,,,,,,,,,,
Bear Creek Golf Club - East,"3500 Bear Creek Ct, Dallas, TX 75261",Dallas,TX,http://bearcreek-golf.com,,,,,,,,,,
TPC Scottsdale - Champions Course,"17020 N Hayden Rd, Scottsdale, AZ",Scottsdale,AZ,http://www.tpc.com/tpc-scottsdale,,,,,,,,,,
"Eagle Vale Golf Course, Inc.","4344 Nine Mile Point Rd, Fairport, NY 14450-8505",Fairport,NY,http://www.eaglevale.com,,,,,,,,,,
Braintree Municipal Golf Course,"101 Jefferson St, Braintree, MA 02184",Braintree,MA,http://braintreegolf.com,,,,,,,,,,
Boyne Highlands - Arthur Hills Course,"600 Highlands, Harbor Springs, MI 49740",Harbor Springs,MI,http://www.boyne.com/boynehighlands/golf/courses/arthur-hills,,,,,,,,,,
Oak View Golf Club,"25177 665th Ave, Alden, MN 56032",Alden,MN,http://www.oakviewgc.com/,,,,,,,,,,
Big Creek Golf & Country Club,"452 Country Club Dr, Mountain Home, AR 72653-4118",Mountain Home,AR,http://www.bigcreekgolf.com,,,,,,,,,,
Aguila Golf Course - Par-3 Course,"8440 S 35th Ave, Laveen, AZ 85339-1866",Laveen,AZ,https://www.phoenix.gov/parks/golf/phoenix-golf-courses/aguila-9,,,,,,,,,,
Priest Lake Golf Course,"152 Fairway Dr, Priest Lake, ID 83856-8655",Priest Lake,ID,http://www.priestlakegolfcourse.com,,,,,,,,,,
Golf Club At Surrey Hills,"11340 Surrey Hills Blvd, Yukon, OK 73099-8068",Yukon,OK,http://www.surreyhillsok.com,,,,,,,,,,
Ware Shoals Golf Course,"98 S Greenwood Ave, Ware Shoals, SC 29692-1541",Ware Shoals,SC,http://www.golfcarolina.com/courses/ware-shoals/ware-shoals-gc/,,,,,,,,,,
"The Ritz-Carlton Golf Club, Grande Lakes, Orlando","4012 Central Florida Pkwy, Orlando, FL 32837-7662",Orlando,FL,http://www.ritzcarlton.com/en/Properties/Orlando/Recreation/Golf.htm,,,,,,,,,,
Stonewolf Golf Club,"1195 Stonewolf Trl, Fairview Heights, IL 62208-4510",Fairview Heights,IL,http://www.stonewolfgolf.com,,,,,,,,,,
Geneva National - Player,"1221 Geneva National Ave S., Lake Geneva, WI 53147",Lake Geneva,WI,http://www.genevanationalresort.com/,,,,,,,,,,
La Contenta Golf Course,"1653 Highway 26, Valley Springs, CA 95252",Valley Springs,CA,http://www.lacontentagolf.com,,,,,,,,,,
Chaparral Golf & Country Club,"1260 Mohave Drive, Bullhead City, AZ 86442",Bullhead City,AZ,https://www.bullheadcity.com/tourism/visitors/golf-courses,,,,,,,,,,
Bennett Valley Golf Course,"3330 Yulupa Ave, Santa Rosa, CA 95405-8647",Santa Rosa,CA,http://www.bennettvalleygolf.org,,,,,,,,,,
Zollner Golf Course,"1215 Park Ave, Angola, IN 46703-1764",Angola,IN,http://www.zollnergc.com,,,,,,,,,,
Casa Blanca Golf Course,"3900 Casa Blanca Lake Rd, Laredo, TX 78041",Laredo,TX,http://www.casablancagolfcourse.com,,,,,,,,,,
Crumpin Fox Club,"Parmenter Road, Bernardston, MA 01337",Bernardston,MA,http://www.golfthefox.com,,,,,,,,,,
Chicago Heights Park District Golf Course East,"315 Glenwood -Chicago Heights Rd, Chicago Heights, IL 60411-8218",Chicago Heights,IL,http://www.chparkdistrict.net/golf-courses/,,,,,,,,,,
Cedar Rock Country Club,"450 Cedar Rock Estate Dr, Lenoir, NC 28633",Lenoir,NC,http://www.cedarrockcountryclub.com/,,,,,,,,,,
Whirlwind Golf Club - Cattail,"5692 W. North Loop Road, Chandler, AZ 85226",Chandler,AZ,http://www.whirlwindgolf.com,,,,,,,,,,
Sun Hills Golf Club,"3185 North Hills Dr, Layton, UT 84041",Layton,UT,http://www.sunhillsgolf.com,,,,,,,,,,
Penderbrook Golf Club,"3700 Golf Trail Ln, Fairfax, VA 22033-2603",Fairfax,VA,http://www.penderbrookgolf.com/,,,,,,,,,,
Black Bear Golf Club,"24505 Calusa Blvd, Eustis, FL 32736",Eustis,FL,http://www.blackbeargolfclub.com,,,,,,,,,,
Atlantic Country Club,"450 Little Sandy Pond Rd, Plymouth, MA 02360",Plymouth,MA,http://www.atlanticcountryclub.net/,,,,,,,,,,
Highland Links Golf Course | Highland Links,"10 Highland Light Rd, North Truro, MA 02652",North Truro,MA,http://www.nps.gov,,,,,,,,,,
Rutgers Golf Course,"777 Hoes Ln, Piscataway, NJ 08854",Piscataway,NJ,http://golfcourse.rutgers.edu/,,,,,,,,,,
Crane Watch Club,"4225 SW Bimini Cir S, Palm City, FL 34990",Palm City,FL,https://cranewatchclub.com/,,,,,,,,,,
Mountain View Country Club,"100 Elks Club Rd, Boalsburg, PA 16827-1692",Boalsburg,PA,http://www.mtviewcountryclub.com/,,,,,,,,,,
Baraboo Country Club,"401 Mine Road, Baraboo, WI 53913",Baraboo,WI,http://www.baraboocountryclub.com,,,,,,,,,,
Eagle Crest Golf Club,"2492 Old Ranch Rd, Escondido, CA 92027-6727",Escondido,CA,http://www.eaglecrestgc.com,,,,,,,,,,
Gearhart Golf Links,"1157 N Marion Ave, Seaside, OR 97138",Seaside,OR,http://gearhartgolflinks.com,,,,,,,,,,
Chateau Elan Golf Club - Woodlands Course,"6060 Golf Club Dr, Braselton, GA 30517-2408",Braselton,GA,http://www.chateauelan.com,,,,,,,,,,
Links at Texarkana,"333 Links Dr Ste 101, Texarkana, AR 71854-8505",Texarkana,AR,http://www.lindseymanagement.com,,,,,,,,,,
Crockettâ€™s Ridge Golf Club,"4439 L Jack Dr, Kingsport, TN 37664",Kingsport,TN,http://www.crockettridgegolfcourse.com/,,,,,,,,,,
Woodland Hills Golf Club,"359 County Road #5021, Nacogdoches, TX 75964",Nacogdoches,TX,http://woodlandhillsgolfclub.com/,,,,,,,,,,
Sea Ranch Golf Links,"42000 Hwy 1, Sea Ranch, CA 95497",Sea Ranch,CA,http://www.searanchgolf.com,,,,,,,,,,
Avila Beach Golf Resort,"6464 Ana Bay Drive, Avila Beach, CA 93424",Avila Beach,CA,http://www.avilabeachresort.com,,,,,,,,,,
Victoria Hills Golf Club,"300 Spalding Way, Deland, FL 32724-8802",Deland,FL,http://www.victoriahillsgolf.com/,,,,,,,,,,
Bull Run Golf Club,"3520 James Madison Hwy, Haymarket, VA 20169-1932",Haymarket,VA,http://golfbullrun.com/,,,,,,,,,,
Chuck Corica Golf Complex - Earl Fry Course,"1 Clubhouse Memorial Rd, Alameda, CA 94502-6502",Alameda,CA,https://www.alamedagolf.com/,,,,,,,,,,
Coldwater Canyon Golf Course,"4065 River Road, Wisconsin Dells, WI 53965",Wisconsin Dells,WI,http://www.wisconsindellsgolf.com,,,,,,,,,,
Lost Key Golf Club,"625 Lost Key Dr, Pensacola, FL 32507",Pensacola,FL,http://www.lostkey.com,,,,,,,,,,
Foxtail Golf Club - South,"100 Golf Course Dr., Rohnert Park, CA 94928",Rohnert Park,CA,http://www.playfoxtail.com,,,,,,,,,,
Mainland Golf Course,"2250 Rittenhouse Rd, Mainland, PA 19451",Mainland,PA,http://www.mainlandgolf.com,,,,,,,,,,
Henry Homberg Golf Course,"5490 Babe Zaharias Drive, Beaumont, TX 77705",Beaumont,TX,http://www.beaumontrecreation.com/golf.htm,,,,,,,,,,
Majestic Golf Club,"350 Homestead Rd S, Lehigh Acres, FL 33936-7606",Lehigh Acres,FL,https://www.majesticgolfclub.net/,,,,,,,,,,
Mohansic Golf Course,"1500 Baldwin Rd, Yorktown Heights, NY 10598-5818",Yorktown Heights,NY,http://golf.westchestergov.com/mohansic-golf-course,,,,,,,,,,
Trilogy Golf Club At Vistancia,"12575 W Golf Club Dr, Peoria, AZ 85383-2561",Peoria,AZ,http://www.trilogygolfclub.com,,,,,,,,,,
Tri-Mountain Golf Course,"1701 NW 299th St, Ridgefield, WA 98642-5205",Ridgefield,WA,http://www.trimountaingolf.com,,,,,,,,,,
The Legacy Golf Club,"6808 S 32nd St, Phoenix, AZ 85042-6004",Phoenix,AZ,http://www.golflegacyresort.com,,,,,,,,,,
Fox Creek Golf Course,"36000 7 Mile Rd, Livonia, MI 48152",Livonia,MI,http://www.golflivonia.com/,,,,,,,,,,
Clear Creek Golf Club,"3902 Fellow Road, Houston, TX 77047",Houston,TX,http://www.clearcreekgolfclub.com,,,,,,,,,,
Raven Rock Golf Course,"586 Golf Course Ln, Jenkins, KY 41537",Jenkins,KY,https://ravenrockgolfcourse.com/,,,,,,,,,,
Hickory Knob,"1591 Resort Dr, Mc Cormick, SC 29835-4431",Mc Cormick,SC,http://www.discoversouthcarolina.com,,,,,,,,,,
Green Meadows,"18 W 201 W. 63rd Street, Westmont, IL 60559-2677",Westmont,IL,http://www.dupagegolf.com,,,,,,,,,,
Azalea Sands Golf Club,"2100 Highway 17 S, North Myrtle Beach, SC 29582-4252",North Myrtle Beach,SC,https://www.azaleasandsgc.com/,,,,,,,,,,
Sherrill Park - Course 2,"2001 E Lookout Dr, Richardson, TX",Richardson,TX,http://www.sherrillparkgolf.com/,,,,,,,,,,
Ash Brook Golf Course,"1210 Raritan Rd, Scotch Plains, NJ 07076",Scotch Plains,NJ,http://www.ashbrookgolfcourse.com,,,,,,,,,,
The Golf Course at Paupack Hills,"125 Country Club Road, Greentown, PA 18426",Greentown,PA,http://www.paupackhills.com/,,,,,,,,,,
Chester Washington Golf Course,"1930 W. 120th Street, Los Angeles, CA 90047",Los Angeles,CA,https://www.chesterwashington.com/?doubleclick=false,,,,,,,,,,
Golfmohr Golf Club,"16724 Hubbard Rd, East Moline, IL 61244-9788",East Moline,IL,http://www.golfmohr.com,,,,,,,,,,
The Links at Teton Peaks,"400 W 127 N, Driggs, ID",Driggs,ID,http://linksgc.com/,,,,,,,,,,
Hawk's Landing Golf Club,"8701 World Center Dr, Orlando, FL 32821-6358",Orlando,FL,http://www.golfhawkslanding.com,,,,,,,,,,
Kona Country Club - Ocean Course,"78-7000 Alii Dr, Kailua Kona, HI 96740-2597",Kailua Kona,HI,http://www.konagolf.com/,,,,,,,,,,
Pueblo El Mirage Golf Club,"11201 N. El Mirage Rd., El Mirage, AZ 85335",El Mirage,AZ,https://puebloelmiragegolf.com/,,,,,,,,,,
Brentwood,"12415 Grafton Rd, Grafton, OH 44044-1051",Grafton,OH,http://www.golfbrentwood.com,,,,,,,,,,
Desert Springs Golf Course,"19900 N. Remington Drive, Surprise, AZ 85374",Surprise,AZ,https://www.golfnow.com/courses/1049993-desert-springs-golf-course-details,,,,,,,,,,
Tijeras Creek Golf Club,"29082 Tijeras Creek, Rancho Santa Margrta, CA 92688",Rancho Santa Margrta,CA,http://tijerascreek.com,,,,,,,,,,
Berkshire Valley Golf Course,"28 Cozy Lake Rd, Oak Ridge, NJ 07438-9125",Oak Ridge,NJ,https://www.berkshirevalleygc.com/,,,,,,,,,,
Eastmoreland Golf Course,"2425 SE Bybee Blvd, Portland, OR 97202-8799",Portland,OR,http://www.eastmorelandgolfcourse.com,,,,,,,,,,
Lake Presidential Golf Club,"2817 Crain Highway, Upper Marlboro, MD 20774-8957",Upper Marlboro,MD,http://www.lakepresidential.com/,,,,,,,,,,
Pinecrest Country Club,"29 W Pinecrest Ln, Brookville, Pennsylvania 15825",Brookville,Pennsylvania,http://www.pinecrestcc.com,,,,,,,,,,
The Florida Club,"1380 SW Kanner Hwy, Stuart, FL 34997",Stuart,FL,http://9005 SW Old Royal Drive,,,,,,,,,,
Palmbrook Country Club,"9350 W. Greenway Road, Sun City, AZ 85351",Sun City,AZ,http://www.palmbrookgolf.com,,,,,,,,,,
Glen Oaks Golf Club,"200 West Dawson Ave, Glendora, CA 91740",Glendora,CA,http://glenoaksglc.com/,,,,,,,,,,
The Woodlands Golf Club,"2839 Harris Lane, Alton, IL 62002",Alton,IL,http://golfhgm.com/the-woodlands/,,,,,,,,,,
Lighthouse Country Club,"118 Club Circle, Kingsland, TX 78639",Kingsland,TX,http://www.lighthousecountryclub.com,,,,,,,,,,
Dogwood Trace Golf Course,"3108 Homestead Dr, Petersburg, VA 23805-2343",Petersburg,VA,http://www.dogwoodtracegolf.com/,,,,,,,,,,
Iron Valley Golf Club,"201 Iron Valley Dr, Lebanon, PA 17042-8812",Lebanon,PA,http://www.ironvalley.com,,,,,,,,,,
Grantwood Golf Course,"38855 Aurora Rd, Cleveland, OH",Cleveland,OH,http://www.solonohio.org/index.aspx?nid=217,,,,,,,,,,
Belk Park Golf Course,"880 Belk Park Rd, Wood River, IL 62095-1895",Wood River,IL,http://www.belkpark.com,,,,,,,,,,
Shalimar Golf Course,"2032 East Golf Ave, Tempe, AZ 85282",Tempe,AZ,http://www.shalimarcountryclub.com,,,,,,,,,,
Crystal Woods Golf Club,"5915 S Il Route 47, Woodstock, IL 60098-7403",Woodstock,IL,http://www.crystalwoodsgc.com,,,,,,,,,,
Bliss Creek Golf Course,"1 Golfview Rd., Sugar Grove, IL 60554",Sugar Grove,IL,http://www.blisscreekgolf.com,,,,,,,,,,
Rolling Hills Golf Course,"5801 Pierce Ln, Godfrey, IL",Godfrey,IL,http://www.rollinghillsgc.com/,,,,,,,,,,
Lakewood Golf Club,"4801 General Degaulle Drive, New Orleans, LA 70131",New Orleans,LA,http://www.lakewoodgolf.com,,,,,,,,,,
Peninsula Golf Club,"50 Nassau Rd, Massapequa, NY 11758",Massapequa,NY,http://peninsulagc.com/,,,,,,,,,,
Revere Golf Club - Lexington Course,"2600 Hampton Rd, Henderson, NV 89052-7029",Henderson,NV,http://www.reveregolf.com,,,,,,,,,,
East Mountain Country Club,"1458 East Mountain Road, Westfield, MA 01085",Westfield,MA,http://www.eastmountaincc.com/,,,,,,,,,,
Wigwam Golf Club - Patriot,"451 N. Old Litchfield Rd., Litchfield Park, AZ 85340",Litchfield Park,AZ,http://www.wigwamresort.com,,,,,,,,,,
Wild Laurel Golf Course,"702 Country Club Dr, Townsend, TN 37882-3620",Townsend,TN,https://www.wildlaurel.us/,,,,,,,,,,